station,valid,metar
RPLL,2025-01-01 00:00,RPLL 010000Z 21002KT 5000 HZ FEW025 BKN100 27/25 Q1011 NOSIG RMK A2985 HZ ALQDS
RPLL,2025-01-01 01:00,RPLL 010100Z 28004KT 240V320 6000 SCT025 BKN100 28/26 Q1012 NOSIG RMK A2988
RPLL,2025-01-01 02:00,RPLL 010200Z 27004KT 6000 -RA SCT025 BKN100 28/25 Q1011 NOSIG RMK A2985
RPLL,2025-01-01 03:00,RPLL 010300Z 26003KT 230V300 6000 -RA SCT023 OVC090 27/25 Q1011 NOSIG RMK A2985
RPLL,2025-01-01 04:00,RPLL 010400Z VRB02KT 6000 SCT023 OVC100 28/25 Q1010 NOSIG RMK A2983
RPLL,2025-01-01 05:00,RPLL 010500Z VRB03KT 6000 SCT023 BKN100 30/24 Q1010 NOSIG RMK A2983
RPLL,2025-01-01 06:00,RPLL 010600Z 11006KT 070V160 9000 SCT025 BKN100 31/25 Q1009 NOSIG RMK A2980
RPLL,2025-01-01 07:00,COR RPLL 010700Z 12006KT 070V170 9999 SCT025 BKN100 30/24 Q1008 NOSIG RMK A2977
RPLL,2025-01-01 08:00,RPLL 010800Z 12008KT 080V160 9999 SCT025 BKN100 29/24 Q1008 NOSIG RMK A2977
RPLL,2025-01-01 09:00,RPLL 010900Z 12007KT 080V150 9999 SCT025 BKN100 29/24 Q1009 NOSIG RMK A2980
RPLL,2025-01-01 10:00,RPLL 011000Z 12006KT 070V150 9999 SCT025 BKN100 28/24 Q1010 NOSIG RMK A2983
RPLL,2025-01-01 11:00,RPLL 011100Z 13006KT 090V170 9999 SCT025 BKN100 28/24 Q1010 NOSIG RMK A2983
RPLL,2025-01-01 12:00,RPLL 011200Z 13006KT 090V170 9999 SCT025 BKN100 27/24 Q1010 NOSIG RMK A2983
RPLL,2025-01-01 13:00,RPLL 011300Z 11005KT 080V160 9999 SCT025 BKN100 27/24 Q1011 NOSIG RMK A2985
RPLL,2025-01-01 14:00,RPLL 011400Z 11005KT 070V150 9999 SCT025 BKN100 27/23 Q1011 NOSIG RMK A2985
RPLL,2025-01-01 15:00,RPLL 011500Z 12006KT 070V150 9999 SCT025 BKN100 27/24 Q1011 NOSIG RMK A2985
RPLL,2025-01-01 16:00,RPLL 011600Z 12004KT 090V160 9999 FEW025 SCT150 27/23 Q1011 NOSIG RMK A2985
RPLL,2025-01-01 17:00,RPLL 011700Z 07003KT 9999 FEW025 SCT150 26/24 Q1010 NOSIG RMK A2983
RPLL,2025-01-01 18:00,RPLL 011800Z 09003KT 9999 FEW025 26/24 Q1010 NOSIG RMK A2983
RPLL,2025-01-01 19:00,RPLL 011900Z VRB01KT 9999 FEW025 BKN130 26/23 Q1009 NOSIG RMK A2980
RPLL,2025-01-01 20:00,RPLL 012000Z VRB01KT 9999 FEW025 BKN150 26/24 Q1010 NOSIG RMK A2983
RPLL,2025-01-01 21:00,RPLL 012100Z 21002KT 9999 FEW025 BKN150 26/24 Q1009 NOSIG RMK A2980
RPLL,2025-01-01 22:00,RPLL 012200Z VRB02KT 9999 FEW025 BKN130 26/24 Q1010 NOSIG RMK A2983
RPLL,2025-01-01 23:00,RPLL 012300Z 16002KT 9999 FEW025 BKN100 26/25 Q1010 NOSIG RMK A2983
RPLL,2025-01-02 00:00,RPLL 020000Z VRB01KT 9999 FEW023 BKN100 28/25 Q1011 NOSIG RMK A2985
RPLL,2025-01-02 01:00,RPLL 020100Z VRB02KT 9999 FEW025 BKN100 29/25 Q1011 NOSIG RMK A2985
RPLL,2025-01-02 02:00,RPLL 020200Z VRB03KT 9999 FEW025 BKN100 30/24 Q1011 NOSIG RMK A2985
RPLL,2025-01-02 03:00,RPLL 020300Z VRB04KT 9999 FEW025 BKN100 30/24 Q1011 NOSIG RMK A2985
RPLL,2025-01-02 04:00,RPLL 020400Z VRB04KT 9999 FEW025 BKN100 32/25 Q1010 NOSIG RMK A2983
RPLL,2025-01-02 05:00,RPLL 020500Z 11006KT 080V140 9999 FEW025 BKN100 32/24 Q1009 NOSIG RMK A2980
RPLL,2025-01-02 06:00,RPLL 020600Z 15005KT 090V230 9999 FEW025 33/24 Q1008 NOSIG RMK A2977
RPLL,2025-01-02 07:00,RPLL 020700Z VRB05KT 9999 SCT025 BKN100 32/23 Q1008 NOSIG RMK A2977
RPLL,2025-01-02 08:00,RPLL 020800Z 14004KT 090V220 9999 FEW023TCU SCT025 31/24 Q1007 NOSIG RMK A2974 TCU N
RPLL,2025-01-02 09:00,RPLL 020900Z VRB05KT 9999 FEW023TCU SCT025 BKN100 30/24 Q1008 NOSIG RMK A2977 TCU N
RPLL,2025-01-02 10:00,RPLL 021000Z 13004KT 060V180 9999 SCT025 BKN100 29/25 Q1008 NOSIG RMK A2977
RPLL,2025-01-02 11:00,RPLL 021100Z 13004KT 090V180 9999 SCT025 BKN100 29/24 Q1009 NOSIG RMK A2980
RPLL,2025-01-02 12:00,RPLL 021200Z 14005KT 090V180 9999 SCT025 BKN100 28/24 Q1010 NOSIG RMK A2983
RPLL,2025-01-02 13:00,RPLL 021300Z 15004KT 100V200 9999 SCT025 BKN100 28/24 Q1010 NOSIG RMK A2983
RPLL,2025-01-02 14:00,RPLL 021400Z 14005KT 090V180 9999 SCT025 BKN100 28/24 Q1011 NOSIG RMK A2985
RPLL,2025-01-02 15:00,RPLL 021500Z 13005KT 090V170 9999 SCT025 BKN100 28/24 Q1010 NOSIG RMK A2983
RPLL,2025-01-02 16:00,RPLL 021600Z 13003KT 090V160 9999 SCT025 BKN100 28/24 Q1010 NOSIG RMK A2983
RPLL,2025-01-02 17:00,RPLL 021700Z VRB02KT 9999 SCT023 BKN100 27/24 Q1010 NOSIG RMK A2983
RPLL,2025-01-02 18:00,RPLL 021800Z VRB02KT 9999 SCT023 OVC100 27/25 Q1010 NOSIG RMK A2983
RPLL,2025-01-02 19:00,RPLL 021900Z 17004KT 120V220 9999 SCT023 BKN100 27/24 Q1009 NOSIG RMK A2980
RPLL,2025-01-02 20:00,RPLL 022000Z 14004KT 100V200 9999 SCT025 OVC100 26/24 Q1009 NOSIG RMK A2980
RPLL,2025-01-02 21:00,RPLL 022100Z 10005KT 060V160 9999 -RA SCT023 OVC090 26/24 Q1009 NOSIG RMK A2980
RPLL,2025-01-02 22:00,RPLL 022200Z 09005KT 060V120 9999 SCT025 BKN100 26/24 Q1010 NOSIG RMK A2983
RPLL,2025-01-02 23:00,RPLL 022300Z VRB02KT 9999 SCT023 BKN100 26/24 Q1010 NOSIG RMK A2983
RPLL,2025-01-03 00:00,RPLL 030000Z VRB02KT 9999 SCT025 BKN100 26/25 Q1011 NOSIG RMK A2985
RPLL,2025-01-03 01:00,COR RPLL 030100Z 14004KT 080V190 9999 SCT025 BKN100 27/25 Q1011 NOSIG RMK A2985
RPLL,2025-01-03 02:00,RPLL 030200Z 15003KT 070V240 9999 FEW025 BKN100 28/24 Q1011 NOSIG RMK A2985
RPLL,2025-01-03 03:00,RPLL 030300Z VRB03KT 9999 FEW025 BKN100 30/24 Q1011 NOSIG RMK A2985
RPLL,2025-01-03 04:00,RPLL 030400Z 11005KT 040V210 9999 FEW025 BKN100 30/24 Q1010 NOSIG RMK A2983
RPLL,2025-01-03 05:00,RPLL 030500Z VRB05KT 9999 FEW025 BKN100 30/24 Q1009 NOSIG RMK A2980
RPLL,2025-01-03 06:00,RPLL 030600Z VRB04KT 9999 FEW025 BKN100 31/24 Q1008 NOSIG RMK A2977
RPLL,2025-01-03 07:00,RPLL 030700Z VRB03KT 9999 FEW025 BKN100 31/23 Q1007 NOSIG RMK A2974
RPLL,2025-01-03 08:00,RPLL 030800Z 13003KT 080V190 9999 SCT025 BKN100 31/24 Q1007 NOSIG RMK A2974
RPLL,2025-01-03 09:00,RPLL 030900Z 23003KT 180V280 9999 SCT025 BKN100 30/25 Q1008 NOSIG RMK A2977
RPLL,2025-01-03 10:00,RPLL 031000Z VRB01KT 9999 FEW025 SCT100 29/25 Q1008 NOSIG RMK A2977
RPLL,2025-01-03 11:00,COR RPLL 031100Z 12003KT 090V150 9999 FEW025 29/25 Q1009 NOSIG RMK A2980
RPLL,2025-01-03 12:00,RPLL 031200Z VRB02KT 9999 FEW025 BKN100 28/25 Q1010 NOSIG RMK A2983
RPLL,2025-01-03 13:00,COR RPLL 031300Z 15003KT 090V190 9999 FEW025 28/25 Q1010 NOSIG RMK A2983
RPLL,2025-01-03 14:00,RPLL 031400Z 33005KT 250V010 9999 FEW023CB SCT025 BKN100 28/25 Q1011 TEMPO -TSRA RMK A29CB LTG OCNL NW-N
RPLL,2025-01-03 14:10,RPLL 031410Z 02007KT 340V070 9000 -SHRA FEW022CB SCT023 OVC090 27/24 Q1011 NOSIG RMK A2985 CB LTG NW-N
RPLL,2025-01-03 15:00,RPLL 031500Z 01005KT 310V060 9000 FEW023CB SCT025 BKN100 28/25 Q1011 NOSIG RMK A2985 CB/OCNL LTG SE S SW
RPLL,2025-01-03 16:00,RPLL 031600Z VRB02KT 9000 -SHRA FEW023CB SCT025 OVC100 26/25 Q1011 TEMPO -TSRA RMK A2985 CB/OCNL LTG S-W
RPLL,2025-01-03 16:21,COR RPLL 031621Z VRB02KT 7000 SHRA FEW022CB SCT023 OVC090 26/25 Q1011 TEMPO -TSRA RMK A2985 CB/OCNL LTG E
RPLL,2025-01-03 17:00,RPLL 031700Z VRB02KT 9000 -SHRA FEW022CB SCT023 OVC090 25/25 Q1010 NOSIG RMK A2983 CB/OCNL LTG E
RPLL,2025-01-03 18:00,RPLL 031800Z VRB02KT 9999 SCT023 OVC100 25/25 Q1010 NOSIG RMK A2983
RPLL,2025-01-03 19:00,RPLL 031900Z VRB02KT 9999 FEW025 OVC100 26/25 Q1009 NOSIG RMK A2980
RPLL,2025-01-03 20:00,RPLL 032000Z VRB02KT 9999 FEW025 OVC130 26/25 Q1009 NOSIG RMK A2980
RPLL,2025-01-03 21:00,RPLL 032100Z 00000KT 9999 FEW025 BKN100 26/25 Q1009 NOSIG RMK A2980
RPLL,2025-01-03 22:00,RPLL 032200Z 00000KT 9999 FEW023 BKN100 26/25 Q1010 NOSIG RMK A2983
RPLL,2025-01-03 23:00,RPLL 032300Z 00000KT 9999 SCT023 BKN100 26/25 Q1010 NOSIG RMK A2983
RPLL,2025-01-04 00:00,RPLL 040000Z 04003KT 280V090 9000 SCT023 BKN100 27/25 Q1011 NOSIG RMK A2985
RPLL,2025-01-04 01:00,RPLL 040100Z VRB02KT 9000 FEW025 BKN100 29/25 Q1011 NOSIG RMK A2985
RPLL,2025-01-04 02:00,RPLL 040200Z 16003KT 9000 SCT023 BKN100 28/25 Q1011 NOSIG RMK A2985
RPLL,2025-01-04 03:00,RPLL 040300Z VRB03KT 9000 FEW025 SCT100 29/24 Q1011 NOSIG RMK A2985
RPLL,2025-01-04 04:00,RPLL 040400Z 11003KT 040V200 9999 SCT023 BKN100 30/24 Q1010 NOSIG RMK A2983
RPLL,2025-01-04 05:00,RPLL 040500Z 16005KT 080V250 9999 SCT025 BKN100 31/22 Q1009 NOSIG RMK A2980
RPLL,2025-01-04 06:00,RPLL 040600Z 13006KT 080V190 9999 FEW025 SCT100 31/23 Q1009 NOSIG RMK A2980
RPLL,2025-01-04 07:00,RPLL 040700Z 11006KT 050V160 9999 FEW025 BKN100 31/22 Q1008 NOSIG RMK A2977
RPLL,2025-01-04 08:00,RPLL 040800Z 13006KT 090V170 9999 FEW025 SCT100 31/22 Q1008 NOSIG RMK A2977
RPLL,2025-01-04 09:00,RPLL 040900Z 13005KT 080V190 9999 FEW025 BKN100 31/23 Q1008 NOSIG RMK A2977
RPLL,2025-01-04 10:00,RPLL 041000Z VRB02KT 9999 FEW025 BKN100 29/22 Q1009 NOSIG RMK A2980
RPLL,2025-01-04 11:00,RPLL 041100Z 10006KT 9999 FEW025 BKN100 29/21 Q1010 NOSIG RMK A2983
RPLL,2025-01-04 12:00,RPLL 041200Z 13006KT 070V180 9999 FEW025 28/22 Q1011 NOSIG RMK A2985
RPLL,2025-01-04 13:00,RPLL 041300Z VRB05KT 9999 FEW025 28/22 Q1012 NOSIG RMK A2988
RPLL,2025-01-04 14:00,RPLL 041400Z 11003KT 080V140 9999 FEW025 27/20 Q1012 NOSIG RMK A2988
RPLL,2025-01-04 15:00,RPLL 041500Z VRB02KT 9999 FEW025 27/20 Q1012 NOSIG RMK A2988
RPLL,2025-01-04 16:00,RPLL 041600Z 32003KT 270V040 9999 SCT025 27/20 Q1011 NOSIG RMK A2985
RPLL,2025-01-04 17:00,RPLL 041700Z 32004KT 260V360 9999 FEW025 SCT100 27/20 Q1011 NOSIG RMK A2985
RPLL,2025-01-04 18:00,RPLL 041800Z VRB02KT 9999 FEW025 SCT100 26/20 Q1011 NOSIG RMK A2985
RPLL,2025-01-04 19:00,RPLL 041900Z VRB02KT 9999 FEW025 26/21 Q1010 NOSIG RMK A2983
RPLL,2025-01-04 20:00,RPLL 042000Z 27003KT 210V340 9999 FEW025 26/21 Q1011 NOSIG RMK A2985
RPLL,2025-01-04 21:00,RPLL 042100Z 32004KT 290V020 9999 FEW025 BKN130 26/20 Q1011 NOSIG RMK A2985
RPLL,2025-01-04 22:00,RPLL 042200Z VRB02KT 9999 FEW025 SCT100 26/20 Q1011 NOSIG RMK A2985
RPLL,2025-01-04 23:00,RPLL 042300Z 22003KT 9999 FEW025 SCT100 26/20 Q1012 NOSIG RMK A2988
RPLL,2025-01-05 00:00,RPLL 050000Z 07005KT 360V160 9999 FEW025 SCT100 27/20 Q1013 NOSIG RMK A2991
RPLL,2025-01-05 01:00,RPLL 050100Z 09009KT 060V150 9999 FEW025 SCT100 29/20 Q1013 NOSIG RMK A2991
RPLL,2025-01-05 02:00,RPLL 050200Z 34005KT 280V050 9999 FEW025 BKN100 29/20 Q1013 NOSIG RMK A2991
RPLL,2025-01-05 03:00,RPLL 050300Z 09008KT 060V140 9999 FEW025 BKN100 30/20 Q1013 NOSIG RMK A2991
RPLL,2025-01-05 04:00,RPLL 050400Z 10007KT 050V140 9999 FEW025 SCT100 30/20 Q1012 NOSIG RMK A2988
RPLL,2025-01-05 05:00,RPLL 050500Z 11006KT 070V160 9999 FEW025 BKN100 30/21 Q1011 NOSIG RMK A2985
RPLL,2025-01-05 06:00,RPLL 050600Z 12005KT 050V190 9999 FEW025 BKN100 31/21 Q1010 NOSIG RMK A2983
RPLL,2025-01-05 07:00,RPLL 050700Z 10009KT 070V140 9999 FEW025 SCT100 30/21 Q1009 NOSIG RMK A2980
RPLL,2025-01-05 08:00,RPLL 050800Z 12009KT 080V170 9999 FEW025 29/22 Q1009 NOSIG RMK A2980
RPLL,2025-01-05 09:00,RPLL 050900Z 12007KT 080V160 9999 FEW025 28/22 Q1010 NOSIG RMK A2983
RPLL,2025-01-05 10:00,RPLL 051000Z 13006KT 090V160 9999 FEW025 27/22 Q1010 NOSIG RMK A2983
RPLL,2025-01-05 11:00,RPLL 051100Z 09003KT 9999 FEW025 27/22 Q1011 NOSIG RMK A2985
RPLL,2025-01-05 12:00,RPLL 051200Z VRB02KT 9999 FEW025 SCT100 27/22 Q1012 NOSIG RMK A2988
RPLL,2025-01-05 13:00,RPLL 051300Z 36004KT 300V050 9999 FEW025 SCT100 27/21 Q1012 NOSIG RMK A2988
RPLL,2025-01-05 14:00,RPLL 051400Z VRB02KT 9999 FEW025 SCT100 26/21 Q1013 NOSIG RMK A2991
RPLL,2025-01-05 15:00,RPLL 051500Z VRB02KT 9999 FEW025 26/22 Q1012 NOSIG RMK A2988
RPLL,2025-01-05 16:00,RPLL 051600Z 23003KT 190V260 9999 FEW025 26/22 Q1012 NOSIG RMK A2988
RPLL,2025-01-05 17:00,RPLL 051700Z 23003KT 200V260 9999 FEW025 25/22 Q1011 NOSIG RMK A2985
RPLL,2025-01-05 18:00,RPLL 051800Z 25003KT 9999 FEW025 25/23 Q1011 NOSIG RMK A2985
RPLL,2025-01-05 19:00,RPLL 051900Z 25003KT 9999 FEW025 25/23 Q1010 NOSIG RMK A2983
RPLL,2025-01-05 20:00,RPLL 052000Z VRB02KT 9999 FEW025 25/23 Q1011 NOSIG RMK A2985
RPLL,2025-01-05 21:00,RPLL 052100Z 33003KT 270V010 9999 FEW025 25/22 Q1011 NOSIG RMK A2985
RPLL,2025-01-05 22:00,RPLL 052200Z 36005KT 320V060 9999 FEW025 SCT100 25/21 Q1011 NOSIG RMK A2985
RPLL,2025-01-05 23:00,RPLL 052300Z 33003KT 260V040 9999 FEW025 25/21 Q1011 NOSIG RMK A2985
RPLL,2025-01-06 00:00,RPLL 060000Z 01006KT 320V050 9999 FEW025 SCT100 27/21 Q1012 NOSIG RMK A2988
RPLL,2025-01-06 01:00,RPLL 060100Z VRB02KT 9999 FEW025 28/22 Q1013 NOSIG RMK A2991
RPLL,2025-01-06 02:00,RPLL 060200Z 25004KT 210V300 9999 FEW025 SCT100 28/23 Q1013 NOSIG RMK A2991
RPLL,2025-01-06 03:00,RPLL 060300Z 28007KT 250V340 9000 FEW025 29/23 Q1012 NOSIG RMK A2988
RPLL,2025-01-06 04:00,RPLL 060400Z 29008KT 210V320 9000 FEW025 29/23 Q1011 NOSIG RMK A2985
RPLL,2025-01-06 05:00,RPLL 060500Z 29007KT 240V340 9000 SCT025 29/23 Q1010 NOSIG RMK A2983
RPLL,2025-01-06 06:00,RPLL 060600Z 28006KT 250V310 9000 SCT025 29/23 Q1010 NOSIG RMK A2983
RPLL,2025-01-06 07:00,RPLL 060700Z 28005KT 250V310 9000 SCT025 30/23 Q1009 NOSIG RMK A2980
RPLL,2025-01-06 08:00,RPLL 060800Z 25004KT 9000 FEW023TCU SCT025 BKN100 29/23 Q1009 NOSIG RMK A2980 TCU N
RPLL,2025-01-06 09:00,RPLL 060900Z 12005KT 080V200 9000 SCT025 BKN100 30/24 Q1009 NOSIG RMK A2980
RPLL,2025-01-06 10:00,RPLL 061000Z 10005KT 050V160 9000 FEW025 29/22 Q1010 NOSIG RMK A2983
RPLL,2025-01-06 11:00,RPLL 061100Z 11005KT 070V150 9999 FEW025 29/22 Q1010 NOSIG RMK A2983
RPLL,2025-01-06 12:00,RPLL 061200Z 12003KT 070V160 9999 FEW025 28/22 Q1011 NOSIG RMK A2985
RPLL,2025-01-06 13:00,RPLL 061300Z 13005KT 060V160 9999 FEW025 27/23 Q1011 NOSIG RMK A2985
RPLL,2025-01-06 14:00,RPLL 061400Z 12004KT 060V180 9999 FEW025 27/23 Q1012 NOSIG RMK A2988
RPLL,2025-01-06 15:00,RPLL 061500Z 12004KT 080V160 9999 FEW025 27/23 Q1012 NOSIG RMK A2988
RPLL,2025-01-06 16:00,RPLL 061600Z 08004KT 050V110 9999 FEW025 27/23 Q1011 NOSIG RMK A2985
RPLL,2025-01-06 17:00,RPLL 061700Z VRB02KT 9999 FEW025 26/24 Q1011 NOSIG RMK A2985
RPLL,2025-01-06 18:00,RPLL 061800Z VRB02KT 9999 FEW025 26/24 Q1010 NOSIG RMK A2983
RPLL,2025-01-06 19:00,RPLL 061900Z VRB02KT 9999 FEW025 26/23 Q1010 NOSIG RMK A2983
RPLL,2025-01-06 20:00,RPLL 062000Z VRB01KT 9999 FEW025 25/23 Q1010 NOSIG RMK A2983
RPLL,2025-01-06 21:00,RPLL 062100Z VRB01KT 9999 FEW025 25/23 Q1010 NOSIG RMK A2983
RPLL,2025-01-06 22:00,RPLL 062200Z VRB01KT 9999 FEW025 25/23 Q1010 NOSIG RMK A2983
RPLL,2025-01-06 23:00,RPLL 062300Z VRB01KT 9999 FEW025 BKN100 26/23 Q1012 NOSIG RMK A2988
RPLL,2025-01-07 00:00,RPLL 070000Z VRB02KT 9999 FEW025 BKN100 27/23 Q1012 NOSIG RMK A2988
RPLL,2025-01-07 01:00,RPLL 070100Z 09004KT 030V180 9999 FEW025 BKN100 28/23 Q1013 NOSIG RMK A2991
RPLL,2025-01-07 02:00,RPLL 070200Z VRB02KT 9999 FEW025 BKN100 29/23 Q1012 NOSIG RMK A2988
RPLL,2025-01-07 03:00,RPLL 070300Z 29004KT 240V350 9999 SCT025 BKN090 27/23 Q1012 NOSIG RMK A2988
RPLL,2025-01-07 04:00,RPLL 070400Z VRB02KT 9999 SCT025 BKN100 30/23 Q1011 NOSIG RMK A2985
RPLL,2025-01-07 05:00,RPLL 070500Z 26007KT 9999 SCT025 BKN100 28/23 Q1010 NOSIG RMK A2983
RPLL,2025-01-07 06:00,RPLL 070600Z 26005KT 220V310 9999 SCT025 BKN100 29/23 Q1009 NOSIG RMK A2980
RPLL,2025-01-07 07:00,RPLL 070700Z 10006KT 050V150 9999 SCT025 BKN100 30/23 Q1009 NOSIG RMK A2980
RPLL,2025-01-07 08:00,RPLL 070800Z 09006KT 060V150 9999 VCSH FEW023TCU SCT025 BKN100 29/24 Q1009 NOSIG RMK A2980 TCU/VCSH N
RPLL,2025-01-07 09:00,RPLL 070900Z 05005KT 360V070 9999 SCT023 BKN100 27/24 Q1010 NOSIG RMK A2983
RPLL,2025-01-07 10:00,RPLL 071000Z VRB02KT 9999 SCT025 BKN100 28/24 Q1011 NOSIG RMK A2985
RPLL,2025-01-07 11:00,RPLL 071100Z VRB01KT 9999 SCT025 BKN100 28/24 Q1011 NOSIG RMK A2985
RPLL,2025-01-07 12:00,RPLL 071200Z VRB02KT 9999 SCT025 BKN100 27/23 Q1012 NOSIG RMK A2988
RPLL,2025-01-07 13:00,RPLL 071300Z 10003KT 9999 SCT025 BKN100 27/23 Q1013 NOSIG RMK A2991
RPLL,2025-01-07 14:00,RPLL 071400Z VRB01KT 9999 FEW025 BKN100 27/23 Q1013 NOSIG RMK A2991
RPLL,2025-01-07 15:00,RPLL 071500Z VRB01KT 9999 FEW025 BKN150 27/23 Q1013 NOSIG RMK A2991
RPLL,2025-01-07 16:00,RPLL 071600Z VRB01KT 9999 FEW025 BKN100 27/23 Q1012 NOSIG RMK A2988
RPLL,2025-01-07 17:00,RPLL 071700Z 00000KT 9999 SCT025 BKN100 26/23 Q1011 NOSIG RMK A2985
RPLL,2025-01-07 18:00,RPLL 071800Z 00000KT 9999 SCT025 BKN100 26/23 Q1011 NOSIG RMK A2985
RPLL,2025-01-07 19:00,RPLL 071900Z VRB01KT 9999 FEW025 BKN100 26/23 Q1010 NOSIG RMK A2983
RPLL,2025-01-07 20:00,RPLL 072000Z 00000KT 9999 SCT025 BKN100 26/23 Q1010 NOSIG RMK A2983
RPLL,2025-01-07 21:00,RPLL 072100Z 00000KT 9999 SCT025 OVC100 25/23 Q1011 NOSIG RMK A2985
RPLL,2025-01-07 22:00,RPLL 072200Z VRB02KT 9999 BKN025 26/23 Q1011 NOSIG RMK A2985
RPLL,2025-01-07 23:00,RPLL 072300Z VRB01KT 9999 SCT025 BKN100 26/23 Q1012 NOSIG RMK A2988
RPLL,2025-01-08 00:00,RPLL 080000Z VRB02KT 9999 SCT025 BKN100 27/23 Q1013 NOSIG RMK A2991
RPLL,2025-01-08 01:00,RPLL 080100Z 11006KT 060V160 9999 FEW025 SCT100 28/22 Q1013 NOSIG RMK A2991
RPLL,2025-01-08 02:00,RPLL 080200Z 11007KT 070V150 9999 FEW025 BKN100 29/22 Q1013 NOSIG RMK A2991
RPLL,2025-01-08 03:00,RPLL 080300Z 11009KT 070V160 9999 FEW025 BKN100 30/23 Q1013 NOSIG RMK A2991
RPLL,2025-01-08 04:00,RPLL 080400Z 11010KT 070V160 9999 FEW025 BKN100 30/22 Q1012 NOSIG RMK A2988
RPLL,2025-01-08 05:00,RPLL 080500Z 10010KT 070V140 9999 FEW025 BKN100 31/22 Q1011 NOSIG RMK A2985
RPLL,2025-01-08 06:00,RPLL 080600Z 11010KT 080V160 9999 FEW025 SCT100 30/22 Q1010 NOSIG RMK A2983
RPLL,2025-01-08 07:00,RPLL 080700Z 11008KT 060V150 9999 SCT025 BKN100 30/22 Q1010 NOSIG RMK A2983
RPLL,2025-01-08 08:00,RPLL 080800Z 11008KT 070V150 9999 SCT025 BKN150 29/22 Q1010 NOSIG RMK A2983
RPLL,2025-01-08 09:00,RPLL 080900Z 12007KT 070V190 9999 FEW025 29/22 Q1011 NOSIG RMK A2985
RPLL,2025-01-08 10:00,RPLL 081000Z 11008KT 070V150 9999 FEW025 28/22 Q1012 NOSIG RMK A2988
RPLL,2025-01-08 11:00,RPLL 081100Z 11006KT 060V150 9999 FEW025 27/22 Q1012 NOSIG RMK A2988
RPLL,2025-01-08 12:00,RPLL 081200Z 10006KT 060V150 9999 FEW025 27/22 Q1012 NOSIG RMK A2988
RPLL,2025-01-08 13:00,RPLL 081300Z 11006KT 080V150 9999 SCT025 BKN100 27/22 Q1013 NOSIG RMK A2991
RPLL,2025-01-08 14:00,RPLL 081400Z 11006KT 080V150 9999 FEW025 27/22 Q1013 NOSIG RMK A2991
RPLL,2025-01-08 15:00,RPLL 081500Z 08005KT 9999 FEW025 27/22 Q1013 NOSIG RMK A2991
RPLL,2025-01-08 16:00,RPLL 081600Z 07006KT 9999 FEW025 26/22 Q1013 NOSIG RMK A2991
RPLL,2025-01-08 17:00,RPLL 081700Z 09003KT 070V140 9999 SCT025 BKN150 27/22 Q1012 NOSIG RMK A2988
RPLL,2025-01-08 18:00,RPLL 081800Z VRB02KT 9999 FEW025 26/22 Q1011 NOSIG RMK A2985
RPLL,2025-01-08 19:00,RPLL 081900Z VRB02KT 9999 FEW025 SCT130 26/22 Q1011 NOSIG RMK A2985
RPLL,2025-01-08 20:00,RPLL 082000Z VRB02KT 9999 FEW025 BKN100 26/22 Q1011 NOSIG RMK A2985
RPLL,2025-01-08 21:00,RPLL 082100Z VRB02KT 9999 FEW025 SCT150 26/22 Q1012 NOSIG RMK A2988
RPLL,2025-01-08 22:00,RPLL 082200Z 09006KT 070V130 9999 FEW025 BKN130 27/22 Q1012 NOSIG RMK A2988
RPLL,2025-01-08 23:00,RPLL 082300Z 08005KT 050V110 9999 FEW025 BKN100 26/22 Q1013 NOSIG RMK A2991
RPLL,2025-01-09 00:00,RPLL 090000Z 07005KT 030V100 9999 FEW025 BKN100 27/22 Q1014 NOSIG RMK A2994
RPLL,2025-01-09 01:00,RPLL 090100Z 09007KT 050V150 9999 FEW025 BKN100 29/21 Q1014 NOSIG RMK A2994
RPLL,2025-01-09 02:00,RPLL 090200Z 12007KT 080V170 9999 FEW025 BKN100 29/22 Q1014 NOSIG RMK A2994
RPLL,2025-01-09 03:00,RPLL 090300Z 10009KT 070V140 9999 FEW025 BKN100 29/22 Q1014 NOSIG RMK A2994
RPLL,2025-01-09 04:00,RPLL 090400Z 11012KT 070V150 9999 FEW025 BKN100 29/22 Q1013 NOSIG RMK A2991
RPLL,2025-01-09 05:00,COR RPLL 090500Z 12009KT 080V190 9999 FEW025 BKN100 31/22 Q1012 NOSIG RMK A2988
RPLL,2025-01-09 06:00,RPLL 090600Z 11008KT 070V160 9999 FEW025 SCT100 31/21 Q1011 NOSIG RMK A2985
RPLL,2025-01-09 07:00,COR RPLL 090700Z 11008KT 080V150 9999 FEW025 BKN100 30/22 Q1011 NOSIG RMK A2985
RPLL,2025-01-09 08:00,RPLL 090800Z 11008KT 070V150 9999 FEW025 BKN100 29/22 Q1011 NOSIG RMK A2985
RPLL,2025-01-09 09:00,RPLL 090900Z 11006KT 080V150 9999 FEW025 BKN100 29/22 Q1012 NOSIG RMK A2988
RPLL,2025-01-09 10:00,RPLL 091000Z 11006KT 070V150 9999 FEW025 BKN100 28/22 Q1012 NOSIG RMK A2988
RPLL,2025-01-09 11:00,RPLL 091100Z 11006KT 060V140 9999 FEW025 BKN100 27/22 Q1013 NOSIG RMK A2991
RPLL,2025-01-09 12:00,RPLL 091200Z 12004KT 070V170 9999 FEW025 BKN100 27/21 Q1014 NOSIG RMK A2994
RPLL,2025-01-09 13:00,RPLL 091300Z 13003KT 050V190 9999 FEW025 BKN100 27/21 Q1015 NOSIG RMK A2997
RPLL,2025-01-09 14:00,RPLL 091400Z VRB02KT 9999 FEW025 SCT100 27/21 Q1015 NOSIG RMK A2997
RPLL,2025-01-09 15:00,RPLL 091500Z 11006KT 070V140 9999 FEW025 SCT100 27/20 Q1015 NOSIG RMK A2997
RPLL,2025-01-09 16:00,RPLL 091600Z VRB02KT 9999 FEW025 BKN100 27/20 Q1015 NOSIG RMK A2997
RPLL,2025-01-09 17:00,RPLL 091700Z 06010KT 030V090 9999 FEW025 SCT100 27/19 Q1014 NOSIG RMK A2994
RPLL,2025-01-09 18:00,RPLL 091800Z 12006KT 080V160 9999 FEW025 SCT100 27/19 Q1013 NOSIG RMK A2991
RPLL,2025-01-09 19:00,RPLL 091900Z 09003KT 060V120 9999 FEW025 BKN100 26/20 Q1013 NOSIG RMK A2991
RPLL,2025-01-09 20:00,RPLL 092000Z 12004KT 060V180 9999 FEW025 BKN100 26/22 Q1014 NOSIG RMK A2994
RPLL,2025-01-09 21:00,RPLL 092100Z 11004KT 070V170 9999 FEW025 BKN100 25/22 Q1014 NOSIG RMK A2994
RPLL,2025-01-09 22:00,RPLL 092200Z VRB02KT 9999 FEW025 SCT100 25/22 Q1014 NOSIG RMK A2994
RPLL,2025-01-09 23:00,RPLL 092300Z VRB01KT 9999 FEW025 SCT100 26/21 Q1014 NOSIG RMK A2994
RPLL,2025-01-10 00:00,RPLL 100000Z 20005KT 210V270 9999 FEW025 SCT100 26/22 Q1015 NOSIG RMK A2997
RPLL,2025-01-10 01:00,COR RPLL 100100Z 28005KT 9999 SCT025 BKN100 27/22 Q1017 NOSIG RMK A3003
RPLL,2025-01-10 02:00,RPLL 100200Z 27003KT 220V020 9999 SCT025 BKN100 28/22 Q1016 NOSIG RMK A3000 METAR RPVM 100200Z 04012KT 9999 FEW018CB BKN300 30/25 Q1014 NOSIG RMK A2994 CB NW  SW
RPLL,2025-01-10 03:00,COR RPLL 100300Z 25004KT 180V310 9999 SCT025 BKN100 28/21 Q1016 NOSIG RMK A3000
RPLL,2025-01-10 04:00,RPLL 100400Z VRB02KT 9999 SCT025 BKN100 30/22 Q1015 NOSIG RMK A2997
RPLL,2025-01-10 05:00,RPLL 100500Z 12008KT 080V180 9999 SCT025 BKN100 31/22 Q1014 NOSIG RMK A2994
RPLL,2025-01-10 06:00,RPLL 100600Z 10007KT 060V140 9999 SCT025 BKN100 30/22 Q1013 NOSIG RMK A2991
RPLL,2025-01-10 07:00,RPLL 100700Z 11008KT 070V140 9999 SCT025 BKN100 29/22 Q1013 NOSIG RMK A2991
RPLL,2025-01-10 08:00,RPLL 100800Z 11009KT 070V150 9999 SCT025 BKN100 29/22 Q1013 NOSIG RMK A2991
RPLL,2025-01-10 09:00,RPLL 100900Z 12008KT 070V160 9999 SCT025 BKN100 28/22 Q1013 NOSIG RMK A2991
RPLL,2025-01-10 10:00,RPLL 101000Z 12006KT 070V180 9999 SCT025 BKN100 27/21 Q1014 NOSIG RMK A2994
RPLL,2025-01-10 11:00,COR RPLL 101100Z 11008KT 070V140 9999 SCT025 BKN100 27/21 Q1015 NOSIG RMK A2997
RPLL,2025-01-10 12:00,RPLL 101200Z 12006KT 080V170 9999 SCT025 BKN100 27/22 Q1015 NOSIG RMK A2997
RPLL,2025-01-10 13:00,RPLL 101300Z 12007KT 090V150 9999 SCT025 BKN100 27/21 Q1016 NOSIG RMK A3000
RPLL,2025-01-10 14:00,RPLL 101400Z 11006KT 070V150 9999 SCT025 BKN100 27/21 Q1016 NOSIG RMK A3000
RPLL,2025-01-10 15:00,RPLL 101500Z 11004KT 080V170 9999 SCT025 BKN100 27/21 Q1016 NOSIG RMK A3000
RPLL,2025-01-10 16:00,RPLL 101600Z 11004KT 070V150 9999 SCT025 OVC100 27/21 Q1015 NOSIG RMK A2997
RPLL,2025-01-10 17:00,RPLL 101700Z VRB02KT 9999 SCT025 BKN100 26/21 Q1015 NOSIG RMK A2997
RPLL,2025-01-10 18:00,RPLL 101800Z VRB02KT 9999 SCT025 BKN100 26/21 Q1014 NOSIG RMK A2994
RPLL,2025-01-10 19:00,RPLL 101900Z 00000KT 9999 SCT025 BKN100 26/21 Q1014 NOSIG RMK A2994
RPLL,2025-01-10 20:00,RPLL 102000Z 23002KT 9999 SCT025 BKN100 26/21 Q1014 NOSIG RMK A2994
RPLL,2025-01-10 21:00,RPLL 102100Z VRB01KT 9999 SCT025 BKN090 26/22 Q1014 NOSIG RMK A2994
RPLL,2025-01-10 22:00,RPLL 102200Z VRB02KT 9999 SCT025 BKN100 26/22 Q1015 NOSIG RMK A2997
RPLL,2025-01-10 23:00,RPLL 102300Z VRB01KT 9999 SCT025 BKN100 26/22 Q1015 NOSIG RMK A2997
RPLL,2025-01-11 00:00,RPLL 110000Z VRB02KT 9999 SCT025 BKN100 27/22 Q1016 NOSIG RMK A3000
RPLL,2025-01-11 01:00,RPLL 110100Z VRB03KT 9999 SCT025 BKN100 29/22 Q1016 NOSIG RMK A3000
RPLL,2025-01-11 02:00,RPLL 110200Z 14003KT 070V210 9999 SCT025 BKN100 30/22 Q1016 NOSIG RMK A3000
RPLL,2025-01-11 03:00,RPLL 110300Z 12006KT 070V180 9999 SCT025 BKN100 29/22 Q1016 NOSIG RMK A3000
RPLL,2025-01-11 04:00,RPLL 110400Z 09009KT 030V150 9999 SCT025 BKN100 30/22 Q1015 NOSIG RMK A2997
RPLL,2025-01-11 05:00,RPLL 110500Z 30006KT 260V010 9999 SCT025 BKN100 29/22 Q1014 NOSIG RMK A2994
RPLL,2025-01-11 06:00,RPLL 110600Z 11007KT 070V150 9999 SCT025 BKN100 30/23 Q1013 NOSIG RMK A2991
RPLL,2025-01-11 07:00,RPLL 110700Z 12008KT 080V150 9999 SCT025 BKN100 30/23 Q1013 NOSIG RMK A2991
RPLL,2025-01-11 08:00,RPLL 110800Z 11008KT 080V180 9999 FEW025 BKN100 29/22 Q1013 NOSIG RMK A2991
RPLL,2025-01-11 09:00,RPLL 110900Z 11009KT 070V150 9999 SCT025 BKN100 28/22 Q1014 NOSIG RMK A2994
RPLL,2025-01-11 10:00,RPLL 111000Z 09007KT 060V120 9999 SCT025 BKN100 28/21 Q1014 NOSIG RMK A2994
RPLL,2025-01-11 11:00,COR RPLL 111100Z 15004KT 060V190 9999 SCT025 BKN100 27/22 Q1015 NOSIG RMK A2997
RPLL,2025-01-11 12:00,RPLL 111200Z 14004KT 100V180 9999 SCT025 BKN100 27/22 Q1016 NOSIG RMK A3000
RPLL,2025-01-11 13:00,RPLL 111300Z 10003KT 070V130 9999 SCT025 BKN100 27/22 Q1016 NOSIG RMK A3000
RPLL,2025-01-11 14:00,RPLL 111400Z 10004KT 070V140 9999 FEW025 BKN100 26/22 Q1016 NOSIG RMK A3000
RPLL,2025-01-11 15:00,RPLL 111500Z 11003KT 080V150 9999 SCT025 BKN100 26/22 Q1016 NOSIG RMK A3000
RPLL,2025-01-11 16:00,RPLL 111600Z 06003KT 010V090 9999 SCT023 BKN100 26/22 Q1015 NOSIG RMK A2997
RPLL,2025-01-11 17:00,RPLL 111700Z 00000KT 9999 FEW025 SCT100 26/22 Q1015 NOSIG RMK A2997
RPLL,2025-01-11 18:00,RPLL 111800Z VRB02KT 9999 SCT025 BKN100 26/21 Q1014 NOSIG RMK A2994
RPLL,2025-01-11 19:00,RPLL 111900Z VRB02KT 9999 SCT025 OVC100 26/21 Q1013 NOSIG RMK A2991
RPLL,2025-01-11 20:00,RPLL 112000Z VRB02KT 9999 SCT025 OVC100 25/22 Q1013 NOSIG RMK A2991
RPLL,2025-01-11 21:00,RPLL 112100Z VRB02KT 9999 SCT025 BKN100 25/22 Q1013 NOSIG RMK A2991
RPLL,2025-01-11 22:00,RPLL 112200Z VRB01KT 9999 SCT025 BKN100 25/22 Q1013 NOSIG RMK A2991
RPLL,2025-01-11 23:00,RPLL 112300Z VRB02KT 9999 SCT025 BKN100 25/22 Q1014 NOSIG RMK A2994
RPLL,2025-01-12 00:00,RPLL 120000Z 05006KT 010V100 9999 FEW025 BKN100 26/21 Q1015 NOSIG RMK A2997
RPLL,2025-01-12 01:00,RPLL 120100Z 04005KT 360V080 9999 FEW025 BKN100 28/21 Q1015 NOSIG RMK A2997
RPLL,2025-01-12 02:00,RPLL 120200Z 05005KT 310V100 9999 SCT025 BKN100 28/21 Q1015 NOSIG RMK A2997
RPLL,2025-01-12 03:00,RPLL 120300Z VRB02KT 9999 SCT025 BKN100 28/21 Q1015 NOSIG RMK A2997
RPLL,2025-01-12 04:00,RPLL 120400Z 05005KT 350V100 9999 SCT025 BKN100 28/22 Q1014 NOSIG RMK A2994
RPLL,2025-01-12 05:00,RPLL 120500Z 14004KT 080V210 9999 SCT025 BKN100 29/22 Q1013 NOSIG RMK A2991
RPLL,2025-01-12 06:00,RPLL 120600Z 02005KT 330V060 9999 SCT025 BKN100 29/22 Q1012 NOSIG RMK A2988
RPLL,2025-01-12 07:00,RPLL 120700Z 05004KT 350V140 9999 SCT025 OVC100 28/21 Q1012 NOSIG RMK A2988
RPLL,2025-01-12 08:00,RPLL 120800Z 08008KT 040V110 9999 SCT025 OVC100 29/21 Q1012 NOSIG RMK A2988
RPLL,2025-01-12 09:00,RPLL 120900Z 07007KT 040V140 9999 FEW025 BKN100 28/21 Q1012 NOSIG RMK A2988
RPLL,2025-01-12 10:00,RPLL 121000Z 03007KT 9999 FEW025 BKN100 27/21 Q1013 NOSIG RMK A2991
RPLL,2025-01-12 11:00,RPLL 121100Z 08005KT 060V120 9999 SCT025 OVC100 27/21 Q1013 NOSIG RMK A2991
RPLL,2025-01-12 12:00,RPLL 121200Z 13005KT 090V180 9999 SCT025 OVC100 26/22 Q1014 NOSIG RMK A2994
RPLL,2025-01-12 13:00,RPLL 121300Z VRB02KT 9999 -RA SCT023 OVC090 25/23 Q1015 NOSIG RMK A2997
RPLL,2025-01-12 14:00,RPLL 121400Z 00000KT 9999 -RA SCT023 OVC090 25/23 Q1014 NOSIG RMK A2994
RPLL,2025-01-12 15:00,RPLL 121500Z VRB02KT 9999 FEW025 BKN100 25/23 Q1015 NOSIG RMK A2997
RPLL,2025-01-12 16:00,RPLL 121600Z VRB01KT 9999 FEW025 BKN100 25/23 Q1014 NOSIG RMK A2994
RPLL,2025-01-12 17:00,RPLL 121700Z 25003KT 200V270 9999 FEW025 BKN100 25/22 Q1014 NOSIG RMK A2994
RPLL,2025-01-12 18:00,RPLL 121800Z 25003KT 9999 FEW025 BKN100 25/22 Q1013 NOSIG RMK A2991
RPLL,2025-01-12 19:00,RPLL 121900Z VRB01KT 9999 FEW025 BKN100 25/22 Q1012 NOSIG RMK A2988
RPLL,2025-01-12 20:00,RPLL 122000Z VRB02KT 9999 FEW025 BKN100 25/22 Q1012 NOSIG RMK A2988
RPLL,2025-01-12 21:00,RPLL 122100Z 30003KT 260V340 9999 FEW025 BKN100 25/22 Q1012 NOSIG RMK A2988
RPLL,2025-01-12 22:00,RPLL 122200Z 29003KT 250V360 9999 SCT025 BKN100 26/22 Q1013 NOSIG RMK A2991
RPLL,2025-01-12 23:00,RPLL 122300Z 28003KT 240V340 9999 FEW025 BKN100 26/22 Q1014 NOSIG RMK A2994
RPLL,2025-01-13 00:00,RPLL 130000Z 20003KT 140V280 9999 FEW025 BKN100 26/22 Q1014 NOSIG RMK A2994
RPLL,2025-01-13 01:00,RPLL 130100Z VRB02KT 9999 FEW025 BKN100 27/22 Q1015 NOSIG RMK A2997
RPLL,2025-01-13 02:00,RPLL 130200Z VRB01KT 9999 FEW025 BKN100 29/22 Q1015 NOSIG RMK A2997
RPLL,2025-01-13 03:00,RPLL 130300Z 08010KT 9999 SCT025 BKN100 30/22 Q1014 NOSIG RMK A2994
RPLL,2025-01-13 04:00,RPLL 130400Z 13007KT 090V180 9999 SCT025 BKN100 29/22 Q1014 NOSIG RMK A2994
RPLL,2025-01-13 05:00,RPLL 130500Z 11006KT 070V160 9999 -SHRA SCT025 BKN100 28/23 Q1013 NOSIG RMK A2991
RPLL,2025-01-13 06:00,RPLL 130600Z 08010KT 050V130 9999 SCT025 BKN100 30/22 Q1012 NOSIG RMK A2988
RPLL,2025-01-13 07:00,RPLL 130700Z 07012KT 040V110 9999 SCT025 BKN100 30/21 Q1012 NOSIG RMK A2988
RPLL,2025-01-13 08:00,RPLL 130800Z 08011KT 050V130 9999 SCT025 BKN100 30/21 Q1011 NOSIG RMK A2985
RPLL,2025-01-13 09:00,RPLL 130900Z 08011KT 060V120 9999 SCT025 BKN100 29/21 Q1012 NOSIG RMK A2988
RPLL,2025-01-13 10:00,RPLL 131000Z 08007KT 9999 SCT025 BKN100 28/21 Q1012 NOSIG RMK A2988
RPLL,2025-01-13 11:00,RPLL 131100Z 08005KT 020V130 9999 SCT025 BKN100 28/21 Q1013 NOSIG RMK A2991
RPLL,2025-01-13 12:00,RPLL 131200Z 11005KT 080V140 9999 SCT025 BKN100 28/21 Q1014 NOSIG RMK A2994
RPLL,2025-01-13 13:00,RPLL 131300Z 13003KT 090V200 9999 FEW025 BKN100 26/22 Q1015 NOSIG RMK A2997
RPLL,2025-01-13 14:00,RPLL 131400Z VRB02KT 9999 SCT025 BKN100 26/22 Q1015 NOSIG RMK A2997
RPLL,2025-01-13 15:00,RPLL 131500Z VRB02KT 9999 SCT025 BKN100 27/22 Q1015 NOSIG RMK A2997
RPLL,2025-01-13 16:00,RPLL 131600Z VRB02KT 9999 SCT023 OVC100 26/22 Q1015 NOSIG RMK A2997
RPLL,2025-01-13 17:00,RPLL 131700Z VRB02KT 9999 SCT023 OVC100 26/22 Q1014 NOSIG RMK A2994
RPLL,2025-01-13 18:00,RPLL 131800Z 00000KT 9999 SCT025 BKN100 26/23 Q1013 NOSIG RMK A2991
RPLL,2025-01-13 19:00,RPLL 131900Z VRB01KT 9999 SCT025 OVC100 26/23 Q1013 NOSIG RMK A2991
RPLL,2025-01-13 20:00,RPLL 132000Z VRB02KT 9999 SCT025 BKN100 26/23 Q1013 NOSIG RMK A2991
RPLL,2025-01-13 21:00,RPLL 132100Z VRB02KT 9999 SCT025 BKN100 26/23 Q1013 NOSIG RMK A2991
RPLL,2025-01-13 22:00,RPLL 132200Z 13003KT 080V150 9999 FEW025 BKN100 26/23 Q1014 NOSIG RMK A2994
RPLL,2025-01-13 23:00,RPLL 132300Z 12004KT 080V160 9999 FEW025 BKN100 26/23 Q1014 NOSIG RMK A2994
RPLL,2025-01-14 00:00,RPLL 140000Z 12004KT 080V160 9999 FEW025 BKN100 26/23 Q1014 NOSIG RMK A2994
RPLL,2025-01-14 01:00,RPLL 140100Z 10006KT 070V140 9999 FEW025 BKN100 30/23 Q1016 NOSIG RMK A3000
RPLL,2025-01-14 02:00,RPLL 140200Z 11009G21KT 080V150 9999 SCT025 BKN100 28/23 Q1016 NOSIG RMK A3000
RPLL,2025-01-14 02:17,COR RPLL 140217Z 09014KT 060V120 9000 -SHRA SCT023 OVC100 26/24 Q1016 NOSIG RMK A3000
RPLL,2025-01-14 03:00,RPLL 140300Z 08017KT 9999 SCT023 BKN100 27/23 Q1015 NOSIG RMK A2997
RPLL,2025-01-14 04:00,RPLL 140400Z 09009KT 060V150 9999 SCT025 BKN100 29/23 Q1015 NOSIG RMK A2997
RPLL,2025-01-14 05:00,RPLL 140500Z 11007KT 070V180 9999 SCT025 BKN100 30/23 Q1014 NOSIG RMK A2994
RPLL,2025-01-14 06:00,RPLL 140600Z 12005KT 050V180 9999 SCT025 BKN100 30/24 Q1013 NOSIG RMK A2991
RPLL,2025-01-14 07:00,RPLL 140700Z 13005KT 090V180 9999 SCT025 BKN100 30/24 Q1012 NOSIG RMK A2988
RPLL,2025-01-14 08:00,RPLL 140800Z 13007KT 090V160 9999 -RA SCT023 BKN100 29/23 Q1012 NOSIG RMK A2988
RPLL,2025-01-14 09:00,RPLL 140900Z 13005KT 070V220 9999 SCT023 BKN100 29/23 Q1012 NOSIG RMK A2988
RPLL,2025-01-14 10:00,RPLL 141000Z 12007KT 080V150 9999 SCT023 BKN100 28/24 Q1013 NOSIG RMK A2991
RPLL,2025-01-14 11:00,RPLL 141100Z 11008KT 070V140 9999 SCT023 BKN100 28/24 Q1013 NOSIG RMK A2991
RPLL,2025-01-14 12:00,RPLL 141200Z 12004KT 080V160 9999 FEW025 BKN100 28/24 Q1014 NOSIG RMK A2994
RPLL,2025-01-14 13:00,RPLL 141300Z 06006KT 040V100 9999 FEW025 BKN100 27/24 Q1015 NOSIG RMK A2997
RPLL,2025-01-14 14:00,RPLL 141400Z 07005KT 050V110 9999 FEW025 BKN100 27/24 Q1015 NOSIG RMK A2997
RPLL,2025-01-14 15:00,RPLL 141500Z 10006KT 060V150 9999 SCT025 BKN100 27/24 Q1015 NOSIG RMK A2997
RPLL,2025-01-14 16:00,RPLL 141600Z 10005KT 060V120 9999 FEW025 SCT100 27/24 Q1014 NOSIG RMK A2994
RPLL,2025-01-14 17:00,RPLL 141700Z 10003KT 060V130 9999 FEW025 27/24 Q1014 NOSIG RMK A2994
RPLL,2025-01-14 18:00,RPLL 141800Z VRB02KT 9999 FEW025 26/24 Q1014 NOSIG RMK A2994
RPLL,2025-01-14 19:00,RPLL 141900Z 18003KT 9999 FEW025 26/24 Q1013 NOSIG RMK A2991
RPLL,2025-01-14 20:00,RPLL 142000Z VRB02KT 9999 FEW025 25/24 Q1013 NOSIG RMK A2991
RPLL,2025-01-14 21:00,RPLL 142100Z VRB01KT 9999 FEW025 25/23 Q1013 NOSIG RMK A2991
RPLL,2025-01-14 22:00,RPLL 142200Z 02004KT 320V050 9999 FEW025 26/23 Q1013 NOSIG RMK A2991
RPLL,2025-01-14 23:00,RPLL 142300Z 15003KT 120V180 9999 FEW025 25/24 Q1014 NOSIG RMK A2994
RPLL,2025-01-15 00:00,RPLL 150000Z VRB02KT 9999 FEW025 27/24 Q1015 NOSIG RMK A2997
RPLL,2025-01-15 01:00,RPLL 150100Z 11004KT 050V180 9999 FEW025 29/23 Q1015 NOSIG RMK A2997
RPLL,2025-01-15 02:00,RPLL 150200Z 09006KT 040V140 9999 FEW025 30/24 Q1015 NOSIG RMK A2997
RPLL,2025-01-15 03:00,RPLL 150300Z 10005KT 060V180 9999 FEW025 31/23 Q1015 NOSIG RMK A2997
RPLL,2025-01-15 04:00,RPLL 150400Z 27004KT 230V320 9999 FEW025 30/24 Q1014 NOSIG RMK A2994
RPLL,2025-01-15 05:00,RPLL 150500Z 26003KT 210V310 9999 FEW025 30/24 Q1013 NOSIG RMK A2991
RPLL,2025-01-15 06:00,RPLL 150600Z 27005KT 210V340 9999 FEW025 BKN100 29/24 Q1012 NOSIG RMK A2988
RPLL,2025-01-15 07:00,RPLL 150700Z 13006KT 090V180 9999 SCT025 BKN100 30/24 Q1011 NOSIG RMK A2985
RPLL,2025-01-15 08:00,RPLL 150800Z 11004KT 070V160 9999 SCT025 BKN100 30/23 Q1011 NOSIG RMK A2985
RPLL,2025-01-15 09:00,RPLL 150900Z 12005KT 070V160 9999 SCT025 BKN100 29/24 Q1012 NOSIG RMK A2988
RPLL,2025-01-15 10:00,RPLL 151000Z 11004KT 060V180 9999 SCT025 BKN100 29/23 Q1012 NOSIG RMK A2988
RPLL,2025-01-15 11:00,RPLL 151100Z 10005KT 060V160 9999 FEW025 BKN100 28/24 Q1013 NOSIG RMK A2991
RPLL,2025-01-15 12:00,RPLL 151200Z 11004KT 070V140 9999 FEW025 SCT100 28/24 Q1014 NOSIG RMK A2994
RPLL,2025-01-15 13:00,RPLL 151300Z 15003KT 090V200 9999 FEW025 SCT100 27/24 Q1015 NOSIG RMK A2997
RPLL,2025-01-15 14:00,RPLL 151400Z 08003KT 060V120 9999 FEW025 27/24 Q1015 NOSIG RMK A2997
RPLL,2025-01-15 15:00,RPLL 151500Z VRB02KT 9999 FEW025 BKN100 27/23 Q1015 NOSIG RMK A2997
RPLL,2025-01-15 16:00,RPLL 151600Z VRB02KT 9999 FEW025 BKN100 27/23 Q1014 NOSIG RMK A2994
RPLL,2025-01-15 17:00,RPLL 151700Z VRB02KT 9999 FEW025 BKN100 27/24 Q1014 NOSIG RMK A2994
RPLL,2025-01-15 18:00,RPLL 151800Z VRB01KT 9999 SCT025 26/24 Q1013 NOSIG RMK A2991
RPLL,2025-01-15 19:00,RPLL 151900Z VRB02KT 9999 FEW025 26/23 Q1012 NOSIG RMK A2988
RPLL,2025-01-15 20:00,RPLL 152000Z VRB02KT 9999 FEW025 26/23 Q1012 NOSIG RMK A2988
RPLL,2025-01-15 21:00,RPLL 152100Z VRB02KT 9999 FEW025 25/23 Q1012 NOSIG RMK A2988
RPLL,2025-01-15 22:00,RPLL 152200Z VRB01KT 9999 FEW025 25/23 Q1013 NOSIG RMK A2991
RPLL,2025-01-15 23:00,RPLL 152300Z VRB01KT 9999 FEW025 25/23 Q1013 NOSIG RMK A2991
RPLL,2025-01-16 00:00,RPLL 160000Z VRB02KT 9999 FEW025 27/23 Q1014 NOSIG RMK A2994 METAR RPVM 160000Z 36008KT 9999 FEW020 SCT300 28/25 Q1012 NOSIG RMK A2988
RPLL,2025-01-16 01:00,RPLL 160100Z 27006KT 250V310 9999 FEW025 BKN100 27/24 Q1014 NOSIG RMK A2994
RPLL,2025-01-16 02:00,RPLL 160200Z 30003KT 260V020 9999 FEW025 BKN100 28/23 Q1014 NOSIG RMK A2994
RPLL,2025-01-16 03:00,RPLL 160300Z 29004KT 190V340 9999 FEW025 BKN100 29/23 Q1014 NOSIG RMK A2994
RPLL,2025-01-16 04:00,RPLL 160400Z VRB02KT 9999 FEW025 SCT100 31/23 Q1013 NOSIG RMK A2991
RPLL,2025-01-16 05:00,RPLL 160500Z 11007KT 070V180 9999 FEW025 33/22 Q1011 NOSIG RMK A2985
RPLL,2025-01-16 06:00,RPLL 160600Z 10008KT 060V150 9999 FEW025 SCT100 33/22 Q1010 NOSIG RMK A2983
RPLL,2025-01-16 07:00,RPLL 160700Z 10011KT 080V150 9999 FEW025 BKN100 32/21 Q1010 NOSIG RMK A2983
RPLL,2025-01-16 08:00,RPLL 160800Z 09010KT 060V120 9999 FEW025 BKN100 32/21 Q1010 NOSIG RMK A2983
RPLL,2025-01-16 09:00,RPLL 160900Z 11007KT 070V140 9999 FEW025 31/21 Q1011 NOSIG RMK A2985
RPLL,2025-01-16 10:00,RPLL 161000Z 11007KT 070V140 9999 SCT025 29/21 Q1012 NOSIG RMK A2988
RPLL,2025-01-16 11:00,RPLL 161100Z 13006KT 080V170 9999 SCT025 28/22 Q1012 NOSIG RMK A2988
RPLL,2025-01-16 12:00,RPLL 161200Z 13005KT 080V180 9999 SCT025 27/22 Q1013 NOSIG RMK A2991
RPLL,2025-01-16 13:00,RPLL 161300Z 14004KT 080V220 9999 FEW025 27/22 Q1013 NOSIG RMK A2991
RPLL,2025-01-16 14:00,RPLL 161400Z 13004KT 090V170 9999 FEW025 27/22 Q1014 NOSIG RMK A2994
RPLL,2025-01-16 15:00,RPLL 161500Z VRB01KT 9999 FEW025 26/22 Q1014 NOSIG RMK A2994
RPLL,2025-01-16 16:00,RPLL 161600Z VRB02KT 9999 FEW025 26/22 Q1014 NOSIG RMK A2994
RPLL,2025-01-16 17:00,RPLL 161700Z VRB02KT 9999 FEW025 BKN100 26/22 Q1013 NOSIG RMK A2991
RPLL,2025-01-16 18:00,RPLL 161800Z VRB02KT 9999 FEW025 SCT100 26/23 Q1013 NOSIG RMK A2991
RPLL,2025-01-16 19:00,RPLL 161900Z 20003KT 160V230 9999 FEW025 SCT100 25/23 Q1012 NOSIG RMK A2988
RPLL,2025-01-16 20:00,RPLL 162000Z VRB01KT 9999 FEW025 25/23 Q1012 NOSIG RMK A2988
RPLL,2025-01-16 21:00,RPLL 162100Z VRB02KT 9999 FEW025 25/23 Q1012 NOSIG RMK A2988
RPLL,2025-01-16 22:00,RPLL 162200Z 22002KT 9999 FEW025 25/23 Q1012 NOSIG RMK A2988
RPLL,2025-01-16 23:00,RPLL 162300Z 22003KT 160V250 9999 FEW025 26/22 Q1013 NOSIG RMK A2991
RPLL,2025-01-17 00:00,RPLL 170000Z 25004KT 190V290 9999 FEW025 27/23 Q1014 NOSIG RMK A2994
RPLL,2025-01-17 01:00,RPLL 170100Z 26003KT 210V320 9999 FEW025 27/22 Q1014 NOSIG RMK A2994
RPLL,2025-01-17 02:00,RPLL 170200Z 28004KT 240V330 9999 SCT025 29/23 Q1014 NOSIG RMK A2994
RPLL,2025-01-17 03:00,RPLL 170300Z 27004KT 220V290 9999 BKN025 29/22 Q1013 NOSIG RMK A2991
RPLL,2025-01-17 04:00,RPLL 170400Z 15006KT 100V230 9999 BKN025 30/22 Q1012 NOSIG RMK A2988
RPLL,2025-01-17 05:00,RPLL 170500Z 14007KT 040V190 9999 BKN025 31/23 Q1011 NOSIG RMK A2988
RPLL,2025-01-17 06:00,RPLL 170600Z 04006KT 360V080 9999 SCT025 SCT100 30/22 Q1010 NOSIG RMK A2983
RPLL,2025-01-17 07:00,RPLL 170700Z 09012KT 060V130 9999 FEW025 SCT100 32/21 Q1010 NOSIG RMK A2983
RPLL,2025-01-17 08:00,RPLL 170800Z 09010KT 060V120 9999 FEW025 BKN100 31/21 Q1010 NOSIG RMK A2983
RPLL,2025-01-17 09:00,RPLL 170900Z 13008KT 070V180 9999 FEW025 BKN100 29/22 Q1010 NOSIG RMK A2983
RPLL,2025-01-17 10:00,RPLL 171000Z 12008KT 080V160 9999 FEW025 BKN100 28/22 Q1011 NOSIG RMK A2985
RPLL,2025-01-17 11:00,RPLL 171100Z 11006KT 080V160 9999 FEW025 BKN100 28/22 Q1011 NOSIG RMK A2985
RPLL,2025-01-17 12:00,RPLL 171200Z 12005KT 070V190 9999 FEW025 SCT100 27/22 Q1012 NOSIG RMK A2988
RPLL,2025-01-17 13:00,RPLL 171300Z VRB02KT 9999 FEW025 BKN100 27/22 Q1012 NOSIG RMK A2988
RPLL,2025-01-17 14:00,RPLL 171400Z 12005KT 080V160 9999 FEW025 BKN100 27/22 Q1012 NOSIG RMK A2988 METAR RPVM 171400Z 04008KT 9999 FEW018CB BKN100 28/25 Q1011 RESHRA NOSIG RMK A2985 CB SW-N
RPLL,2025-01-17 15:00,RPLL 171500Z 13004KT 080V190 9999 FEW025 BKN100 27/22 Q1013 NOSIG RMK A2991
RPLL,2025-01-17 16:00,RPLL 171600Z 00000KT 9999 FEW025 BKN100 27/22 Q1012 NOSIG RMK A2988
RPLL,2025-01-17 17:00,RPLL 171700Z 06003KT 030V090 9999 FEW025 SCT100 26/23 Q1012 NOSIG RMK A2988
RPLL,2025-01-17 18:00,RPLL 171800Z 06004KT 9999 FEW025 BKN100 25/23 Q1011 NOSIG RMK A2985
RPLL,2025-01-17 19:00,RPLL 171900Z 07003KT 040V110 9999 FEW025 BKN100 26/23 Q1010 NOSIG RMK A2983
RPLL,2025-01-17 20:00,RPLL 172000Z VRB02KT 9999 FEW025 BKN100 26/23 Q1010 NOSIG RMK A2983
RPLL,2025-01-17 21:00,RPLL 172100Z VRB02KT 9999 FEW025 BKN100 26/23 Q1011 NOSIG RMK A2985
RPLL,2025-01-17 22:00,RPLL 172200Z VRB02KT 9999 FEW025 BKN100 26/23 Q1011 NOSIG RMK A2985
RPLL,2025-01-17 23:00,RPLL 172300Z VRB01KT 9999 FEW025 BKN100 26/23 Q1012 NOSIG RMK A2988
RPLL,2025-01-18 00:00,RPLL 180000Z VRB02KT 9999 FEW025 BKN100 27/23 Q1012 NOSIG RMK A2988
RPLL,2025-01-18 01:00,RPLL 180100Z VRB02KT 9999 SCT025 29/23 Q1012 NOSIG RMK A2988
RPLL,2025-01-18 02:00,RPLL 180200Z 19004KT 110V270 9999 SCT025 30/23 Q1012 NOSIG RMK A2988
RPLL,2025-01-18 03:00,RPLL 180300Z 14004KT 090V220 9999 SCT025 31/24 Q1012 NOSIG RMK A2988
RPLL,2025-01-18 04:00,RPLL 180400Z VRB05KT 9999 SCT025 BKN100 30/23 Q1011 NOSIG RMK A2985
RPLL,2025-01-18 05:00,RPLL 180500Z VRB05KT 9999 FEW025 BKN100 32/23 Q1010 NOSIG RMK A2983
RPLL,2025-01-18 06:00,RPLL 180600Z 12009KT 090V160 9999 FEW025 BKN100 31/23 Q1009 NOSIG RMK A2980
RPLL,2025-01-18 07:00,RPLL 180700Z 11011KT 080V150 9999 SCT025 SCT100 31/22 Q1009 NOSIG RMK A2980
RPLL,2025-01-18 08:00,RPLL 180800Z 13009KT 100V170 9999 FEW025 30/23 Q1009 NOSIG RMK A2980
RPLL,2025-01-18 09:00,RPLL 180900Z 13007KT 080V170 9999 FEW025 29/23 Q1009 NOSIG RMK A2980
RPLL,2025-01-18 10:00,RPLL 181000Z 12007KT 080V150 9999 FEW025 28/23 Q1010 NOSIG RMK A2983
RPLL,2025-01-18 11:00,RPLL 181100Z 11005KT 070V140 9999 FEW025 28/22 Q1010 NOSIG RMK A2983
RPLL,2025-01-18 12:00,RPLL 181200Z 11005KT 070V160 9999 SCT025 SCT100 27/23 Q1011 NOSIG RMK A2985
RPLL,2025-01-18 13:00,RPLL 181300Z 11003KT 060V150 9999 SCT025 27/23 Q1011 NOSIG RMK A2985
RPLL,2025-01-18 14:00,RPLL 181400Z VRB02KT 9999 SCT025 27/23 Q1011 NOSIG RMK A2983
RPLL,2025-01-18 15:00,RPLL 181500Z 14003KT 100V200 9999 FEW025 26/23 Q1011 NOSIG RMK A2985
RPLL,2025-01-18 16:00,RPLL 181600Z 14003KT 070V210 9999 FEW025 26/23 Q1011 NOSIG RMK A2985
RPLL,2025-01-18 17:00,RPLL 181700Z VRB02KT 9999 FEW025 26/23 Q1010 NOSIG RMK A2983
RPLL,2025-01-18 18:00,RPLL 181800Z VRB02KT 9999 FEW025 26/23 Q1010 NOSIG RMK A2983
RPLL,2025-01-18 19:00,RPLL 181900Z VRB02KT 9999 FEW025 25/23 Q1009 NOSIG RMK A2980
RPLL,2025-01-18 20:00,RPLL 182000Z VRB02KT 9999 FEW025 BKN100 25/24 Q1009 NOSIG RMK A2980
RPLL,2025-01-18 21:00,RPLL 182100Z 23003KT 9999 FEW025 SCT100 25/24 Q1009 NOSIG RMK A2980
RPLL,2025-01-18 22:00,RPLL 182200Z VRB02KT 9999 FEW025 26/23 Q1010 NOSIG RMK A2983
RPLL,2025-01-18 23:00,RPLL 182300Z VRB02KT 9999 FEW025 25/23 Q1010 NOSIG RMK A2983
RPLL,2025-01-19 00:00,RPLL 190000Z 36005KT 320V040 9999 FEW025 27/23 Q1011 NOSIG RMK A2985
RPLL,2025-01-19 01:00,RPLL 190100Z 02005KT 340V110 9999 FEW025 28/23 Q1011 NOSIG RMK A2985
RPLL,2025-01-19 02:00,RPLL 190200Z 26006KT 9999 BKN025 28/23 Q1011 NOSIG RMK A2985
RPLL,2025-01-19 03:00,RPLL 190300Z VRB02KT 9999 SCT025 BKN100 29/23 Q1010 NOSIG RMK A2983
RPLL,2025-01-19 04:00,RPLL 190400Z 28009KT 9999 SCT025 BKN100 29/23 Q1009 NOSIG RMK A2980
RPLL,2025-01-19 05:00,RPLL 190500Z 29009KT 260V360 9999 SCT025 BKN100 31/24 Q1009 NOSIG RMK A2980
RPLL,2025-01-19 06:00,RPLL 190600Z 28009KT 9999 SCT025 30/24 Q1007 NOSIG RMK A2974
RPLL,2025-01-19 07:00,RPLL 190700Z 28009KT 9999 BKN025 30/24 Q1007 NOSIG RMK A2974
RPLL,2025-01-19 08:00,RPLL 190800Z 28008KT 9999 SCT025 30/23 Q1007 NOSIG RMK A2974
RPLL,2025-01-19 09:00,RPLL 190900Z 27007KT 9999 FEW025 30/23 Q1007 NOSIG RMK A2974
RPLL,2025-01-19 10:00,RPLL 191000Z 26005KT 9999 FEW025 29/23 Q1008 NOSIG RMK A2977
RPLL,2025-01-19 11:00,RPLL 191100Z 24004KT 180V270 9999 SCT025 28/24 Q1008 NOSIG RMK A2977
RPLL,2025-01-19 12:00,RPLL 191200Z 20003KT 140V230 9999 FEW025 28/24 Q1009 NOSIG RMK A2980
RPLL,2025-01-19 13:00,RPLL 191300Z VRB02KT 9999 FEW025 28/25 Q1009 NOSIG RMK A2980
RPLL,2025-01-19 14:00,RPLL 191400Z VRB01KT 9999 -SHRA SCT023 BKN100 27/25 Q1010 NOSIG RMK A2983
RPLL,2025-01-19 15:00,RPLL 191500Z VRB02KT 9999 SCT025 BKN100 27/25 Q1010 NOSIG RMK A2983
RPLL,2025-01-19 16:00,RPLL 191600Z 02008KT 350V070 9999 SCT025 BKN100 27/24 Q1010 NOSIG RMK A2983
RPLL,2025-01-19 17:00,RPLL 191700Z 01007KT 9999 SCT025 BKN100 27/24 Q1009 NOSIG RMK A2980
RPLL,2025-01-19 18:00,RPLL 191800Z 35006KT 320V020 9999 SCT025 BKN100 27/24 Q1009 NOSIG RMK A2980
RPLL,2025-01-19 19:00,RPLL 191900Z 35006KT 310V030 9999 SCT025 BKN100 27/24 Q1008 NOSIG RMK A2977
RPLL,2025-01-19 20:00,RPLL 192000Z 01006KT 340V040 9999 FEW025 SCT100 26/24 Q1008 NOSIG RMK A2977
RPLL,2025-01-19 21:00,RPLL 192100Z 02007KT 9999 FEW025 SCT100 26/24 Q1008 NOSIG RMK A2977
RPLL,2025-01-19 22:00,RPLL 192200Z 04007KT 9999 SCT025 26/24 Q1008 NOSIG RMK A2977
RPLL,2025-01-19 23:00,RPLL 192300Z 06003KT 030V150 9999 SCT025 BKN100 26/24 Q1009 NOSIG RMK A2980
RPLL,2025-01-20 00:00,RPLL 200000Z 33004KT 300V050 9000 FEW025 BKN100 27/24 Q1010 NOSIG RMK A2983
RPLL,2025-01-20 01:00,RPLL 200100Z 34007KT 290V010 9000 -SHRA SCT023 BKN100 26/24 Q1011 NOSIG RMK A2985
RPLL,2025-01-20 02:00,RPLL 200200Z 34007KT 290V010 9000 -SHRA SCT023 BKN100 26/24 Q1011 NOSIG RMK A2985
RPLL,2025-01-20 03:00,RPLL 200300Z 28006KT 250V320 9999 SCT025 29/25 Q1010 NOSIG RMK A2983
RPLL,2025-01-20 04:00,RPLL 200400Z 29005KT 9000 SCT025 BKN100 28/24 Q1009 NOSIG RMK A2980
RPLL,2025-01-20 05:00,RPLL 200500Z 26008KT 9999 FEW025 BKN100 29/25 Q1008 NOSIG RMK A2977
RPLL,2025-01-20 06:00,RPLL 200600Z 30005KT 260V330 9999 FEW025 BKN100 29/25 Q1008 NOSIG RMK A2977
RPLL,2025-01-20 07:00,RPLL 200700Z VRB05KT 9999 FEW025 SCT025 BKN100 30/25 Q1007 NOSIG RMK A2974
RPLL,2025-01-20 08:00,RPLL 200800Z 13007KT 080V120 9999 SCT025 30/24 Q1007 NOSIG RMK A2974
RPLL,2025-01-20 09:00,RPLL 200900Z 13007KT 100V170 9999 SCT025 30/24 Q1007 NOSIG RMK A2974
RPLL,2025-01-20 10:00,RPLL 201000Z 14006KT 080V200 9999 FEW023TCU SCT025 28/24 Q1008 NOSIG RMK A2977 TCU NW
RPLL,2025-01-20 11:00,RPLL 201100Z 13006KT 060V130 9999 FEW025 SCT100 28/24 Q1009 NOSIG RMK A2980
RPLL,2025-01-20 12:00,RPLL 201200Z VRB05KT 9999 FEW025 SCT100 27/24 Q1010 NOSIG RMK A2983
RPLL,2025-01-20 13:00,RPLL 201300Z 12004KT 090V160 9999 FEW025 27/24 Q1010 NOSIG RMK A2983
RPLL,2025-01-20 14:00,RPLL 201400Z 12005KT 080V170 9999 FEW025 27/23 Q1011 NOSIG RMK A2985
RPLL,2025-01-20 15:00,RPLL 201500Z 14004KT 080V180 9999 FEW025 SCT100 27/23 Q1011 NOSIG RMK A2985
RPLL,2025-01-20 16:00,RPLL 201600Z 13004KT 070V190 9999 SCT025 BKN100 27/23 Q1011 NOSIG RMK A2985
RPLL,2025-01-20 17:00,RPLL 201700Z 10004KT 060V140 9999 SCT025 BKN100 27/23 Q1010 NOSIG RMK A2983
RPLL,2025-01-20 18:00,RPLL 201800Z VRB02KT 9999 SCT025 BKN100 26/24 Q1010 NOSIG RMK A2983
RPLL,2025-01-20 19:00,RPLL 201900Z 00000KT 9999 SCT025 BKN100 26/23 Q1010 NOSIG RMK A2983
RPLL,2025-01-20 20:00,RPLL 202000Z VRB02KT 9999 FEW025 BKN100 26/24 Q1010 NOSIG RMK A2983
RPLL,2025-01-20 21:00,RPLL 202100Z VRB01KT 9999 FEW025 26/23 Q1010 NOSIG RMK A2983
RPLL,2025-01-20 22:00,RPLL 202200Z VRB02KT 9999 FEW025 25/23 Q1010 NOSIG RMK A2983
RPLL,2025-01-20 23:00,RPLL 202300Z VRB02KT 9999 FEW025 26/23 Q1011 NOSIG RMK A2985
RPLL,2025-01-21 00:00,RPLL 210000Z VRB02KT 9999 FEW025 SCT100 29/23 Q1012 NOSIG RMK A2988
RPLL,2025-01-21 01:00,RPLL 210100Z 02003KT 310V060 9999 FEW025 29/23 Q1012 NOSIG RMK A2988
RPLL,2025-01-21 02:00,RPLL 210200Z VRB04KT 9999 FEW025 SCT100 29/24 Q1012 NOSIG RMK A2988
RPLL,2025-01-21 03:00,RPLL 210300Z 28005KT 220V320 9999 FEW025 SCT100 29/23 Q1012 NOSIG RMK A2988
RPLL,2025-01-21 04:00,RPLL 210400Z 13006KT 080V190 9999 SCT025 32/23 Q1011 NOSIG RMK A2985
RPLL,2025-01-21 05:00,RPLL 210500Z 12009KT 080V180 9999 SCT025 32/23 Q1009 NOSIG RMK A2980
RPLL,2025-01-21 06:00,RPLL 210600Z 13007KT 080V210 9999 SCT025 32/23 Q1009 NOSIG RMK A2980
RPLL,2025-01-21 07:00,RPLL 210700Z 13010G20KT 070V190 9999 SCT025 32/23 Q1008 NOSIG RMK A2977
RPLL,2025-01-21 08:00,RPLL 210800Z 12010KT 090V180 9999 FEW025 30/23 Q1008 NOSIG RMK A2977
RPLL,2025-01-21 09:00,RPLL 210900Z 12007KT 080V150 9999 FEW025 29/23 Q1009 NOSIG RMK A2980
RPLL,2025-01-21 10:00,RPLL 211000Z 11008KT 070V160 9999 FEW025 28/23 Q1010 NOSIG RMK A2983
RPLL,2025-01-21 11:00,RPLL 211100Z 11008KT 080V150 9999 FEW025 28/23 Q1010 NOSIG RMK A2983
RPLL,2025-01-21 12:00,RPLL 211200Z 11008KT 080V150 9999 FEW025 27/22 Q1011 NOSIG RMK A2985
RPLL,2025-01-21 13:00,RPLL 211300Z 12006KT 090V170 9999 FEW025 27/22 Q1012 NOSIG RMK A2988
RPLL,2025-01-21 14:00,RPLL 211400Z 12008KT 080V160 9999 FEW025 27/22 Q1012 NOSIG RMK A2988
RPLL,2025-01-21 15:00,RPLL 211500Z 11006KT 070V180 9999 FEW025 SCT100 27/22 Q1012 NOSIG RMK A2985
RPLL,2025-01-21 16:00,RPLL 211600Z 10007KT 070V130 9999 FEW025 SCT100 27/22 Q1012 NOSIG RMK A2988
RPLL,2025-01-21 17:00,RPLL 211700Z 10005KT 070V130 9999 FEW025 SCT100 27/22 Q1011 NOSIG RMK A2985
RPLL,2025-01-21 18:00,RPLL 211800Z 11005KT 080V140 9999 FEW025 SCT100 27/22 Q1011 NOSIG RMK A2985
RPLL,2025-01-21 19:00,RPLL 211900Z 11005KT 080V150 9999 FEW025 SCT150 27/22 Q1011 NOSIG RMK A2985
RPLL,2025-01-21 20:00,RPLL 212000Z 06005KT 9999 FEW025 SCT100 26/23 Q1011 NOSIG RMK A2985
RPLL,2025-01-21 21:00,RPLL 212100Z 08003KT 9999 FEW025 25/22 Q1011 NOSIG RMK A2985
RPLL,2025-01-21 22:00,RPLL 212200Z VRB02KT 9999 FEW025 25/22 Q1012 NOSIG RMK A2988
RPLL,2025-01-21 23:00,RPLL 212300Z 08003KT 050V110 9999 FEW025 26/23 Q1012 NOSIG RMK A2988
RPLL,2025-01-22 00:00,RPLL 220000Z 11005KT 070V170 9999 FEW025 28/22 Q1013 NOSIG RMK A2991
RPLL,2025-01-22 01:00,RPLL 220100Z 11007KT 070V150 9999 FEW025 29/22 Q1013 NOSIG RMK A2991
RPLL,2025-01-22 02:00,RPLL 220200Z 12008KT 080V150 9999 FEW025 30/22 Q1013 NOSIG RMK A2991
RPLL,2025-01-22 03:00,RPLL 220300Z 10008KT 050V170 9999 SCT025 31/25 Q1013 NOSIG RMK A2991
RPLL,2025-01-22 04:00,RPLL 220400Z 28005KT 230V310 9999 SCT025 BKN100 29/22 Q1012 NOSIG RMK A2988
RPLL,2025-01-22 05:00,RPLL 220500Z 12011KT 090V170 9999 FEW025 SCT100 31/22 Q1011 NOSIG RMK A2985
RPLL,2025-01-22 06:00,RPLL 220600Z 12010KT 060V160 9999 FEW025 31/22 Q1011 NOSIG RMK A2985
RPLL,2025-01-22 07:00,RPLL 220700Z 13010KT 080V170 9999 SCT025 31/23 Q1010 NOSIG RMK A2983
RPLL,2025-01-22 08:00,RPLL 220800Z 11011G23KT 9999 SCT025 30/22 Q1010 NOSIG RMK A2983
RPLL,2025-01-22 09:00,COR RPLL 220900Z 11010G20KT 080V150 9999 SCT025 29/22 Q1011 NOSIG RMK A2985
RPLL,2025-01-22 10:00,RPLL 221000Z 12007KT 080V180 9999 FEW025 28/22 Q1011 NOSIG RMK A2985
RPLL,2025-01-22 11:00,RPLL 221100Z 12006KT 070V180 9999 FEW025 27/21 Q1012 NOSIG RMK A2988
RPLL,2025-01-22 12:00,RPLL 221200Z 11005KT 070V170 9999 FEW025 27/22 Q1012 NOSIG RMK A2988
RPLL,2025-01-22 13:00,RPLL 221300Z 12006KT 070V160 9999 FEW025 27/21 Q1013 NOSIG RMK A2991
RPLL,2025-01-22 14:00,RPLL 221400Z 12006KT 070V160 9999 FEW025 27/21 Q1013 NOSIG RMK A2991
RPLL,2025-01-22 15:00,RPLL 221500Z 10004KT 060V130 9999 FEW025 27/20 Q1013 NOSIG RMK A2991
RPLL,2025-01-22 16:00,RPLL 221600Z VRB02KT 9999 FEW025 26/20 Q1012 NOSIG RMK A2988
RPLL,2025-01-22 17:00,RPLL 221700Z 12003KT 090V160 9999 FEW025 26/21 Q1012 NOSIG RMK A2988
RPLL,2025-01-22 18:00,RPLL 221800Z 10003KT 050V150 9999 FEW025 26/20 Q1011 NOSIG RMK A2985
RPLL,2025-01-22 19:00,RPLL 221900Z 06004KT 9999 FEW025 24/20 Q1011 NOSIG RMK A2985
RPLL,2025-01-22 20:00,RPLL 222000Z 09002KT 9999 FEW025 25/20 Q1011 NOSIG RMK A2985
RPLL,2025-01-22 21:00,RPLL 222100Z 29003KT 270V330 9999 FEW025 25/22 Q1011 NOSIG RMK A2985
RPLL,2025-01-22 22:00,RPLL 222200Z VRB02KT 9999 FEW025 26/22 Q1011 NOSIG RMK A2985
RPLL,2025-01-22 23:00,RPLL 222300Z VRB02KT 9999 FEW025 25/21 Q1012 NOSIG RMK A2988
RPLL,2025-01-23 00:00,RPLL 230000Z VRB02KT 9999 FEW025 27/22 Q1013 NOSIG RMK A2991
RPLL,2025-01-23 01:00,RPLL 230100Z VRB02KT 9999 FEW025 29/22 Q1013 NOSIG RMK A2991
RPLL,2025-01-23 02:00,RPLL 230200Z 27005KT 240V340 9999 FEW025 29/22 Q1013 NOSIG RMK A2991
RPLL,2025-01-23 03:00,RPLL 230300Z 29006KT 250V330 9999 FEW025 BKN100 29/22 Q1013 NOSIG RMK A2991
RPLL,2025-01-23 04:00,RPLL 230400Z 27006KT 240V320 9999 FEW025 SCT100 30/22 Q1012 NOSIG RMK A2988
RPLL,2025-01-23 05:00,RPLL 230500Z 31005G16KT 230V360 9999 FEW025 BKN100 30/22 Q1011 NOSIG RMK A2985
RPLL,2025-01-23 06:00,RPLL 230600Z 10006KT 050V150 9999 FEW025 BKN100 32/21 Q1010 NOSIG RMK A2983
RPLL,2025-01-23 07:00,RPLL 230700Z 12006KT 060V170 9999 FEW025 BKN100 31/22 Q1009 NOSIG RMK A2980
RPLL,2025-01-23 08:00,RPLL 230800Z 13008KT 080V170 9999 FEW025 BKN100 30/23 Q1009 NOSIG RMK A2980
RPLL,2025-01-23 09:00,RPLL 230900Z 13008KT 090V170 9999 FEW025 BKN100 29/23 Q1009 NOSIG RMK A2980
RPLL,2025-01-23 10:00,RPLL 231000Z 11007KT 080V140 9999 FEW025 BKN100 28/23 Q1010 NOSIG RMK A2983
RPLL,2025-01-23 11:00,RPLL 231100Z 13005KT 080V160 9999 FEW025 SCT100 28/23 Q1011 NOSIG RMK A2985
RPLL,2025-01-23 12:00,RPLL 231200Z VRB06KT 9999 FEW025 27/23 Q1011 NOSIG RMK A2985
RPLL,2025-01-23 13:00,RPLL 231300Z 13006KT 070V180 9999 FEW025 27/23 Q1012 NOSIG RMK A2988
RPLL,2025-01-23 14:00,RPLL 231400Z 13003KT 060V180 9999 FEW025 27/23 Q1012 NOSIG RMK A2988
RPLL,2025-01-23 15:00,RPLL 231500Z 14004KT 080V220 9999 FEW025 27/23 Q1011 NOSIG RMK A2985
RPLL,2025-01-23 16:00,RPLL 231600Z 11004KT 080V160 9999 FEW025 27/23 Q1011 NOSIG RMK A2985
RPLL,2025-01-23 17:00,RPLL 231700Z 06003KT 9999 FEW025 26/23 Q1011 NOSIG RMK A2985
RPLL,2025-01-23 18:00,RPLL 231800Z VRB02KT 9999 FEW025 26/23 Q1010 NOSIG RMK A2983
RPLL,2025-01-23 19:00,RPLL 231900Z 29003KT 260V320 9999 FEW025 26/23 Q1009 NOSIG RMK A2980
RPLL,2025-01-23 20:00,RPLL 232000Z 31003KT 270V030 9999 FEW025 26/23 Q1009 NOSIG RMK A2980
RPLL,2025-01-23 21:00,RPLL 232100Z 36005KT 340V050 9999 FEW025 BKN100 26/22 Q1009 NOSIG RMK A2980
RPLL,2025-01-23 22:00,RPLL 232200Z 35004KT 310V060 9999 FEW025 26/22 Q1010 NOSIG RMK A2983
RPLL,2025-01-23 23:00,RPLL 232300Z VRB02KT 9999 FEW025 SCT100 26/22 Q1011 NOSIG RMK A2985
RPLL,2025-01-24 00:00,RPLL 240000Z VRB03KT 9999 SCT025 28/23 Q1011 NOSIG RMK A2985
RPLL,2025-01-24 01:00,RPLL 240100Z VRB02KT 9000 FEW023 SCT025 29/22 Q1012 NOSIG RMK A2988
RPLL,2025-01-24 02:00,RPLL 240200Z 14003KT 040V200 9000 SCT025 31/23 Q1012 NOSIG RMK A2988
RPLL,2025-01-24 03:00,RPLL 240300Z VRB04KT 8000 FEW025 BKN100 32/23 Q1011 NOSIG RMK A2985
RPLL,2025-01-24 04:00,RPLL 240400Z VRB02KT 7000 SCT025 BKN100 31/23 Q1010 NOSIG RMK A2983
RPLL,2025-01-24 05:00,RPLL 240500Z VRB05KT 8000 SCT025 32/23 Q1009 NOSIG RMK A2980
RPLL,2025-01-24 06:00,RPLL 240600Z 13007KT 080V170 9000 FEW023 SCT025 32/23 Q1009 NOSIG RMK A2980
RPLL,2025-01-24 07:00,RPLL 240700Z 13007KT 080V220 9999 FEW025 32/23 Q1008 NOSIG RMK A2977
RPLL,2025-01-24 08:00,RPLL 240800Z 15008KT 090V200 9999 FEW025 32/28 Q1008 NOSIG RMK A2977
RPLL,2025-01-24 09:00,RPLL 240900Z 14006KT 090V210 9999 FEW025 30/24 Q1008 NOSIG RMK A2977
RPLL,2025-01-24 10:00,RPLL 241000Z 14007KT 080V170 9999 FEW025 SCT100 29/23 Q1009 NOSIG RMK A2980
RPLL,2025-01-24 11:00,RPLL 241100Z 13005KT 070V190 9999 FEW025 29/24 Q1010 NOSIG RMK A2983
RPLL,2025-01-24 12:00,RPLL 241200Z 13005KT 090V180 9999 FEW025 29/24 Q1010 NOSIG RMK A2983
RPLL,2025-01-24 13:00,RPLL 241300Z 13004KT 070V180 9999 FEW025 28/23 Q1010 NOSIG RMK A2983
RPLL,2025-01-24 14:00,RPLL 241400Z 14004KT 100V190 9999 FEW025 28/24 Q1010 NOSIG RMK A2983
RPLL,2025-01-24 15:00,RPLL 241500Z 15004KT 100V190 9999 FEW025 27/23 Q1010 NOSIG RMK A2983
RPLL,2025-01-24 16:00,RPLL 241600Z 16004KT 110V210 9999 FEW025 27/24 Q1010 NOSIG RMK A2983
RPLL,2025-01-24 17:00,RPLL 241700Z VRB01KT 9999 FEW025 26/24 Q1010 NOSIG RMK A2983
RPLL,2025-01-24 18:00,RPLL 241800Z VRB01KT 9999 FEW025 26/24 Q1010 NOSIG RMK A2983
RPLL,2025-01-24 19:00,RPLL 241900Z VRB02KT 9999 FEW025 26/24 Q1009 NOSIG RMK A2980
RPLL,2025-01-24 20:00,RPLL 242000Z VRB02KT 9999 FEW025 26/24 Q1009 NOSIG RMK A2980
RPLL,2025-01-24 21:00,RPLL 242100Z VRB02KT 9999 FEW025 26/24 Q1009 NOSIG RMK A2980
RPLL,2025-01-24 22:00,RPLL 242200Z VRB02KT 9999 FEW025 26/24 Q1010 NOSIG RMK A2983
RPLL,2025-01-24 23:00,RPLL 242300Z VRB02KT 9999 FEW025 26/24 Q1010 NOSIG RMK A2983
RPLL,2025-01-25 00:00,RPLL 250000Z VRB02KT 9999 FEW025 27/24 Q1011 NOSIG RMK A2985
RPLL,2025-01-25 01:00,RPLL 250100Z 28004KT 240V330 9000 FEW025 28/24 Q1012 NOSIG RMK A2988
RPLL,2025-01-25 02:00,RPLL 250200Z 26007KT 240V300 9000 FEW025 28/24 Q1011 NOSIG RMK A2985
RPLL,2025-01-25 03:00,RPLL 250300Z 27007KT 9000 FEW025 30/24 Q1011 NOSIG RMK A2985
RPLL,2025-01-25 04:00,RPLL 250400Z 29006KT 260V320 8000 SCT025 30/24 Q1010 NOSIG RMK A2983
RPLL,2025-01-25 05:00,RPLL 250500Z 29005G15KT 230V340 8000 SCT025 31/23 Q1009 NOSIG RMK A2980
RPLL,2025-01-25 06:00,RPLL 250600Z 31007KT 270V350 9000 FEW025 31/23 Q1008 NOSIG RMK A2977
RPLL,2025-01-25 07:00,RPLL 250700Z VRB06KT 9999 FEW025 32/24 Q1007 NOSIG RMK A2974
RPLL,2025-01-25 08:00,RPLL 250800Z 29005KT 240V330 9999 FEW025 31/23 Q1007 NOSIG RMK A2974
RPLL,2025-01-25 09:00,RPLL 250900Z VRB04KT 9999 SCT025 31/24 Q1007 NOSIG RMK A2974
RPLL,2025-01-25 10:00,RPLL 251000Z 13004KT 050V210 9999 FEW025 30/23 Q1008 NOSIG RMK A2977
RPLL,2025-01-25 11:00,RPLL 251100Z 14005KT 090V190 9999 FEW025 29/22 Q1009 NOSIG RMK A2980
RPLL,2025-01-25 12:00,RPLL 251200Z 14006KT 040V200 9999 FEW025 28/22 Q1009 NOSIG RMK A2980
RPLL,2025-01-25 13:00,RPLL 251300Z 15005KT 110V190 9999 SCT025 28/22 Q1010 NOSIG RMK A2983
RPLL,2025-01-25 14:00,RPLL 251400Z 13005KT 090V170 9999 BKN025 28/22 Q1010 NOSIG RMK A2983
RPLL,2025-01-25 15:00,RPLL 251500Z VRB02KT 9999 SCT025 27/22 Q1010 NOSIG RMK A2983
RPLL,2025-01-25 16:00,RPLL 251600Z 22003KT 160V240 9999 SCT025 27/22 Q1011 NOSIG RMK A2985
RPLL,2025-01-25 17:00,RPLL 251700Z VRB02KT 9999 FEW025 SCT100 27/23 Q1010 NOSIG RMK A2983
RPLL,2025-01-25 18:00,RPLL 251800Z 23003KT 200V260 9999 FEW025 27/22 Q1010 NOSIG RMK A2983
RPLL,2025-01-25 19:00,RPLL 251900Z VRB02KT 9999 FEW025 26/24 Q1009 NOSIG RMK A2980
RPLL,2025-01-25 20:00,RPLL 252000Z 26003KT 200V310 9999 FEW025 SCT130 26/24 Q1010 NOSIG RMK A2983
RPLL,2025-01-25 21:00,RPLL 252100Z VRB02KT 9999 FEW025 BKN100 26/24 Q1010 NOSIG RMK A2983
RPLL,2025-01-25 22:00,RPLL 252200Z 28003KT 250V320 8000 -RA SCT025 BKN090 26/24 Q1010 NOSIG RMK A2983
RPLL,2025-01-25 23:00,RPLL 252300Z 26005KT 9000 SCT025 BKN100 25/24 Q1011 NOSIG RMK A2985
RPLL,2025-01-26 00:00,RPLL 260000Z 04004KT 340V080 9999 FEW025 27/23 Q1011 NOSIG RMK A2985
RPLL,2025-01-26 01:00,RPLL 260100Z VRB03KT 9999 FEW025 28/24 Q1012 NOSIG RMK A2988
RPLL,2025-01-26 02:00,RPLL 260200Z 27004KT 240V350 9999 SCT025 27/23 Q1012 NOSIG RMK A2988
RPLL,2025-01-26 03:00,RPLL 260300Z VRB05KT 9000 SCT025 30/23 Q1011 NOSIG RMK A2985
RPLL,2025-01-26 04:00,RPLL 260400Z 27004KT 230V320 9999 SCT025 29/24 Q1011 NOSIG RMK A2985
RPLL,2025-01-26 05:00,RPLL 260500Z 15006KT 070V120 9999 FEW025 31/22 Q1010 NOSIG RMK A2983
RPLL,2025-01-26 06:00,RPLL 260600Z 14008KT 080V200 9999 SCT025 31/22 Q1008 NOSIG RMK A2977
RPLL,2025-01-26 07:00,RPLL 260700Z 13008KT 090V170 9999 SCT025 31/22 Q1008 NOSIG RMK A2977
RPLL,2025-01-26 08:00,RPLL 260800Z 14007KT 090V250 9999 SCT025 30/22 Q1007 NOSIG RMK A2974
RPLL,2025-01-26 09:00,RPLL 260900Z 13006KT 080V170 9999 FEW025 30/22 Q1008 NOSIG RMK A2977
RPLL,2025-01-26 10:00,RPLL 261000Z 12005KT 050V170 9999 FEW025 29/22 Q1008 NOSIG RMK A2977
RPLL,2025-01-26 11:00,RPLL 261100Z 12006KT 080V160 9999 FEW025 SCT100 28/22 Q1009 NOSIG RMK A2980
RPLL,2025-01-26 12:00,RPLL 261200Z 12005KT 060V170 9999 FEW025 27/22 Q1010 NOSIG RMK A2983
RPLL,2025-01-26 13:00,RPLL 261300Z 11005KT 080V150 9999 FEW025 27/22 Q1010 NOSIG RMK A2983
RPLL,2025-01-26 14:00,RPLL 261400Z 11004KT 070V170 9999 FEW025 26/22 Q1010 NOSIG RMK A2983
RPLL,2025-01-26 15:00,RPLL 261500Z 11003KT 080V150 9999 FEW025 26/22 Q1010 NOSIG RMK A2983
RPLL,2025-01-26 16:00,RPLL 261600Z 11003KT 070V150 9999 FEW025 SCT100 26/22 Q1010 NOSIG RMK A2983
RPLL,2025-01-26 17:00,RPLL 261700Z VRB02KT 9999 FEW025 26/21 Q1010 NOSIG RMK A2983
RPLL,2025-01-26 18:00,RPLL 261800Z VRB02KT 9999 FEW025 25/22 Q1009 NOSIG RMK A2980
RPLL,2025-01-26 19:00,RPLL 261900Z 00000KT 9999 FEW025 25/21 Q1009 NOSIG RMK A2980
RPLL,2025-01-26 20:00,RPLL 262000Z 32002KT 9999 FEW025 BKN100 25/21 Q1009 NOSIG RMK A2980
RPLL,2025-01-26 21:00,RPLL 262100Z VRB02KT 9999 FEW025 SCT100 25/20 Q1009 NOSIG RMK A2980
RPLL,2025-01-26 22:00,RPLL 262200Z 02004KT 340V070 9999 FEW025 SCT100 25/20 Q1010 NOSIG RMK A2983
RPLL,2025-01-26 23:00,RPLL 262300Z VRB02KT 9999 FEW025 SCT100 26/21 Q1011 NOSIG RMK A2985
RPLL,2025-01-27 00:00,RPLL 270000Z VRB02KT 9999 FEW025 SCT100 26/21 Q1012 NOSIG RMK A2988
RPLL,2025-01-27 01:00,RPLL 270100Z VRB02KT 9999 FEW025 SCT100 27/21 Q1012 NOSIG RMK A2988
RPLL,2025-01-27 02:00,RPLL 270200Z 03003KT 350V080 9999 FEW025 BKN100 27/21 Q1012 NOSIG RMK A2988
RPLL,2025-01-27 03:00,COR RPLL 270300Z 27004KT 220V310 9000 SCT025 28/22 Q1012 NOSIG RMK A2988
RPLL,2025-01-27 04:00,RPLL 270400Z 27006KT 230V340 9000 BKN023 28/21 Q1011 NOSIG RMK A2985
RPLL,2025-01-27 05:00,RPLL 270500Z 25003KT 190V320 9999 SCT025 29/21 Q1010 NOSIG RMK A2983
RPLL,2025-01-27 06:00,RPLL 270600Z VRB05KT 9999 FEW025 31/20 Q1009 NOSIG RMK A2980
RPLL,2025-01-27 07:00,RPLL 270700Z 14007KT 070V210 9999 FEW025 31/20 Q1009 NOSIG RMK A2980
RPLL,2025-01-27 08:00,RPLL 270800Z 14007KT 090V210 9999 FEW025 30/21 Q1008 NOSIG RMK A2977
RPLL,2025-01-27 09:00,RPLL 270900Z VRB07KT 9999 FEW025 29/20 Q1009 NOSIG RMK A2980
RPLL,2025-01-27 10:00,RPLL 271000Z 12007KT 080V150 9999 FEW025 28/20 Q1009 NOSIG RMK A2980
RPLL,2025-01-27 11:00,RPLL 271100Z 11006KT 080V150 9999 SCT025 27/20 Q1010 NOSIG RMK A2983
RPLL,2025-01-27 12:00,RPLL 271200Z 11004KT 080V160 9999 FEW025 26/19 Q1011 NOSIG RMK A2985
RPLL,2025-01-27 13:00,RPLL 271300Z 08003KT 9999 SCT025 BKN100 25/18 Q1012 NOSIG RMK A2988
RPLL,2025-01-27 14:00,RPLL 271400Z VRB02KT 9999 FEW025 SCT100 26/18 Q1013 NOSIG RMK A2991
RPLL,2025-01-27 15:00,RPLL 271500Z 12002KT 9999 FEW025 25/18 Q1013 NOSIG RMK A2991
RPLL,2025-01-27 16:00,RPLL 271600Z VRB01KT 9999 FEW025 25/18 Q1013 NOSIG RMK A2991
RPLL,2025-01-27 17:00,RPLL 271700Z 00000KT 9999 FEW025 24/19 Q1012 NOSIG RMK A2988
RPLL,2025-01-27 18:00,RPLL 271800Z 00000KT 9999 FEW018 24/19 Q1012 NOSIG RMK A2988
RPLL,2025-01-27 19:00,RPLL 271900Z VRB02KT 9999 FEW025 24/19 Q1011 NOSIG RMK A2985
RPLL,2025-01-27 20:00,RPLL 272000Z VRB02KT 9999 FEW025 24/19 Q1012 NOSIG RMK A2988
RPLL,2025-01-27 21:00,RPLL 272100Z 36005KT 320V060 9999 FEW025 SCT100 24/20 Q1012 NOSIG RMK A2988
RPLL,2025-01-27 22:00,COR RPLL 272200Z 02005KT 320V040 9999 FEW025 24/21 Q1012 NOSIG RMK A2988
RPLL,2025-01-27 23:00,RPLL 272300Z VRB03KT 9999 FEW025 24/21 Q1013 NOSIG RMK A2991
RPLL,2025-01-28 00:00,RPLL 280000Z VRB01KT 9999 FEW025 26/21 Q1014 NOSIG RMK A2994
RPLL,2025-01-28 01:00,RPLL 280100Z VRB02KT 9999 FEW025 26/20 Q1014 NOSIG RMK A2994
RPLL,2025-01-28 02:00,COR RPLL 280200Z 12003KT 070V170 9999 FEW025 27/20 Q1014 NOSIG RMK A2994
RPLL,2025-01-28 03:00,RPLL 280300Z 06003KT 360V110 9999 FEW025 28/20 Q1014 NOSIG RMK A2994
RPLL,2025-01-28 04:00,RPLL 280400Z 31007KT 270V350 9000 FEW025 SCT100 28/21 Q1013 NOSIG RMK A2991
RPLL,2025-01-28 05:00,RPLL 280500Z 28007KT 9000 FEW025 BKN100 27/21 Q1012 NOSIG RMK A2988
RPLL,2025-01-28 06:00,RPLL 280600Z 28004KT 240V340 9999 SCT025 BKN100 28/21 Q1012 NOSIG RMK A2988
RPLL,2025-01-28 07:00,RPLL 280700Z 12006KT 030V180 9999 SCT025 BKN100 30/21 Q1011 NOSIG RMK A2985
RPLL,2025-01-28 08:00,RPLL 280800Z 10008KT 070V160 9999 FEW025 30/20 Q1011 NOSIG RMK A2985
RPLL,2025-01-28 09:00,RPLL 280900Z 11007KT 060V150 9999 FEW025 28/21 Q1011 NOSIG RMK A2985
RPLL,2025-01-28 10:00,RPLL 281000Z 12006KT 090V150 9999 FEW025 28/21 Q1012 NOSIG RMK A2988
RPLL,2025-01-28 11:00,RPLL 281100Z 12006KT 070V160 9999 FEW025 27/21 Q1013 NOSIG RMK A2991
RPLL,2025-01-28 12:00,RPLL 281200Z 12005KT 080V200 9999 FEW025 26/20 Q1014 NOSIG RMK A2994
RPLL,2025-01-28 13:00,RPLL 281300Z 12005KT 080V160 9999 FEW025 26/20 Q1014 NOSIG RMK A2994
RPLL,2025-01-28 14:00,RPLL 281400Z 12005KT 070V150 9999 FEW025 26/21 Q1015 NOSIG RMK A2997
RPLL,2025-01-28 15:00,RPLL 281500Z 11003KT 060V160 9999 FEW025 25/21 Q1015 NOSIG RMK A2997
RPLL,2025-01-28 16:00,RPLL 281600Z 10003KT 060V140 9999 FEW025 25/21 Q1015 NOSIG RMK A2997
RPLL,2025-01-28 17:00,RPLL 281700Z 08003KT 9999 FEW025 24/21 Q1015 NOSIG RMK A2997
RPLL,2025-01-28 18:00,RPLL 281800Z 08002KT 9999 FEW025 BKN100 24/21 Q1014 NOSIG RMK A2994
RPLL,2025-01-28 19:00,RPLL 281900Z 00000KT 9999 FEW025 BKN100 25/21 Q1014 NOSIG RMK A2994
RPLL,2025-01-28 20:00,RPLL 282000Z 01004KT 9999 SCT025 BKN100 25/21 Q1013 NOSIG RMK A2991
RPLL,2025-01-28 21:00,RPLL 282100Z 03005KT 350V050 9999 SCT025 BKN100 25/21 Q1013 NOSIG RMK A2991
RPLL,2025-01-28 22:00,RPLL 282200Z 35004KT 280V050 9999 SCT025 BKN100 25/20 Q1014 NOSIG RMK A2994
RPLL,2025-01-28 23:00,RPLL 282300Z 02004KT 320V060 9999 SCT025 BKN100 25/20 Q1015 NOSIG RMK A2997
RPLL,2025-01-29 00:00,RPLL 290000Z 02004KT 350V050 9999 SCT025 BKN100 26/20 Q1015 NOSIG RMK A2997
RPLL,2025-01-29 01:00,RPLL 290100Z 07004KT 030V100 9999 SCT025 BKN100 27/21 Q1016 NOSIG RMK A3000
RPLL,2025-01-29 02:00,RPLL 290200Z 05005KT 340V140 9999 FEW025 BKN100 28/21 Q1016 NOSIG RMK A3000
RPLL,2025-01-29 03:00,RPLL 290300Z VRB04KT 9999 FEW025 BKN100 28/20 Q1015 NOSIG RMK A2997
RPLL,2025-01-29 04:00,RPLL 290400Z 12004KT 040V170 9999 SCT025 BKN100 30/21 Q1014 NOSIG RMK A2994
RPLL,2025-01-29 05:00,RPLL 290500Z VRB03KT 9999 SCT025 BKN100 29/21 Q1013 NOSIG RMK A2991
RPLL,2025-01-29 06:00,RPLL 290600Z 03006KT 350V070 9999 SCT025 BKN100 29/21 Q1012 NOSIG RMK A2988
RPLL,2025-01-29 07:00,RPLL 290700Z 13006KT 080V200 9999 BKN025 30/22 Q1011 NOSIG RMK A2985
RPLL,2025-01-29 08:00,RPLL 290800Z 05009KT 010V170 9999 BKN025 30/20 Q1011 NOSIG RMK A2985
RPLL,2025-01-29 09:00,RPLL 290900Z 08012KT 060V120 9999 SCT025 29/19 Q1011 NOSIG RMK A2985
RPLL,2025-01-29 10:00,RPLL 291000Z 08010KT 9999 FEW025 28/19 Q1012 NOSIG RMK A2988
RPLL,2025-01-29 11:00,RPLL 291100Z 07012KT 050V110 9999 FEW025 27/19 Q1013 NOSIG RMK A2991
RPLL,2025-01-29 12:00,RPLL 291200Z 05008KT 350V100 9999 FEW025 27/19 Q1013 NOSIG RMK A2991
RPLL,2025-01-29 13:00,RPLL 291300Z 05003KT 360V090 9999 FEW025 26/19 Q1013 NOSIG RMK A2991
RPLL,2025-01-29 14:00,RPLL 291400Z VRB01KT 9999 FEW025 26/19 Q1013 NOSIG RMK A2991
RPLL,2025-01-29 15:00,RPLL 291500Z VRB03KT 9999 FEW025 SCT100 26/20 Q1013 NOSIG RMK A2991
RPLL,2025-01-29 16:00,RPLL 291600Z 33004KT 260V050 9999 FEW025 BKN100 26/19 Q1013 NOSIG RMK A2991
RPLL,2025-01-29 17:00,RPLL 291700Z 35003KT 240V050 9999 SCT025 BKN100 26/19 Q1012 NOSIG RMK A2988
RPLL,2025-01-29 18:00,RPLL 291800Z 01004KT 320V040 9999 SCT025 BKN100 26/19 Q1012 NOSIG RMK A2988
RPLL,2025-01-29 19:00,RPLL 291900Z 01004KT 9999 FEW025 BKN150 26/19 Q1011 NOSIG RMK A2985
RPLL,2025-01-29 20:00,RPLL 292000Z 36006KT 330V040 9999 FEW025 SCT150 26/19 Q1011 NOSIG RMK A2985
RPLL,2025-01-29 21:00,RPLL 292100Z 04005KT 350V070 9999 FEW025 BKN130 26/19 Q1011 NOSIG RMK A2985
RPLL,2025-01-29 22:00,RPLL 292200Z 01006KT 340V050 9999 FEW025 BKN100 26/19 Q1012 NOSIG RMK A2988
RPLL,2025-01-29 23:00,RPLL 292300Z 01007KT 340V040 9999 FEW025 BKN100 26/19 Q1012 NOSIG RMK A2988
RPLL,2025-01-30 00:00,RPLL 300000Z 01007KT 330V050 9999 FEW025 BKN100 27/20 Q1013 NOSIG RMK A2991
RPLL,2025-01-30 01:00,RPLL 300100Z 36007KT 330V030 9999 FEW025 BKN100 27/20 Q1013 NOSIG RMK A2991
RPLL,2025-01-30 02:00,RPLL 300200Z 05007KT 020V080 9999 FEW025 BKN100 28/20 Q1013 NOSIG RMK A2991
RPLL,2025-01-30 03:00,RPLL 300300Z 09007KT 020V160 9999 SCT025 BKN100 30/20 Q1012 NOSIG RMK A2988
RPLL,2025-01-30 04:00,RPLL 300400Z 06005KT 020V140 9999 SCT025 BKN100 30/21 Q1012 NOSIG RMK A2988
RPLL,2025-01-30 05:00,RPLL 300500Z 04007KT 360V090 9999 FEW025 BKN100 30/21 Q1010 NOSIG RMK A2983
RPLL,2025-01-30 06:00,RPLL 300600Z 02010KT 340V060 9999 FEW025 BKN100 30/20 Q1009 NOSIG RMK A2980
RPLL,2025-01-30 07:00,RPLL 300700Z 04007KT 010V070 9999 FEW025 BKN100 30/20 Q1009 NOSIG RMK A2980
RPLL,2025-01-30 08:00,RPLL 300800Z 06007KT 9999 FEW025 BKN100 29/21 Q1009 NOSIG RMK A2980
RPLL,2025-01-30 08:34,RPLL 300834Z 03008KT 360V060 9999 -SHRA SCT025 BKN100 27/21 Q1009 NOSIG RMK A2980
RPLL,2025-01-30 09:00,RPLL 300900Z 04007KT 360V070 9999 SCT025 BKN100 28/20 Q1009 NOSIG RMK A2980
RPLL,2025-01-30 10:00,RPLL 301000Z 12003KT 050V200 9999 SCT023 OVC100 28/21 Q1010 NOSIG RMK A2983
RPLL,2025-01-30 11:00,RPLL 301100Z 19003KT 120V250 9999 SCT023 OVC100 27/22 Q1011 NOSIG RMK A2985
RPLL,2025-01-30 12:00,RPLL 301200Z VRB02KT 9999 SCT025 OVC100 26/22 Q1011 NOSIG RMK A2985
RPLL,2025-01-30 13:00,RPLL 301300Z 16003KT 110V210 9999 SCT023 OVC100 26/23 Q1012 NOSIG RMK A2988
RPLL,2025-01-30 14:00,RPLL 301400Z 19003KT 150V250 9999 -RA SCT025 OVC100 25/24 Q1012 NOSIG RMK A2988
RPLL,2025-01-30 15:00,RPLL 301500Z VRB02KT 9999 SCT025 OVC100 25/24 Q1011 NOSIG RMK A2985
RPLL,2025-01-30 16:00,RPLL 301600Z VRB02KT 9999 SCT025 BKN100 26/23 Q1011 NOSIG RMK A2985
RPLL,2025-01-30 17:00,RPLL 301700Z VRB05KT 9999 SCT025 BKN100 25/23 Q1010 RMK A2983
RPLL,2025-01-30 18:00,RPLL 301800Z 04005KT 8000 -SHRA SCT022 OVC090 24/23 Q1010 NOSIG RMK A2983
RPLL,2025-01-30 19:00,RPLL 301900Z 01003KT 320V050 9999 FEW025 BKN100 24/23 Q1009 NOSIG RMK A2980
RPLL,2025-01-30 20:00,RPLL 302000Z VRB02KT 9999 FEW025 BKN100 25/23 Q1009 NOSIG RMK A2980
RPLL,2025-01-30 21:00,RPLL 302100Z 36005KT 330V050 9999 FEW025 BKN130 25/24 Q1009 NOSIG RMK A2980
RPLL,2025-01-30 22:00,RPLL 302200Z 01006KT 340V040 7000 FEW025 BKN100 24/23 Q1010 NOSIG RMK A2983
RPLL,2025-01-30 23:00,RPLL 302300Z 36003KT 310V050 7000 FEW025 BKN100 25/23 Q1010 NOSIG RMK A2983
RPLL,2025-01-31 00:00,RPLL 310000Z VRB02KT 7000 FEW025 BKN100 25/24 Q1011 NOSIG RMK A2985
RPLL,2025-01-31 01:00,RPLL 310100Z VRB02KT 7000 -RA SCT025 OVC100 26/24 Q1012 NOSIG RMK A2988
RPLL,2025-01-31 02:00,RPLL 310200Z VRB02KT 7000 FEW025 BKN100 27/24 Q1011 NOSIG RMK A2985
RPLL,2025-01-31 03:00,RPLL 310300Z 29004KT 230V030 9000 SCT023 BKN100 29/24 Q1011 NOSIG RMK A2985
RPLL,2025-01-31 04:00,RPLL 310400Z 11011G21KT 080V160 8000 -RA SCT023 OVC090 25/23 Q1011 NOSIG RMK A2985
RPLL,2025-01-31 05:00,RPLL 310500Z 11007KT 070V210 9999 FEW025 BKN100 29/22 Q1010 NOSIG RMK A2983
RPLL,2025-01-31 06:00,RPLL 310600Z 10006KT 060V150 9999 FEW025 BKN100 30/21 Q1009 NOSIG RMK A2980
RPLL,2025-01-31 07:00,RPLL 310700Z 10006KT 050V150 9999 FEW025 BKN100 30/22 Q1008 NOSIG RMK A2977
RPLL,2025-01-31 08:00,RPLL 310800Z 10008KT 070V140 9999 SCT025 BKN100 30/22 Q1008 NOSIG RMK A2977
RPLL,2025-01-31 09:00,RPLL 310900Z 10009KT 070V140 9999 SCT025 BKN100 29/22 Q1009 NOSIG RMK A2980
RPLL,2025-01-31 10:00,RPLL 311000Z 12007KT 080V160 9999 FEW025 BKN100 28/23 Q1009 NOSIG RMK A2980
RPLL,2025-01-31 11:00,RPLL 311100Z 11007KT 060V140 9999 FEW025 BKN100 28/22 Q1009 NOSIG RMK A2980
RPLL,2025-01-31 12:00,RPLL 311200Z 12005KT 060V170 9999 SCT025 BKN100 28/23 Q1010 NOSIG RMK A2983
RPLL,2025-01-31 13:00,RPLL 311300Z 11007KT 070V130 9999 SCT025 BKN100 28/23 Q1011 NOSIG RMK A2985
RPLL,2025-01-31 14:00,RPLL 311400Z 10005KT 060V140 9999 SCT025 BKN100 27/23 Q1011 NOSIG RMK A2985
RPLL,2025-01-31 15:00,RPLL 311500Z 11003KT 070V150 9999 SCT025 BKN100 27/23 Q1011 NOSIG RMK A2985
RPLL,2025-01-31 16:00,RPLL 311600Z 11003KT 070V160 9999 FEW025 BKN100 27/23 Q1010 NOSIG RMK A2983
RPLL,2025-01-31 17:00,RPLL 311700Z VRB02KT 9999 FEW025 BKN090 27/23 Q1010 NOSIG RMK A2983
RPLL,2025-01-31 18:00,RPLL 311800Z 14003KT 110V180 9999 FEW025 BKN090 27/23 Q1009 NOSIG RMK A2980
RPLL,2025-01-31 19:00,RPLL 311900Z 11004KT 080V150 9999 FEW025 BKN100 27/23 Q1009 NOSIG RMK A2980
RPLL,2025-01-31 20:00,RPLL 312000Z 07006KT 9999 FEW025 BKN100 26/23 Q1009 NOSIG RMK A2980
RPLL,2025-01-31 21:00,RPLL 312100Z VRB02KT 9999 FEW025 SCT150 26/21 Q1009 NOSIG RMK A2980
RPLL,2025-01-31 22:00,RPLL 312200Z 10003KT 9999 FEW025 26/22 Q1009 NOSIG RMK A2980
RPLL,2025-01-31 23:00,RPLL 312300Z 00000KT 9999 FEW025 SCT100 25/22 Q1010 NOSIG RMK A2983
RPLL,2025-02-01 00:00,RPLL 010000Z VRB02KT 9999 FEW025 SCT100 28/21 Q1011 NOSIG RMK A2985
RPLL,2025-02-01 01:00,RPLL 010100Z 09005KT 050V150 9999 FEW025 SCT100 30/22 Q1011 NOSIG RMK A2985
RPLL,2025-02-01 02:00,RPLL 010200Z 13008KT 080V180 9999 FEW025 30/22 Q1011 NOSIG RMK A2985
RPLL,2025-02-01 03:00,RPLL 010300Z 13006KT 060V210 9999 FEW025 32/23 Q1010 NOSIG RMK A2983
RPLL,2025-02-01 04:00,RPLL 010400Z 12008KT 060V170 9999 FEW025 32/22 Q1010 NOSIG RMK A2983
RPLL,2025-02-01 05:00,RPLL 010500Z 12008KT 070V220 9999 FEW025 32/21 Q1008 NOSIG RMK A2977
RPLL,2025-02-01 06:00,RPLL 010600Z 11009KT 070V140 9999 FEW025 32/22 Q1008 NOSIG RMK A2977
RPLL,2025-02-01 07:00,RPLL 010700Z 09008KT 060V140 9999 FEW025 33/22 Q1007 NOSIG RMK A2974
RPLL,2025-02-01 08:00,RPLL 010800Z 11006KT 060V180 9999 FEW025 32/22 Q1007 NOSIG RMK A2974
RPLL,2025-02-01 09:00,RPLL 010900Z 11007KT 060V150 9999 FEW025 32/21 Q1007 NOSIG RMK A2974
RPLL,2025-02-01 10:00,RPLL 011000Z 11008KT 080V150 9999 FEW025 30/22 Q1008 NOSIG RMK A2977
RPLL,2025-02-01 11:00,RPLL 011100Z 11006KT 080V160 9999 FEW025 29/22 Q1009 NOSIG RMK A2980
RPLL,2025-02-01 12:00,RPLL 011200Z 12005KT 080V150 9999 FEW025 29/22 Q1010 NOSIG RMK A2983
RPLL,2025-02-01 13:00,RPLL 011300Z 15004KT 110V200 9999 FEW025 28/23 Q1010 NOSIG RMK A2983
RPLL,2025-02-01 14:00,RPLL 011400Z 14004KT 070V210 9999 FEW025 27/23 Q1010 NOSIG RMK A2983
RPLL,2025-02-01 15:00,RPLL 011500Z 14003KT 050V210 9999 FEW025 27/24 Q1010 NOSIG RMK A2983
RPLL,2025-02-01 16:00,RPLL 011600Z 14003KT 100V230 9999 FEW025 26/24 Q1010 NOSIG RMK A2983
RPLL,2025-02-01 17:00,RPLL 011700Z VRB02KT 9999 FEW025 SCT100 26/24 Q1010 NOSIG RMK A2983
RPLL,2025-02-01 18:00,RPLL 011800Z 15004KT 080V220 9999 FEW025 26/24 Q1009 NOSIG RMK A2980
RPLL,2025-02-01 19:00,RPLL 011900Z 15003KT 110V200 9999 FEW025 26/23 Q1009 NOSIG RMK A2980
RPLL,2025-02-01 20:00,RPLL 012000Z VRB02KT 9999 FEW025 25/24 Q1009 NOSIG RMK A2980
RPLL,2025-02-01 21:00,RPLL 012100Z VRB02KT 9999 FEW025 25/23 Q1009 NOSIG RMK A2980
RPLL,2025-02-01 22:00,RPLL 012200Z VRB01KT 9999 FEW025 25/22 Q1009 NOSIG RMK A2980
RPLL,2025-02-01 23:00,RPLL 012300Z 03003KT 010V070 9999 FEW025 25/22 Q1010 NOSIG RMK A2983
RPLL,2025-02-02 00:00,RPLL 020000Z VRB02KT 9999 FEW025 27/22 Q1010 NOSIG RMK A2983
RPLL,2025-02-02 01:00,RPLL 020100Z VRB02KT 9999 FEW025 29/22 Q1011 NOSIG RMK A2985
RPLL,2025-02-02 02:00,RPLL 020200Z VRB02KT 9999 FEW025 30/22 Q1011 NOSIG RMK A2985
RPLL,2025-02-02 03:00,RPLL 020300Z 31003KT 260V070 9999 FEW025 31/24 Q1010 NOSIG RMK A2983
RPLL,2025-02-02 04:00,RPLL 020400Z 13006KT 080V200 9999 FEW025 32/22 Q1009 NOSIG RMK A2980
RPLL,2025-02-02 05:00,RPLL 020500Z 13006KT 080V190 9999 FEW025 33/23 Q1009 NOSIG RMK A2980
RPLL,2025-02-02 06:00,RPLL 020600Z 13008KT 090V180 9999 FEW025 33/23 Q1008 NOSIG RMK A2977
RPLL,2025-02-02 07:00,RPLL 020700Z VRB07KT 9999 FEW025 32/23 Q1007 NOSIG RMK A2974
RPLL,2025-02-02 08:00,RPLL 020800Z 13005KT 080V210 9999 FEW025 33/23 Q1007 NOSIG RMK A2974
RPLL,2025-02-02 09:00,RPLL 020900Z 12007KT 080V150 9999 FEW025 32/23 Q1008 NOSIG RMK A2977
RPLL,2025-02-02 10:00,RPLL 021000Z 14005KT 100V180 9999 FEW025 31/23 Q1008 NOSIG RMK A2977
RPLL,2025-02-02 11:00,RPLL 021100Z 12005KT 080V160 9999 FEW025 SCT100 30/24 Q1008 NOSIG RMK A2977
RPLL,2025-02-02 12:00,RPLL 021200Z 14005KT 070V190 9999 FEW025 29/23 Q1009 NOSIG RMK A2980
RPLL,2025-02-02 13:00,RPLL 021300Z 14004KT 110V200 9999 FEW025 29/24 Q1010 NOSIG RMK A2983
RPLL,2025-02-02 14:00,RPLL 021400Z 16004KT 100V230 9999 FEW025 28/24 Q1010 NOSIG RMK A2983
RPLL,2025-02-02 15:00,RPLL 021500Z 15003KT 110V210 9999 FEW025 28/24 Q1011 NOSIG RMK A2985
RPLL,2025-02-02 16:00,RPLL 021600Z VRB02KT 9999 FEW025 27/25 Q1010 NOSIG RMK A2983
RPLL,2025-02-02 17:00,RPLL 021700Z 12003KT 080V170 9999 FEW025 27/24 Q1010 NOSIG RMK A2983
RPLL,2025-02-02 18:00,RPLL 021800Z VRB02KT 9999 FEW025 SCT100 27/25 Q1010 NOSIG RMK A2983
RPLL,2025-02-02 19:00,RPLL 021900Z 14004KT 100V190 9999 FEW025 26/25 Q1010 NOSIG RMK A2983
RPLL,2025-02-02 20:00,RPLL 022000Z VRB02KT 9999 FEW025 26/25 Q1010 NOSIG RMK A2983
RPLL,2025-02-02 21:00,RPLL 022100Z VRB02KT 9999 SCT025 26/24 Q1010 NOSIG RMK A2983
RPLL,2025-02-02 22:00,RPLL 022200Z VRB01KT 9999 FEW025 26/24 Q1010 NOSIG RMK A2983
RPLL,2025-02-02 23:00,RPLL 022300Z VRB01KT 9999 FEW025 26/24 Q1011 NOSIG RMK A2985
RPLL,2025-02-03 00:00,RPLL 030000Z VRB02KT 9999 FEW025 29/24 Q1011 NOSIG RMK A2985
RPLL,2025-02-03 01:00,RPLL 030100Z VRB03KT 9999 SCT025 28/24 Q1012 NOSIG RMK A2988
RPLL,2025-02-03 02:00,RPLL 030200Z 30005KT 260V340 9999 SCT025 28/23 Q1012 NOSIG RMK A2988
RPLL,2025-02-03 03:00,RPLL 030300Z 25004KT 200V270 9000 SCT025 SCT100 29/24 Q1011 NOSIG RMK A2985
RPLL,2025-02-03 04:00,RPLL 030400Z 27005KT 240V310 9000 SCT025 29/24 Q1010 NOSIG RMK A2983
RPLL,2025-02-03 05:00,RPLL 030500Z 28007KT 260V340 9999 SCT025 BKN100 29/23 Q1009 NOSIG RMK A2980
RPLL,2025-02-03 06:00,RPLL 030600Z VRB03KT 9999 SCT025 BKN100 30/23 Q1009 NOSIG RMK A2980
RPLL,2025-02-03 07:00,RPLL 030700Z 13005KT 050V180 9999 SCT025 BKN100 31/23 Q1008 NOSIG RMK A2977
RPLL,2025-02-03 08:00,RPLL 030800Z 14005KT 090V200 9999 FEW025 SCT100 32/23 Q1008 NOSIG RMK A2977
RPLL,2025-02-03 09:00,RPLL 030900Z 14007KT 070V180 9999 FEW025 31/23 Q1008 NOSIG RMK A2977
RPLL,2025-02-03 10:00,RPLL 031000Z 14007KT 110V180 9999 FEW025 29/23 Q1009 NOSIG RMK A2980
RPLL,2025-02-03 11:00,RPLL 031100Z 14007KT 110V180 9999 FEW025 29/23 Q1009 NOSIG RMK A2980
RPLL,2025-02-03 12:00,RPLL 031200Z 12006KT 080V160 9999 FEW025 28/22 Q1010 NOSIG RMK A2983
RPLL,2025-02-03 13:00,RPLL 031300Z 12006KT 070V170 9999 FEW025 28/23 Q1011 NOSIG RMK A2985
RPLL,2025-02-03 14:00,RPLL 031400Z 13005KT 090V170 9999 FEW025 28/23 Q1011 NOSIG RMK A2985
RPLL,2025-02-03 15:00,RPLL 031500Z 13005KT 070V170 9999 FEW025 27/23 Q1011 NOSIG RMK A2985
RPLL,2025-02-03 16:00,RPLL 031600Z 12005KT 080V150 9999 FEW025 27/23 Q1011 NOSIG RMK A2985
RPLL,2025-02-03 17:00,RPLL 031700Z 10005KT 070V130 9999 FEW025 BKN100 27/23 Q1011 NOSIG RMK A2985
RPLL,2025-02-03 18:00,RPLL 031800Z 11003KT 070V170 9999 SCT025 27/23 Q1010 NOSIG RMK A2983
RPLL,2025-02-03 19:00,RPLL 031900Z 12003KT 080V150 9999 FEW025 26/23 Q1010 NOSIG RMK A2983
RPLL,2025-02-03 20:00,RPLL 032000Z 00000KT 9999 SCT025 26/23 Q1010 NOSIG RMK A2983
RPLL,2025-02-03 21:00,RPLL 032100Z 01006KT 330V030 9999 SCT025 BKN100 27/24 Q1010 NOSIG RMK A2983
RPLL,2025-02-03 22:00,RPLL 032200Z 07005KT 030V110 9999 SCT025 BKN100 26/24 Q1011 NOSIG RMK A2985
RPLL,2025-02-03 23:00,RPLL 032300Z 10003KT 080V160 9999 SCT025 BKN100 26/23 Q1011 NOSIG RMK A2985
RPLL,2025-02-04 00:00,RPLL 040000Z 08005KT 9999 -SHRA SCT025 BKN100 25/23 Q1012 NOSIG RMK A2988
RPLL,2025-02-04 01:00,RPLL 040100Z VRB02KT 9999 FEW025 SCT100 27/23 Q1012 NOSIG RMK A2988
RPLL,2025-02-04 02:00,RPLL 040200Z 11003KT 070V140 9999 FEW025 SCT100 29/23 Q1012 NOSIG RMK A2988
RPLL,2025-02-04 03:00,RPLL 040300Z VRB03KT 9999 SCT025 BKN100 28/23 Q1011 NOSIG RMK A2985
RPLL,2025-02-04 04:00,RPLL 040400Z 12005KT 060V210 9999 SCT025 BKN100 30/23 Q1010 NOSIG RMK A2983
RPLL,2025-02-04 05:00,RPLL 040500Z 08005KT 050V120 9999 SCT025 BKN100 30/23 Q1010 NOSIG RMK A2983
RPLL,2025-02-04 06:00,RPLL 040600Z 10005KT 050V150 8000 SHRA SCT022 OVC100 27/24 Q1009 NOSIG RMK A2980
RPLL,2025-02-04 07:00,COR RPLL 040700Z 07005KT 020V120 9999 SCT023 BKN090 27/24 Q1009 RESHRA NOSIG RMK A2980
RPLL,2025-02-04 08:00,RPLL 040800Z 14003KT 110V180 9999 SCT023 BKN090 28/23 Q1009 NOSIG RMK A2980
RPLL,2025-02-04 09:00,RPLL 040900Z 14006KT 080V190 9999 -RA SCT023 BKN090 28/23 Q1010 NOSIG RMK A2983
RPLL,2025-02-04 10:00,RPLL 041000Z 13005KT 080V170 9999 SCT023 BKN100 27/23 Q1010 NOSIG RMK A2983
RPLL,2025-02-04 11:00,RPLL 041100Z 12005KT 080V160 9999 SCT023 BKN100 27/22 Q1010 NOSIG RMK A2983
RPLL,2025-02-04 12:00,RPLL 041200Z 12006KT 080V160 9999 SCT023 BKN100 26/22 Q1011 NOSIG RMK A2985
RPLL,2025-02-04 13:00,RPLL 041300Z 12005KT 070V170 9999 FEW025 SCT100 26/22 Q1012 NOSIG RMK A2988
RPLL,2025-02-04 14:00,RPLL 041400Z 12005KT 080V160 9999 FEW025 SCT100 26/22 Q1012 NOSIG RMK A2988
RPLL,2025-02-04 15:00,RPLL 041500Z 11003KT 060V170 9999 FEW025 BKN100 26/22 Q1012 NOSIG RMK A2988
RPLL,2025-02-04 16:00,RPLL 041600Z 10003KT 060V120 9999 FEW025 BKN100 26/22 Q1011 NOSIG RMK A2985
RPLL,2025-02-04 17:00,RPLL 041700Z VRB02KT 9999 SCT025 BKN100 26/22 Q1011 NOSIG RMK A2985
RPLL,2025-02-04 18:00,RPLL 041800Z 00000KT 9999 SCT025 BKN100 25/22 Q1010 NOSIG RMK A2983
RPLL,2025-02-04 19:00,RPLL 041900Z 25002KT 9999 SCT025 BKN100 26/22 Q1010 NOSIG RMK A2983
RPLL,2025-02-04 20:00,RPLL 042000Z 25003KT 9999 FEW025 BKN100 26/21 Q1010 NOSIG RMK A2983
RPLL,2025-02-04 21:00,RPLL 042100Z VRB02KT 9999 FEW025 BKN100 25/22 Q1010 NOSIG RMK A2983
RPLL,2025-02-04 22:00,RPLL 042200Z VRB02KT 9999 FEW025 BKN090 25/22 Q1011 NOSIG RMK A2985
RPLL,2025-02-04 23:00,RPLL 042300Z VRB02KT 9999 FEW025 BKN100 26/22 Q1011 NOSIG RMK A2985
RPLL,2025-02-05 00:00,RPLL 050000Z VRB02KT 9999 FEW025 BKN100 27/22 Q1012 NOSIG RMK A2988
RPLL,2025-02-05 01:00,RPLL 050100Z 26004KT 230V320 9999 FEW025 BKN100 27/22 Q1012 NOSIG RMK A2988
RPLL,2025-02-05 02:00,RPLL 050200Z VRB04KT 9999 SCT025 BKN100 29/21 Q1012 NOSIG RMK A2988
RPLL,2025-02-05 03:00,RPLL 050300Z VRB03KT 9999 SCT025 BKN100 30/23 Q1012 NOSIG RMK A2988
RPLL,2025-02-05 04:00,RPLL 050400Z VRB04KT 9999 FEW025 BKN100 32/21 Q1011 NOSIG RMK A2985
RPLL,2025-02-05 05:00,RPLL 050500Z VRB05KT 9999 FEW025 BKN100 30/21 Q1010 NOSIG RMK A2983
RPLL,2025-02-05 06:00,RPLL 050600Z 09013KT 050V140 9999 FEW025 SCT100 32/20 Q1008 NOSIG RMK A2977
RPLL,2025-02-05 07:00,RPLL 050700Z 09009KT 050V130 9999 FEW025 32/21 Q1008 NOSIG RMK A2977
RPLL,2025-02-05 08:00,RPLL 050800Z 09012KT 060V120 9999 FEW025 31/20 Q1008 NOSIG RMK A2977
RPLL,2025-02-05 09:00,RPLL 050900Z 08011KT 9999 FEW025 SCT100 30/20 Q1008 NOSIG RMK A2977
RPLL,2025-02-05 10:00,RPLL 051000Z 12006KT 070V150 9999 FEW025 28/22 Q1009 NOSIG RMK A2980
RPLL,2025-02-05 11:00,RPLL 051100Z 12006KT 090V150 9999 FEW025 27/22 Q1010 NOSIG RMK A2983
RPLL,2025-02-05 12:00,RPLL 051200Z 13004KT 080V200 9999 FEW025 BKN100 27/21 Q1011 NOSIG RMK A2985
RPLL,2025-02-05 13:00,RPLL 051300Z VRB02KT 9999 FEW025 BKN100 27/21 Q1012 NOSIG RMK A2988
RPLL,2025-02-05 14:00,RPLL 051400Z VRB02KT 9999 FEW025 SCT100 27/21 Q1012 NOSIG RMK A2988
RPLL,2025-02-05 15:00,RPLL 051500Z VRB02KT 9999 FEW025 SCT100 26/20 Q1012 NOSIG RMK A2988
RPLL,2025-02-05 16:00,RPLL 051600Z 33003KT 270V030 9999 FEW025 SCT100 26/20 Q1012 NOSIG RMK A2988
RPLL,2025-02-05 17:00,RPLL 051700Z 34003KT 310V070 9999 FEW025 26/20 Q1011 NOSIG RMK A2985
RPLL,2025-02-05 18:00,RPLL 051800Z VRB02KT 9999 FEW025 SCT100 25/20 Q1011 NOSIG RMK A2985
RPLL,2025-02-05 19:00,RPLL 051900Z 33003KT 300V040 9999 FEW025 25/20 Q1010 NOSIG RMK A2983
RPLL,2025-02-05 20:00,RPLL 052000Z 01004KT 340V050 9999 FEW025 BKN100 26/20 Q1010 NOSIG RMK A2983
RPLL,2025-02-05 21:00,RPLL 052100Z VRB02KT 9999 FEW025 SCT100 25/20 Q1011 NOSIG RMK A2985
RPLL,2025-02-05 22:00,RPLL 052200Z 03003KT 310V110 9999 FEW025 25/20 Q1011 NOSIG RMK A2985
RPLL,2025-02-05 23:00,RPLL 052300Z 02006KT 330V060 9999 FEW025 26/20 Q1012 NOSIG RMK A2988
RPLL,2025-02-06 00:00,RPLL 060000Z 03006KT 9999 FEW025 27/21 Q1012 NOSIG RMK A2988
RPLL,2025-02-06 01:00,RPLL 060100Z 05006KT 320V080 9999 FEW025 BKN100 28/21 Q1012 NOSIG RMK A2988
RPLL,2025-02-06 02:00,RPLL 060200Z VRB04KT 9999 FEW025 BKN100 29/21 Q1012 NOSIG RMK A2988
RPLL,2025-02-06 03:00,RPLL 060300Z VRB04KT 9999 SCT025 BKN100 30/22 Q1011 NOSIG RMK A2985
RPLL,2025-02-06 04:00,RPLL 060400Z 08004KT 040V130 9999 SCT025 BKN100 30/22 Q1010 NOSIG RMK A2983
RPLL,2025-02-06 05:00,RPLL 060500Z 01005KT 330V070 9999 SCT025 BKN100 30/22 Q1009 NOSIG RMK A2980
RPLL,2025-02-06 06:00,RPLL 060600Z 06005KT 030V090 9999 SCT025 BKN100 30/22 Q1008 NOSIG RMK A2977
RPLL,2025-02-06 07:00,RPLL 060700Z 35005KT 320V080 9999 SCT025 BKN100 30/22 Q1008 NOSIG RMK A2977
RPLL,2025-02-06 08:00,RPLL 060800Z VRB03KT 9999 SCT025 BKN100 30/22 Q1008 NOSIG RMK A2977
RPLL,2025-02-06 09:00,RPLL 060900Z 11007KT 080V150 9999 SCT023 BKN090 29/23 Q1009 NOSIG RMK A2980
RPLL,2025-02-06 10:00,RPLL 061000Z 11006KT 050V150 9999 SCT023 BKN100 28/23 Q1010 NOSIG RMK A2983
RPLL,2025-02-06 11:00,RPLL 061100Z 11007KT 080V150 9999 SCT025 BKN100 28/23 Q1010 NOSIG RMK A2983
RPLL,2025-02-06 12:00,RPLL 061200Z 10007KT 070V140 9999 SCT025 BKN100 27/23 Q1011 NOSIG RMK A2985
RPLL,2025-02-06 13:00,RPLL 061300Z 09004KT 060V130 9999 SCT025 BKN100 27/23 Q1011 NOSIG RMK A2985
RPLL,2025-02-06 14:00,RPLL 061400Z 11007KT 080V160 9999 SCT025 BKN100 27/23 Q1011 NOSIG RMK A2985
RPLL,2025-02-06 15:00,RPLL 061500Z 14003KT 100V190 9999 SCT025 BKN100 27/23 Q1011 NOSIG RMK A2985
RPLL,2025-02-06 16:00,RPLL 061600Z VRB02KT 9999 SCT025 BKN100 26/24 Q1011 NOSIG RMK A2985
RPLL,2025-02-06 17:00,RPLL 061700Z 12003KT 080V170 9000 -SHRA SCT025 OVC090 26/24 Q1011 NOSIG RMK A2985
RPLL,2025-02-06 18:00,RPLL 061800Z VRB02KT 9999 SCT025 BKN100 26/24 Q1010 NOSIG RMK A2983
RPLL,2025-02-06 19:00,RPLL 061900Z 00000KT 9999 FEW025 BKN100 26/24 Q1009 NOSIG RMK A2980
RPLL,2025-02-06 20:00,RPLL 062000Z 25003KT 200V290 9999 FEW025 BKN130 26/24 Q1009 NOSIG RMK A2980
RPLL,2025-02-06 21:00,RPLL 062100Z 36004KT 340V050 9999 FEW025 BKN130 26/23 Q1009 NOSIG RMK A2980
RPLL,2025-02-06 22:00,RPLL 062200Z 02003KT 350V090 9999 FEW025 BKN100 26/23 Q1010 NOSIG RMK A2983
RPLL,2025-02-06 23:00,RPLL 062300Z 04003KT 350V090 9999 SCT025 OVC100 26/20 Q1010 NOSIG RMK A2983
RPLL,2025-02-07 00:00,RPLL 070000Z 01005KT 350V050 9000 SCT025 OVC100 27/23 Q1011 NOSIG RMK A2985
RPLL,2025-02-07 01:00,RPLL 070100Z 06004KT 9000 SCT025 OVC100 28/24 Q1011 NOSIG RMK A2985
RPLL,2025-02-07 02:00,RPLL 070200Z VRB02KT 9999 SCT025 BKN150 29/24 Q1011 NOSIG RMK A2985
RPLL,2025-02-07 03:00,RPLL 070300Z 11003KT 050V160 9000 SCT025 OVC100 29/24 Q1011 NOSIG RMK A2985
RPLL,2025-02-07 04:00,RPLL 070400Z 12005KT 090V160 9000 SCT025 OVC100 29/24 Q1011 NOSIG RMK A2985
RPLL,2025-02-07 05:00,RPLL 070500Z 09005KT 060V130 9000 SCT025 OVC100 29/24 Q1010 NOSIG RMK A2983
RPLL,2025-02-07 06:00,RPLL 070600Z 12008KT 080V160 9000 SCT025 OVC100 29/23 Q1009 NOSIG RMK A2980
RPLL,2025-02-07 07:00,RPLL 070700Z VRB07KT 9999 SCT025 OVC100 29/24 Q1008 NOSIG RMK A2977
RPLL,2025-02-07 08:00,RPLL 070800Z 12006KT 070V200 9999 SCT025 OVC100 28/24 Q1008 NOSIG RMK A2977
RPLL,2025-02-07 09:00,RPLL 070900Z 11005KT 070V160 9999 SCT025 OVC100 28/24 Q1009 NOSIG RMK A2980
RPLL,2025-02-07 10:00,RPLL 071000Z 09005KT 060V130 9999 FEW025 BKN100 28/24 Q1009 NOSIG RMK A2980
RPLL,2025-02-07 11:00,RPLL 071100Z 08005KT 050V110 9000 -SHRA SCT023 OVC100 28/22 Q1010 NOSIG RMK A2983
RPLL,2025-02-07 12:00,RPLL 071200Z 12004KT 080V160 9000 -RA SCT023 OVC100 27/23 Q1011 NOSIG RMK A2985
RPLL,2025-02-07 13:00,RPLL 071300Z VRB02KT 9999 SCT025 OVC100 27/24 Q1011 NOSIG RMK A2985
RPLL,2025-02-07 14:00,RPLL 071400Z VRB02KT 9999 FEW025 OVC100 27/23 Q1011 NOSIG RMK A2985
RPLL,2025-02-07 15:00,RPLL 071500Z VRB02KT 9999 FEW025 BKN100 27/23 Q1011 NOSIG RMK A2985
RPLL,2025-02-07 16:00,RPLL 071600Z 33004KT 290V040 9999 SCT025 OVC100 26/24 Q1011 NOSIG RMK A2985
RPLL,2025-02-07 17:00,RPLL 071700Z 31003KT 270V350 8000 -RA SCT023 OVC090 26/24 Q1011 NOSIG RMK A2985
RPLL,2025-02-07 18:00,RPLL 071800Z 30004KT 250V360 9999 SCT025 OVC090 26/24 Q1010 NOSIG RMK A2983
RPLL,2025-02-07 19:00,RPLL 071900Z 31003KT 260V360 9999 -RA SCT025 OVC090 26/24 Q1009 NOSIG RMK A2980
RPLL,2025-02-07 20:00,RPLL 072000Z 31004KT 280V360 9999 SCT025 OVC100 26/24 Q1009 NOSIG RMK A2980
RPLL,2025-02-07 21:00,RPLL 072100Z 02004KT 7000 -RA SCT023 OVC090 25/24 Q1009 NOSIG RMK A2980
RPLL,2025-02-07 22:00,RPLL 072200Z 01004KT 320V060 9999 FEW025 BKN100 25/24 Q1009 NOSIG RMK A2980
RPLL,2025-02-07 23:00,RPLL 072300Z 02004KT 360V070 9999 FEW025 BKN100 25/24 Q1010 NOSIG RMK A2983
RPLL,2025-02-08 00:00,RPLL 080000Z VRB02KT 9999 FEW025 BKN100 26/25 Q1010 NOSIG RMK A2983
RPLL,2025-02-08 01:00,RPLL 080100Z 02004KT 310V070 FEW025 BKN100 27/24 Q1011 NOSIG RMK A2985
RPLL,2025-02-08 02:00,RPLL 080200Z 05003KT 360V100 9999 SCT025 BKN100 28/24 Q1011 NOSIG RMK A2985
RPLL,2025-02-08 03:00,RPLL 080300Z 10003KT 060V170 9999 SCT025 BKN100 29/24 Q1011 NOSIG RMK A2985 METAR RPVM 080300Z 11012KT 9999 SCT020 SCT100 30/23 Q1010 NOSIG RMK A2983
RPLL,2025-02-08 04:00,RPLL 080400Z 03004KT 330V080 9999 -RA SCT023 OVC090 29/23 Q1010 NOSIG RMK A2983
RPLL,2025-02-08 05:00,RPLL 080500Z VRB03KT 9999 SCT025 BKN100 30/23 Q1009 NOSIG RMK A2980
RPLL,2025-02-08 06:00,RPLL 080600Z 07011G21KT 9999 SCT025 BKN100 30/22 Q1008 NOSIG RMK A2977
RPLL,2025-02-08 07:00,RPLL 080700Z 06007KT 030V090 9999 SCT023 BKN100 30/22 Q1008 NOSIG RMK A2977
RPLL,2025-02-08 08:00,RPLL 080800Z 06010KT 360V130 9999 -SHRA SCT023 BKN100 28/22 Q1008 NOSIG RMK A2977
RPLL,2025-02-08 09:00,RPLL 080900Z 10006KT 060V150 9999 SCT023 BKN100 28/22 Q1009 NOSIG RMK A2980
RPLL,2025-02-08 10:00,RPLL 081000Z 06010KT 040V100 9999 SCT025 BKN100 28/21 Q1009 NOSIG RMK A2980
RPLL,2025-02-08 11:00,RPLL 081100Z 12004KT 060V150 9999 SCT023 OVC100 27/22 Q1010 NOSIG RMK A2983
RPLL,2025-02-08 12:00,RPLL 081200Z 11005KT 060V150 9999 SCT023 OVC100 27/22 Q1011 NOSIG RMK A2985
RPLL,2025-02-08 13:00,RPLL 081300Z 13003KT 090V170 9999 SCT023 BKN100 27/22 Q1012 NOSIG RMK A2988
RPLL,2025-02-08 14:00,RPLL 081400Z 12005KT 060V180 9999 -SHRA SCT023 OVC100 26/22 Q1012 TEMPO 5000 SHRA RMK A2988
RPLL,2025-02-08 15:00,RPLL 081500Z 12008KT 080V160 9999 -RA SCT023 OVC100 25/23 Q1012 TEMPO 5000 SHRA RMK A2988
RPLL,2025-02-08 16:00,RPLL 081600Z 11007KT 070V150 9999 -RA SCT023 OVC090 24/22 Q1012 TEMPO 5000 SHRA RMK A2988
RPLL,2025-02-08 17:00,RPLL 081700Z 03003KT 350V080 9999 -RA SCT022 OVC090 24/23 Q1012 NOSIG RMK A2988
RPLL,2025-02-08 18:00,RPLL 081800Z VRB02KT 9999 -RA SCT023 OVC090 24/23 Q1012 NOSIG RMK A2988
RPLL,2025-02-08 19:00,RPLL 081900Z VRB01KT 9999 FEW025 BKN100 24/23 Q1011 NOSIG RMK A2985
RPLL,2025-02-08 20:00,RPLL 082000Z VRB02KT 9999 FEW025 BKN100 24/23 Q1010 NOSIG RMK A2983
RPLL,2025-02-08 21:00,RPLL 082100Z VRB02KT 9999 FEW025 BKN100 24/23 Q1011 NOSIG RMK A2985
RPLL,2025-02-08 22:00,RPLL 082200Z 34004KT 290V040 9999 FEW025 BKN100 25/22 Q1011 NOSIG RMK A2985
RPLL,2025-02-08 23:00,RPLL 082300Z 06003KT 360V160 9999 FEW025 BKN100 25/21 Q1012 NOSIG RMK A2988
RPLL,2025-02-09 00:00,RPLL 090000Z 09003KT 060V120 9999 FEW025 BKN100 25/22 Q1013 NOSIG RMK A2991
RPLL,2025-02-09 01:00,COR RPLL 090100Z 08003KT 030V170 9999 FEW025 BKN100 27/21 Q1013 NOSIG RMK A2991
RPLL,2025-02-09 02:00,RPLL 090200Z VRB02KT 9999 FEW025 BKN100 28/22 Q1013 NOSIG RMK A2991
RPLL,2025-02-09 03:00,RPLL 090300Z 30009KT 240V360 9999 FEW025 BKN100 27/22 Q1012 NOSIG RMK A2988
RPLL,2025-02-09 04:00,RPLL 090400Z 03005KT 340V070 9999 FEW025 BKN100 29/22 Q1012 NOSIG RMK A2988
RPLL,2025-02-09 05:00,RPLL 090500Z 03006KT 350V080 9999 SCT025 BKN100 29/21 Q1011 NOSIG RMK A2985
RPLL,2025-02-09 06:00,RPLL 090600Z 07013KT 050V110 9999 SCT025 BKN100 30/21 Q1010 NOSIG RMK A2983
RPLL,2025-02-09 07:00,RPLL 090700Z 09008KT 050V130 9999 SCT025 BKN100 30/21 Q1009 NOSIG RMK A2980
RPLL,2025-02-09 08:00,RPLL 090800Z 10009KT 050V140 9999 SCT025 BKN100 29/22 Q1009 NOSIG RMK A2980
RPLL,2025-02-09 09:00,RPLL 090900Z 11007KT 060V170 9999 SCT025 BKN100 29/22 Q1010 NOSIG RMK A2983
RPLL,2025-02-09 10:00,RPLL 091000Z 11007KT 070V160 9999 SCT025 BKN100 27/22 Q1010 NOSIG RMK A2983
RPLL,2025-02-09 11:00,RPLL 091100Z 11006KT 090V150 9999 SCT025 BKN100 26/22 Q1011 NOSIG RMK A2985
RPLL,2025-02-09 12:00,COR RPLL 091200Z 11007KT 080V160 9999 SCT025 BKN100 26/22 Q1012 NOSIG RMK A2988
RPLL,2025-02-09 13:00,RPLL 091300Z VRB02KT 9999 SCT025 26/21 Q1012 NOSIG RMK A2988
RPLL,2025-02-09 14:00,RPLL 091400Z 12003KT 020V160 9999 FEW025 SCT100 26/21 Q1013 NOSIG RMK A2991
RPLL,2025-02-09 15:00,RPLL 091500Z 07004KT 050V120 9999 FEW025 SCT100 25/22 Q1013 NOSIG RMK A2991
RPLL,2025-02-09 16:00,RPLL 091600Z 09003KT 060V130 9999 FEW025 BKN100 26/21 Q1013 NOSIG RMK A2991
RPLL,2025-02-09 17:00,RPLL 091700Z 04005KT 360V070 9999 SCT025 BKN100 26/21 Q1012 NOSIG RMK A2988
RPLL,2025-02-09 18:00,RPLL 091800Z VRB01KT 9999 FEW025 BKN100 26/22 Q1012 NOSIG RMK A2988
RPLL,2025-02-09 19:00,RPLL 091900Z 23003KT 200V260 9999 FEW025 BKN100 26/21 Q1011 NOSIG RMK A2985
RPLL,2025-02-09 20:00,RPLL 092000Z 26003KT 9999 SCT025 OVC100 25/22 Q1011 NOSIG RMK A2985
RPLL,2025-02-09 21:00,RPLL 092100Z VRB01KT 9999 SCT025 OVC100 25/22 Q1011 NOSIG RMK A2985
RPLL,2025-02-09 22:00,RPLL 092200Z VRB01KT 9999 FEW025 OVC100 26/22 Q1012 NOSIG RMK A2988
RPLL,2025-02-09 23:00,RPLL 092300Z VRB02KT 9999 SCT025 OVC100 26/22 Q1013 NOSIG RMK A2991
RPLL,2025-02-10 00:00,RPLL 100000Z VRB03KT 9999 FEW025 BKN100 27/22 Q1013 NOSIG RMK A2991
RPLL,2025-02-10 01:00,RPLL 100100Z 27003KT 250V310 9999 FEW025 BKN100 27/21 Q1014 NOSIG RMK A2994
RPLL,2025-02-10 02:00,RPLL 100200Z 19004KT 110V240 9999 SCT025 BKN100 28/22 Q1014 NOSIG RMK A2994
RPLL,2025-02-10 03:00,RPLL 100300Z 13005KT 090V190 9999 SCT025 BKN100 28/22 Q1013 NOSIG RMK A2991
RPLL,2025-02-10 04:00,RPLL 100400Z 07015KT 9999 SCT025 BKN100 30/22 Q1012 NOSIG RMK A2988
RPLL,2025-02-10 05:00,RPLL 100500Z 09009KT 060V140 9999 FEW025 BKN100 30/22 Q1012 NOSIG RMK A2988
RPLL,2025-02-10 06:00,RPLL 100600Z 12008KT 070V160 9999 FEW025 BKN100 29/22 Q1011 NOSIG RMK A2985
RPLL,2025-02-10 07:00,RPLL 100700Z 09009KT 060V130 9999 FEW025 OVC100 30/22 Q1010 NOSIG RMK A2983
RPLL,2025-02-10 08:00,RPLL 100800Z 11007KT 060V150 9999 FEW025 OVC100 29/22 Q1010 NOSIG RMK A2983
RPLL,2025-02-10 09:00,RPLL 100900Z 11007KT 060V140 9999 SCT025 OVC100 28/23 Q1011 NOSIG RMK A2985
RPLL,2025-02-10 10:00,RPLL 101000Z 12007KT 070V160 9999 -SHRA SCT023 OVC100 26/24 Q1011 NOSIG RMK A2985
RPLL,2025-02-10 11:00,RPLL 101100Z 13003KT 090V160 9999 -RA SCT023 OVC090 25/25 Q1012 NOSIG RMK A2988
RPLL,2025-02-10 12:00,RPLL 101200Z 10004KT 060V150 9999 -RA SCT023 OVC090 25/24 Q1013 NOSIG RMK A2991
RPLL,2025-02-10 13:00,RPLL 101300Z 00000KT 9999 -RA SCT023 OVC090 25/25 Q1013 NOSIG RMK A2991
RPLL,2025-02-10 14:00,RPLL 101400Z 00000KT 9999 -RA SCT023 OVC090 25/25 Q1013 NOSIG RMK A2991
RPLL,2025-02-10 15:00,RPLL 101500Z VRB02KT 9999 -RA SCT023 OVC090 25/24 Q1014 NOSIG RMK A2994
RPLL,2025-02-10 16:00,RPLL 101600Z 28003KT 250V330 9999 -RA SCT025 OVC100 25/24 Q1014 NOSIG RMK A2994
RPLL,2025-02-10 17:00,RPLL 101700Z VRB02KT 9999 -RA SCT023 OVC090 25/24 Q1013 NOSIG RMK A2991
RPLL,2025-02-10 18:00,RPLL 101800Z VRB01KT 9999 FEW025 SCT100 25/24 Q1013 NOSIG RMK A2991
RPLL,2025-02-10 19:00,RPLL 101900Z 00000KT 9999 FEW025 SCT100 25/24 Q1012 NOSIG RMK A2988
RPLL,2025-02-10 20:00,RPLL 102000Z 00000KT 9999 FEW025 BKN100 25/24 Q1012 NOSIG RMK A2988
RPLL,2025-02-10 21:00,RPLL 102100Z VRB02KT 9999 SCT025 OVC100 25/24 Q1012 NOSIG RMK A2988
RPLL,2025-02-10 22:00,RPLL 102200Z 36003KT 310V040 9999 FEW025 BKN100 25/24 Q1012 NOSIG RMK A2988
RPLL,2025-02-10 23:00,RPLL 102300Z VRB02KT 9000 SCT023 BKN100 25/24 Q1013 NOSIG RMK A2991
RPLL,2025-02-11 00:00,RPLL 110000Z 11003KT 050V160 9999 SCT023 BKN100 27/24 Q1013 NOSIG RMK A2991
RPLL,2025-02-11 01:00,RPLL 110100Z 11005KT 080V160 9999 SCT023 BKN100 27/24 Q1014 NOSIG RMK A2994
RPLL,2025-02-11 02:00,RPLL 110200Z 11004KT 060V160 9000 SCT023 BKN100 29/24 Q1014 NOSIG RMK A2994
RPLL,2025-02-11 03:00,RPLL 110300Z 09007KT 060V150 9999 SCT025 BKN100 29/24 Q1013 NOSIG RMK A2991
RPLL,2025-02-11 04:00,RPLL 110400Z 10010KT 070V140 9999 SCT025 BKN100 31/24 Q1013 NOSIG RMK A2991
RPLL,2025-02-11 05:00,RPLL 110500Z 12009KT 080V150 9999 SCT025 BKN100 30/24 Q1012 NOSIG RMK A2988
RPLL,2025-02-11 06:00,RPLL 110600Z 11009KT 080V150 9999 SCT025 BKN100 30/24 Q1011 NOSIG RMK A2985
RPLL,2025-02-11 07:00,RPLL 110700Z 10010KT 070V140 9999 SCT025 BKN100 30/24 Q1011 NOSIG RMK A2985
RPLL,2025-02-11 08:00,RPLL 110800Z 11010KT 070V140 9000 -RA SCT023 BKN090 27/24 Q1011 NOSIG RMK A2985
RPLL,2025-02-11 09:00,RPLL 110900Z 11009KT 080V150 9999 SCT025 BKN100 27/24 Q1011 NOSIG RMK A2985
RPLL,2025-02-11 10:00,RPLL 111000Z 11008KT 080V150 9999 -RA SCT025 BKN090 27/24 Q1012 NOSIG RMK A2988
RPLL,2025-02-11 11:00,RPLL 111100Z 10004KT 060V150 9999 SCT025 BKN100 27/24 Q1013 NOSIG RMK A2991
RPLL,2025-02-11 12:00,RPLL 111200Z 11005KT 050V160 9999 FEW025 BKN100 27/24 Q1013 NOSIG RMK A2991
RPLL,2025-02-11 13:00,RPLL 111300Z 09005KT 9999 FEW025 BKN100 27/24 Q1014 NOSIG RMK A2994
RPLL,2025-02-11 14:00,RPLL 111400Z 10004KT 060V150 9999 FEW025 BKN100 27/24 Q1014 NOSIG RMK A2994
RPLL,2025-02-11 15:00,RPLL 111500Z 12003KT 080V150 9999 FEW025 SCT100 27/24 Q1014 NOSIG RMK A2994
RPLL,2025-02-11 16:00,RPLL 111600Z VRB02KT 9999 FEW025 26/24 Q1014 NOSIG RMK A2994
RPLL,2025-02-11 17:00,RPLL 111700Z VRB02KT 9999 FEW025 SCT100 26/24 Q1013 NOSIG RMK A2991
RPLL,2025-02-11 18:00,RPLL 111800Z VRB02KT 9999 SCT025 BKN100 26/24 Q1013 NOSIG RMK A2991
RPLL,2025-02-11 19:00,RPLL 111900Z 00000KT 9999 SCT025 BKN100 26/24 Q1012 NOSIG RMK A2988
RPLL,2025-02-11 20:00,RPLL 112000Z VRB01KT 9999 FEW025 BKN100 26/24 Q1012 NOSIG RMK A2988
RPLL,2025-02-11 21:00,RPLL 112100Z VRB02KT 9999 FEW025 BKN100 26/24 Q1012 NOSIG RMK A2988
RPLL,2025-02-11 22:00,RPLL 112200Z VRB02KT 9999 SCT025 BKN100 26/24 Q1013 NOSIG RMK A2991
RPLL,2025-02-11 23:00,RPLL 112300Z 13003KT 090V210 9999 SCT025 BKN100 27/24 Q1013 NOSIG RMK A2991
RPLL,2025-02-12 00:00,RPLL 120000Z 11005KT 070V160 9999 SCT025 BKN100 28/24 Q1014 NOSIG RMK A2994
RPLL,2025-02-12 01:00,RPLL 120100Z 10007KT 060V130 9999 SCT025 BKN100 30/23 Q1015 NOSIG RMK A2997
RPLL,2025-02-12 02:00,RPLL 120200Z 11008KT 070V170 9999 FEW025 30/23 Q1015 NOSIG RMK A2997
RPLL,2025-02-12 03:00,RPLL 120300Z 13007KT 050V190 9999 FEW025 31/23 Q1014 NOSIG RMK A2994
RPLL,2025-02-12 04:00,RPLL 120400Z 11011KT 070V150 9999 FEW025 32/22 Q1014 NOSIG RMK A2994
RPLL,2025-02-12 05:00,RPLL 120500Z 10009KT 070V140 9999 FEW025 33/22 Q1013 NOSIG RMK A2991
RPLL,2025-02-12 06:00,RPLL 120600Z 10009KT 070V160 9999 FEW025 33/22 Q1011 NOSIG RMK A2985
RPLL,2025-02-12 07:00,RPLL 120700Z 11008KT 070V160 9999 FEW025 32/22 Q1011 NOSIG RMK A2985
RPLL,2025-02-12 08:00,RPLL 120800Z 13007KT 080V180 9999 FEW025 33/21 Q1010 NOSIG RMK A2983
RPLL,2025-02-12 09:00,RPLL 120900Z 11009KT 080V140 9999 FEW025 32/22 Q1010 NOSIG RMK A2983
RPLL,2025-02-12 10:00,RPLL 121000Z 12008KT 080V150 9999 FEW025 30/23 Q1011 NOSIG RMK A2985
RPLL,2025-02-12 11:00,RPLL 121100Z 12006KT 080V160 9999 FEW025 29/24 Q1012 NOSIG RMK A2988
RPLL,2025-02-12 12:00,RPLL 121200Z 13005KT 090V180 9999 FEW025 29/23 Q1013 NOSIG RMK A2991
RPLL,2025-02-12 13:00,RPLL 121300Z 11004KT 080V160 9999 FEW025 28/23 Q1014 NOSIG RMK A2994
RPLL,2025-02-12 14:00,RPLL 121400Z 13004KT 090V180 9999 FEW025 28/24 Q1014 NOSIG RMK A2994
RPLL,2025-02-12 15:00,RPLL 121500Z 15003KT 110V210 9999 FEW025 27/23 Q1014 NOSIG RMK A2994
RPLL,2025-02-12 16:00,RPLL 121600Z 14003KT 080V180 9999 FEW025 27/23 Q1014 NOSIG RMK A2994
RPLL,2025-02-12 17:00,RPLL 121700Z 13004KT 090V180 9999 FEW025 27/24 Q1013 NOSIG RMK A2991
RPLL,2025-02-12 18:00,RPLL 121800Z VRB02KT 9999 FEW025 27/24 Q1013 NOSIG RMK A2991
RPLL,2025-02-12 19:00,RPLL 121900Z VRB02KT 9999 FEW025 26/25 Q1012 NOSIG RMK A2988
RPLL,2025-02-12 20:00,RPLL 122000Z VRB02KT 9999 FEW025 26/25 Q1012 NOSIG RMK A2988
RPLL,2025-02-12 21:00,RPLL 122100Z VRB01KT 9999 FEW025 26/24 Q1012 NOSIG RMK A2988
RPLL,2025-02-12 22:00,RPLL 122200Z VRB02KT 9999 FEW025 26/24 Q1013 NOSIG RMK A2991
RPLL,2025-02-12 23:00,RPLL 122300Z 18003KT 120V230 9999 FEW025 SCT100 26/25 Q1013 NOSIG RMK A2991
RPLL,2025-02-13 00:00,RPLL 130000Z VRB02KT 9999 FEW025 SCT100 27/24 Q1014 NOSIG RMK A2994
RPLL,2025-02-13 01:00,RPLL 130100Z 28006KT 9999 FEW025 28/24 Q1014 NOSIG RMK A2994
RPLL,2025-02-13 02:00,RPLL 130200Z 31003KT 230V020 9999 FEW025 30/24 Q1014 NOSIG RMK A2994
RPLL,2025-02-13 03:00,RPLL 130300Z 27007KT 240V310 9999 FEW025 30/24 Q1014 NOSIG RMK A2994
RPLL,2025-02-13 04:00,RPLL 130400Z 31007KT 260V350 9999 FEW025 31/25 Q1013 NOSIG RMK A2991
RPLL,2025-02-13 05:00,COR RPLL 130500Z VRB08KT 9999 FEW025 32/23 Q1012 NOSIG RMK A2988
RPLL,2025-02-13 06:00,RPLL 130600Z 32009KT 280V360 9999 FEW025 32/24 Q1011 NOSIG RMK A2985
RPLL,2025-02-13 07:00,RPLL 130700Z 03011KT 9999 FEW025 31/24 Q1010 NOSIG RMK A2983
RPLL,2025-02-13 08:00,RPLL 130800Z 02008KT 360V060 9999 FEW023CB SCT025 BKN100 31/22 Q1010 NOSIG RMK A2983 CB S
RPLL,2025-02-13 09:00,RPLL 130900Z 08007KT 9999 FEW025 BKN100 30/23 Q1011 NOSIG RMK A2985
RPLL,2025-02-13 10:00,RPLL 131000Z 11004KT 070V160 9999 FEW025 BKN100 29/24 Q1011 NOSIG RMK A2985
RPLL,2025-02-13 11:00,RPLL 131100Z VRB02KT 9999 FEW025 BKN100 28/24 Q1011 NOSIG RMK A2985
RPLL,2025-02-13 12:00,RPLL 131200Z 17004KT 110V230 9999 FEW025 SCT100 28/25 Q1012 NOSIG RMK A2988
RPLL,2025-02-13 13:00,RPLL 131300Z 14003KT 080V210 9999 FEW025 SCT100 28/25 Q1012 NOSIG RMK A2988
RPLL,2025-02-13 14:00,RPLL 131400Z VRB02KT 9999 FEW025 SCT100 28/24 Q1013 NOSIG RMK A2991
RPLL,2025-02-13 15:00,RPLL 131500Z 15003KT 070V200 9999 FEW025 BKN100 28/25 Q1013 NOSIG RMK A2991
RPLL,2025-02-13 16:00,RPLL 131600Z VRB03KT 9999 FEW025 BKN100 27/25 Q1013 NOSIG RMK A2991
RPLL,2025-02-13 17:00,RPLL 131700Z 17003KT 100V220 9999 FEW025 BKN100 27/25 Q1012 NOSIG RMK A2988
RPLL,2025-02-13 18:00,RPLL 131800Z 12004KT 070V170 9999 FEW025 BKN100 27/25 Q1012 NOSIG RMK A2988
RPLL,2025-02-13 19:00,RPLL 131900Z VRB02KT 9999 FEW025 BKN100 27/24 Q1011 NOSIG RMK A2985
RPLL,2025-02-13 20:00,RPLL 132000Z 14003KT 030V200 9999 FEW025 BKN100 27/24 Q1011 NOSIG RMK A2985
RPLL,2025-02-13 21:00,RPLL 132100Z 15003KT 100V210 9999 FEW025 BKN100 27/24 Q1011 NOSIG RMK A2985
RPLL,2025-02-13 22:00,RPLL 132200Z VRB02KT 9999 FEW025 BKN100 27/24 Q1012 NOSIG RMK A2988
RPLL,2025-02-13 23:00,RPLL 132300Z VRB02KT 9999 FEW025 BKN100 27/24 Q1012 NOSIG RMK A2988
RPLL,2025-02-14 00:00,RPLL 140000Z 12004KT 050V160 9999 -RA SCT023 BKN090 27/24 Q1013 NOSIG RMK A2991
RPLL,2025-02-14 01:00,RPLL 140100Z 13005KT 080V190 9999 SCT025 BKN100 28/24 Q1013 NOSIG RMK A2991
RPLL,2025-02-14 02:00,RPLL 140200Z 05003KT 350V140 9999 SCT023 BKN100 27/24 Q1013 NOSIG RMK A2991
RPLL,2025-02-14 03:00,RPLL 140300Z 07008KT 9999 SCT023 BKN100 30/24 Q1013 NOSIG RMK A2991
RPLL,2025-02-14 04:00,RPLL 140400Z 09007KT 070V130 9999 FEW025 BKN100 30/23 Q1012 NOSIG RMK A2988
RPLL,2025-02-14 05:00,COR RPLL 140500Z 09006KT 020V190 9999 FEW025 BKN100 32/23 Q1011 NOSIG RMK A2985
RPLL,2025-02-14 06:00,RPLL 140600Z 30009KT 250V340 9000 FEW025 BKN100 29/25 Q1010 NOSIG RMK A2983
RPLL,2025-02-14 07:00,RPLL 140700Z 32007KT 260V360 9999 SCT025 30/24 Q1009 NOSIG RMK A2980
RPLL,2025-02-14 08:00,RPLL 140800Z VRB02KT 9999 SCT025TCU 31/25 Q1009 NOSIG RMK A2980 TCU N-NE
RPLL,2025-02-14 09:00,RPLL 140900Z 13005KT 060V180 9999 FEW023CB SCT025 SCT100 32/23 Q1009 NOSIG RMK A2980 CB N
RPLL,2025-02-14 10:00,RPLL 141000Z 01008KT 350V050 9999 -SHRA FEW025 BKN100 29/24 Q1010 NOSIG RMK A2983
RPLL,2025-02-14 11:00,RPLL 141100Z 02007KT 350V050 9000 FEW025 BKN100 28/24 Q1010 NOSIG RMK A2983
RPLL,2025-02-14 12:00,RPLL 141200Z 32003KT 280V360 9999 FEW025 SCT100 28/24 Q1011 NOSIG RMK A2985
RPLL,2025-02-14 13:00,RPLL 141300Z VRB02KT 9999 FEW025 BKN100 28/24 Q1011 NOSIG RMK A2985
RPLL,2025-02-14 14:00,RPLL 141400Z 14003KT 080V190 9999 FEW025 SCT100 28/23 Q1011 NOSIG RMK A2985
RPLL,2025-02-14 15:00,RPLL 141500Z VRB03KT 9999 FEW025 BKN100 28/24 Q1011 NOSIG RMK A2985
RPLL,2025-02-14 16:00,RPLL 141600Z VRB01KT 9999 FEW025 SCT100 27/24 Q1011 NOSIG RMK A2985
RPLL,2025-02-14 17:00,RPLL 141700Z VRB02KT 9999 FEW025 27/24 Q1011 NOSIG RMK A2985
RPLL,2025-02-14 18:00,RPLL 141800Z VRB01KT 9999 FEW025 SCT100 27/24 Q1010 NOSIG RMK A2983
RPLL,2025-02-14 19:00,RPLL 141900Z 00000KT 9999 FEW025 SCT100 26/24 Q1010 NOSIG RMK A2983
RPLL,2025-02-14 20:00,RPLL 142000Z VRB01KT 9999 FEW025 26/24 Q1010 NOSIG RMK A2983
RPLL,2025-02-14 21:00,RPLL 142100Z VRB01KT 9999 FEW025 26/24 Q1010 NOSIG RMK A2983
RPLL,2025-02-14 22:00,RPLL 142200Z VRB02KT 9999 FEW025 BKN100 26/24 Q1010 NOSIG RMK A2983
RPLL,2025-02-14 23:00,RPLL 142300Z VRB02KT 9999 FEW025 26/25 Q1011 NOSIG RMK A2985
RPLL,2025-02-15 00:00,RPLL 150000Z VRB02KT 9999 FEW023 BKN100 28/25 Q1011 NOSIG RMK A2985
RPLL,2025-02-15 01:00,RPLL 150100Z VRB02KT 9999 FEW023 BKN100 29/24 Q1012 NOSIG RMK A2988
RPLL,2025-02-15 02:00,RPLL 150200Z VRB03KT 9999 FEW023 BKN100 29/25 Q1012 NOSIG RMK A2988
RPLL,2025-02-15 03:00,RPLL 150300Z 25006KT 210V300 9000 FEW023 BKN100 29/25 Q1012 NOSIG RMK A2988
RPLL,2025-02-15 04:00,RPLL 150400Z VRB03KT 9000 FEW023 BKN100 30/25 Q1011 NOSIG RMK A2985
RPLL,2025-02-15 05:00,RPLL 150500Z VRB04KT 9999 FEW025 BKN100 32/23 Q1010 NOSIG RMK A2983
RPLL,2025-02-15 06:00,RPLL 150600Z 15005KT 090V200 9999 FEW025 BKN100 31/24 Q1009 NOSIG RMK A2980
RPLL,2025-02-15 07:00,RPLL 150700Z VRB03KT 9999 FEW025 BKN100 31/22 Q1008 NOSIG RMK A2977
RPLL,2025-02-15 08:00,RPLL 150800Z 13005KT 080V190 9999 FEW025 BKN100 32/23 Q1008 NOSIG RMK A2977
RPLL,2025-02-15 09:00,RPLL 150900Z 11005KT 060V160 9999 FEW025 BKN100 29/25 Q1009 NOSIG RMK A2980
RPLL,2025-02-15 10:00,RPLL 151000Z 12005KT 080V160 9999 FEW025 BKN100 29/24 Q1009 NOSIG RMK A2980
RPLL,2025-02-15 11:00,RPLL 151100Z 14004KT 080V240 9999 FEW025 BKN100 29/25 Q1010 NOSIG RMK A2983
RPLL,2025-02-15 12:00,RPLL 151200Z 14005KT 100V180 9999 FEW025 BKN100 29/24 Q1010 NOSIG RMK A2983
RPLL,2025-02-15 13:00,RPLL 151300Z VRB03KT 9999 FEW025 BKN100 29/24 Q1011 NOSIG RMK A2985
RPLL,2025-02-15 14:00,RPLL 151400Z 13004KT 080V190 9999 FEW025 SCT100 28/24 Q1011 NOSIG RMK A2985
RPLL,2025-02-15 15:00,RPLL 151500Z VRB02KT 9999 FEW025 28/24 Q1011 NOSIG RMK A2985
RPLL,2025-02-15 16:00,RPLL 151600Z 12004KT 090V150 9999 FEW025 SCT100 28/24 Q1011 NOSIG RMK A2985
RPLL,2025-02-15 17:00,RPLL 151700Z VRB02KT 9999 SCT023 BKN100 28/24 Q1011 NOSIG RMK A2985
RPLL,2025-02-15 18:00,RPLL 151800Z VRB02KT 9000 SCT023 BKN100 27/24 Q1011 NOSIG RMK A2985
RPLL,2025-02-15 19:00,RPLL 151900Z VRB02KT 9000 SCT023 BKN100 27/24 Q1011 NOSIG RMK A2985
RPLL,2025-02-15 20:00,RPLL 152000Z 30003KT 250V340 9999 SCT023 BKN100 27/24 Q1010 NOSIG RMK A2983
RPLL,2025-02-15 21:00,RPLL 152100Z VRB01KT 9999 SCT023 BKN100 27/24 Q1010 NOSIG RMK A2983
RPLL,2025-02-15 22:00,RPLL 152200Z VRB01KT 9999 FEW025 SCT100 26/24 Q1011 NOSIG RMK A2985
RPLL,2025-02-15 23:00,RPLL 152300Z VRB02KT 9999 FEW025 27/24 Q1012 NOSIG RMK A2988
RPLL,2025-02-16 00:00,RPLL 160000Z 14003KT 190V200 9999 FEW025 29/25 Q1012 NOSIG RMK A2988
RPLL,2025-02-16 01:00,RPLL 160100Z 11005KT 060V190 9999 FEW025 30/24 Q1013 NOSIG RMK A2991
RPLL,2025-02-16 02:00,RPLL 160200Z 12006KT 070V180 9999 FEW025 31/24 Q1014 NOSIG RMK A2994
RPLL,2025-02-16 03:00,RPLL 160300Z 09007KT 050V160 9999 FEW025 SCT100 32/24 Q1013 NOSIG RMK A2991
RPLL,2025-02-16 04:00,RPLL 160400Z 12007KT 080V180 9999 SCT025 33/24 Q1012 NOSIG RMK A2988
RPLL,2025-02-16 05:00,RPLL 160500Z 11007KT 060V150 9999 SCT025 33/24 Q1011 NOSIG RMK A2985
RPLL,2025-02-16 06:00,RPLL 160600Z 11008KT 070V180 9999 SCT025 33/24 Q1010 NOSIG RMK A2983
RPLL,2025-02-16 07:00,RPLL 160700Z 13007KT 070V180 9999 SCT023TCU SCT100 33/23 Q1010 NOSIG RMK A2983 TCU N
RPLL,2025-02-16 08:00,RPLL 160800Z 15007KT 090V210 9999 FEW025 SCT100 33/23 Q1010 NOSIG RMK A2983
RPLL,2025-02-16 09:00,RPLL 160900Z 13006KT 070V170 9999 FEW025 SCT100 32/25 Q1010 NOSIG RMK A2983
RPLL,2025-02-16 10:00,RPLL 161000Z 14006KT 100V170 9999 FEW025 30/24 Q1010 NOSIG RMK A2983
RPLL,2025-02-16 11:00,RPLL 161100Z 13006KT 090V170 9999 FEW025 30/24 Q1011 NOSIG RMK A2985
RPLL,2025-02-16 12:00,RPLL 161200Z 13005KT 050V180 9999 FEW025 29/24 Q1013 NOSIG RMK A2991
RPLL,2025-02-16 13:00,RPLL 161300Z 11006KT 070V150 9999 FEW025 29/24 Q1013 NOSIG RMK A2991
RPLL,2025-02-16 14:00,RPLL 161400Z 14005KT 080V190 9999 FEW025 28/24 Q1013 NOSIG RMK A2991
RPLL,2025-02-16 15:00,RPLL 161500Z 12003KT 080V180 9999 FEW025 28/24 Q1013 NOSIG RMK A2991
RPLL,2025-02-16 16:00,RPLL 161600Z 14003KT 100V190 9999 FEW025 SCT100 28/24 Q1013 NOSIG RMK A2991
RPLL,2025-02-16 17:00,RPLL 161700Z VRB02KT 9999 SCT025 BKN100 28/24 Q1013 NOSIG RMK A2991
RPLL,2025-02-16 18:00,RPLL 161800Z VRB01KT 9999 SCT025 BKN100 28/24 Q1012 NOSIG RMK A2988
RPLL,2025-02-16 19:00,RPLL 161900Z 26003KT 9999 FEW025 SCT100 27/24 Q1012 NOSIG RMK A2988
RPLL,2025-02-16 20:00,RPLL 162000Z VRB02KT 9999 FEW025 27/24 Q1012 NOSIG RMK A2988
RPLL,2025-02-16 21:00,RPLL 162100Z VRB01KT 9999 FEW025 27/24 Q1012 NOSIG RMK A2988
RPLL,2025-02-16 22:00,RPLL 162200Z VRB02KT 9999 FEW025 27/24 Q1012 NOSIG RMK A2988
RPLL,2025-02-16 23:00,RPLL 162300Z VRB02KT 9999 FEW025 27/25 Q1013 NOSIG RMK A2991
RPLL,2025-02-17 00:00,RPLL 170000Z VRB02KT 9999 FEW025 29/24 Q1014 NOSIG RMK A2994
RPLL,2025-02-17 01:00,RPLL 170100Z VRB02KT 9999 FEW025 30/23 Q1014 NOSIG RMK A2994
RPLL,2025-02-17 02:00,RPLL 170200Z 09005KT 010V140 9999 FEW025 31/23 Q1014 NOSIG RMK A2994
RPLL,2025-02-17 03:00,RPLL 170300Z 12006KT 060V170 9999 FEW025 SCT100 32/24 Q1014 NOSIG RMK A2994
RPLL,2025-02-17 04:00,RPLL 170400Z 15007KT 090V200 9999 FEW025 BKN100 30/25 Q1013 NOSIG RMK A2991
RPLL,2025-02-17 05:00,RPLL 170500Z 14006KT 070V190 9999 FEW025 BKN100 31/25 Q1012 NOSIG RMK A2988
RPLL,2025-02-17 06:00,RPLL 170600Z 11012KT 070V140 9999 FEW025 SCT100 32/24 Q1011 NOSIG RMK A2985
RPLL,2025-02-17 07:00,RPLL 170700Z 07007KT 340V120 9999 FEW025 SCT100 32/24 Q1011 NOSIG RMK A2985
RPLL,2025-02-17 08:00,RPLL 170800Z 10010KT 070V150 9999 FEW025 32/24 Q1011 NOSIG RMK A2985
RPLL,2025-02-17 09:00,RPLL 170900Z 11008KT 070V140 9999 FEW025 31/23 Q1011 NOSIG RMK A2985
RPLL,2025-02-17 10:00,RPLL 171000Z 12007KT 080V160 9999 FEW025 30/23 Q1012 NOSIG RMK A2988
RPLL,2025-02-17 11:00,RPLL 171100Z 11008KT 080V150 9999 FEW025 30/22 Q1012 NOSIG RMK A2988
RPLL,2025-02-17 12:00,RPLL 171200Z 10005KT 060V130 9999 FEW025 29/22 Q1013 NOSIG RMK A2991
RPLL,2025-02-17 13:00,RPLL 171300Z 10006KT 070V140 9999 FEW025 28/23 Q1014 NOSIG RMK A2994
RPLL,2025-02-17 14:00,RPLL 171400Z 10005KT 070V130 9999 FEW025 28/23 Q1014 NOSIG RMK A2994
RPLL,2025-02-17 15:00,RPLL 171500Z 09004KT 060V120 9999 FEW025 28/23 Q1014 NOSIG RMK A2994
RPLL,2025-02-17 16:00,RPLL 171600Z 11004KT 070V150 9999 FEW025 28/23 Q1014 NOSIG RMK A2994
RPLL,2025-02-17 17:00,RPLL 171700Z 10003KT 070V140 9999 FEW025 SCT100 27/23 Q1013 NOSIG RMK A2991
RPLL,2025-02-17 18:00,RPLL 171800Z 09004KT 060V120 9999 SCT025 BKN100 27/23 Q1013 NOSIG RMK A2991
RPLL,2025-02-17 19:00,RPLL 171900Z 07005KT 9999 SCT025 BKN100 26/23 Q1012 NOSIG RMK A2988
RPLL,2025-02-17 20:00,RPLL 172000Z 07004KT 9999 FEW025 SCT100 27/22 Q1012 NOSIG RMK A2988
RPLL,2025-02-17 21:00,RPLL 172100Z 33003KT 290V040 9999 FEW025 SCT100 27/22 Q1013 NOSIG RMK A2991
RPLL,2025-02-17 22:00,RPLL 172200Z 33003KT 290V040 9999 FEW025 SCT100 27/22 Q1013 NOSIG RMK A2991
RPLL,2025-02-17 23:00,RPLL 172300Z VRB01KT 9999 FEW025 27/23 Q1014 NOSIG RMK A2994
RPLL,2025-02-18 00:00,RPLL 180000Z VRB01KT 9999 FEW025 SCT100 28/23 Q1014 NOSIG RMK A2994
RPLL,2025-02-18 01:00,RPLL 180100Z 11005KT 060V160 9999 SCT023 BKN100 28/24 Q1015 NOSIG RMK A2997
RPLL,2025-02-18 02:00,RPLL 180200Z 10006KT 050V180 9999 FEW025 SCT100 30/23 Q1015 NOSIG RMK A2997
RPLL,2025-02-18 03:00,RPLL 180300Z 07006KT 030V130 9999 FEW023 BKN100 30/24 Q1014 NOSIG RMK A2994
RPLL,2025-02-18 04:00,COR RPLL 180400Z 11006KT 060V190 9999 FEW025 BKN100 31/24 Q1013 NOSIG RMK A2991
RPLL,2025-02-18 05:00,RPLL 180500Z 28004KT 240V360 9999 FEW025 BKN100 30/24 Q1012 NOSIG RMK A2988
RPLL,2025-02-18 06:00,RPLL 180600Z 12008KT 080V150 9999 FEW025 BKN100 30/24 Q1011 NOSIG RMK A2985
RPLL,2025-02-18 07:00,RPLL 180700Z 11007KT 070V160 9999 -SHRA FEW023 BKN090 29/24 Q1011 NOSIG RMK A2985
RPLL,2025-02-18 08:00,RPLL 180800Z 11009KT 060V160 9999 FEW025 BKN100 31/24 Q1011 NOSIG RMK A2985
RPLL,2025-02-18 09:00,RPLL 180900Z 12007KT 060V170 9999 FEW025 BKN100 29/23 Q1011 NOSIG RMK A2985
RPLL,2025-02-18 09:33,RPLL 180933Z 10007KT 060V150 9000 -SHRA FEW023 BKN090 27/24 Q1012 NOSIG RMK A2988
RPLL,2025-02-18 10:00,RPLL 181000Z 12005KT 080V170 9999 SCT023 BKN100 26/24 Q1012 NOSIG RMK A2988
RPLL,2025-02-18 11:00,RPLL 181100Z 11005KT 070V150 9999 FEW025 BKN100 28/23 Q1012 NOSIG RMK A2988
RPLL,2025-02-18 12:00,RPLL 181200Z 11005KT 070V160 9999 FEW025 BKN100 28/22 Q1013 NOSIG RMK A2991
RPLL,2025-02-18 13:00,RPLL 181300Z 11006KT 080V140 9999 FEW025 SCT100 27/23 Q1013 NOSIG RMK RMK A2991
RPLL,2025-02-18 14:00,RPLL 181400Z 12006KT 070V150 9999 FEW025 SCT100 28/22 Q1013 NOSIG RMK A2991
RPLL,2025-02-18 15:00,RPLL 181500Z 10010KT 9999 FEW025 SCT100 28/22 Q1013 NOSIG RMK A2991
RPLL,2025-02-18 16:00,RPLL 181600Z 09007KT 9999 FEW025 SCT100 27/22 Q1013 NOSIG RMK A2991
RPLL,2025-02-18 17:00,RPLL 181700Z 09006KT 060V120 9999 FEW025 SCT150 27/22 Q1013 NOSIG RMK A2991
RPLL,2025-02-18 18:00,RPLL 181800Z 08006KT 9999 FEW025 27/22 Q1012 NOSIG RMK A2988
RPLL,2025-02-18 19:00,RPLL 181900Z 12004KT 080V160 9999 FEW025 27/22 Q1012 NOSIG RMK A2988
RPLL,2025-02-18 20:00,RPLL 182000Z 09003KT 060V150 9999 FEW025 BKN100 26/23 Q1013 NOSIG RMK A2991
RPLL,2025-02-18 21:00,RPLL 182100Z 07004KT 9999 SCT023 BKN100 26/22 Q1013 NOSIG RMK A2991
RPLL,2025-02-18 22:00,RPLL 182200Z 07006KT 9999 SCT023 BKN100 26/22 Q1013 NOSIG RMK A2991
RPLL,2025-02-18 23:00,RPLL 182300Z 09003KT 050V130 9999 SCT025 27/22 Q1014 NOSIG RMK A2994
RPLL,2025-02-19 00:00,RPLL 190000Z 08007KT 060V120 9999 FEW025 28/22 Q1015 NOSIG RMK A2997 METAR RPLB 190000Z VRB01KT 9999 SCT020 BKN080 27/22 Q1015 NOSIG RMK A2997
RPLL,2025-02-19 01:00,RPLL 190100Z 08005KT 050V120 9999 FEW025 29/22 Q1015 NOSIG RMK A2997
RPLL,2025-02-19 02:00,RPLL 190200Z 08007KT 050V130 9999 FEW025 30/22 Q1015 NOSIG RMK A2997
RPLL,2025-02-19 03:00,RPLL 190300Z 12006KT 050V200 9999 SCT025 31/21 Q1014 NOSIG RMK A2994
RPLL,2025-02-19 04:00,RPLL 190400Z 05010KT 9999 FEW025 BKN100 30/21 Q1014 NOSIG RMK A2994
RPLL,2025-02-19 05:00,RPLL 190500Z 11009KT 070V170 9999 FEW025 SCT100 31/20 Q1013 NOSIG RMK A2991
RPLL,2025-02-19 06:00,RPLL 190600Z 12008KT 080V160 9999 FEW025 SCT100 31/20 Q1012 NOSIG RMK A2988
RPLL,2025-02-19 07:00,RPLL 190700Z 07014KT 9999 FEW025 31/19 Q1011 NOSIG RMK A2985
RPLL,2025-02-19 08:00,RPLL 190800Z 08011KT 050V110 9999 FEW025 31/19 Q1012 NOSIG RMK A2988
RPLL,2025-02-19 09:00,RPLL 190900Z 08009KT 9999 FEW025 30/20 Q1012 NOSIG RMK A2988
RPLL,2025-02-19 10:00,RPLL 191000Z 10007KT 070V130 9999 FEW025 29/20 Q1012 NOSIG RMK A2988
RPLL,2025-02-19 11:00,RPLL 191100Z 09008KT 9999 FEW025 28/20 Q1013 NOSIG RMK A2991
RPLL,2025-02-19 12:00,RPLL 191200Z 11005KT 070V170 9999 FEW025 27/21 Q1013 NOSIG RMK A2991
RPLL,2025-02-19 13:00,COR RPLL 191300Z 11004KT 080V150 9999 FEW025 27/21 Q1014 NOSIG RMK A2994
RPLL,2025-02-19 14:00,RPLL 191400Z VRB02KT 9999 FEW025 27/21 Q1014 NOSIG RMK A2994
RPLL,2025-02-19 15:00,RPLL 191500Z VRB02KT 9999 FEW025 26/22 Q1014 NOSIG RMK A2994
RPLL,2025-02-19 16:00,RPLL 191600Z 15003KT 080V180 9999 FEW025 26/22 Q1014 NOSIG RMK A2994
RPLL,2025-02-19 17:00,RPLL 191700Z 10003KT 040V170 9999 FEW025 BKN100 26/22 Q1013 NOSIG RMK A2991
RPLL,2025-02-19 18:00,RPLL 191800Z VRB03KT 9999 FEW025 26/22 Q1013 NOSIG RMK A2991
RPLL,2025-02-19 19:00,RPLL 191900Z 07003KT 040V100 9999 SCT025 26/23 Q1012 NOSIG RMK A2988
RPLL,2025-02-19 20:00,RPLL 192000Z 07002KT 9999 SCT025 25/22 Q1012 NOSIG RMK A2988
RPLL,2025-02-19 21:00,RPLL 192100Z VRB01KT 9999 SCT025 SCT100 26/23 Q1013 NOSIG RMK A2991
RPLL,2025-02-19 22:00,RPLL 192200Z VRB01KT 9999 FEW025 SCT100 26/23 Q1013 NOSIG RMK A2991
RPLL,2025-02-19 23:00,RPLL 192300Z 06005KT 030V100 9999 FEW025 SCT100 26/22 Q1014 NOSIG RMK A2994
RPLL,2025-02-20 00:00,RPLL 200000Z 10003KT 070V150 9999 FEW025 SCT100 28/22 Q1014 NOSIG RMK A2994
RPLL,2025-02-20 01:00,RPLL 200100Z 12005KT 080V180 9999 FEW025 BKN100 27/22 Q1015 NOSIG RMK A2997
RPLL,2025-02-20 01:13,RPLL 200113Z 12007KT 060V160 9999 -SHRA SCT025 OVC100 26/24 Q1015 NOSIG RMK A2997
RPLL,2025-02-20 02:00,RPLL 200200Z 12006KT 080V160 9000 -RA SCT023 OVC100 25/24 Q1016 NOSIG RMK A3000
RPLL,2025-02-20 03:00,RPLL 200300Z 11008KT 070V160 9999 SCT023 BKN100 28/23 Q1015 NOSIG RMK A2977
RPLL,2025-02-20 04:00,RPLL 200400Z 11010KT 070V150 9999 FEW025 BKN100 29/22 Q1014 NOSIG RMK A2994
RPLL,2025-02-20 05:00,RPLL 200500Z 12009KT 080V150 9999 FEW025 BKN100 29/22 Q1013 NOSIG RMK A2991
RPLL,2025-02-20 06:00,RPLL 200600Z 09011KT 060V120 9999 FEW025 BKN100 30/21 Q1013 NOSIG RMK A2991
RPLL,2025-02-20 07:00,RPLL 200700Z 11009KT 060V150 9999 -SHRA FEW023 SCT025 OVC090 29/21 Q1013 NOSIG RMK A2991
RPLL,2025-02-20 08:00,RPLL 200800Z 11009KT 060V140 9999 SCT025 BKN100 29/23 Q1013 NOSIG RMK A2991
RPLL,2025-02-20 09:00,RPLL 200900Z 12008KT 070V170 9999 -RA SCT023 OVC090 26/24 Q1013 NOSIG RMK A2991
RPLL,2025-02-20 10:00,RPLL 201000Z 10003KT 070V140 9000 -RA SCT023 OVC090 26/23 Q1014 NOSIG RMK A2994
RPLL,2025-02-20 11:00,RPLL 201100Z 09007KT 060V150 9999 SCT025 OVC100 26/23 Q1014 NOSIG RMK A2994
RPLL,2025-02-20 12:00,RPLL 201200Z 10011KT 070V130 9000 -RA SCT023 OVC090 26/23 Q1015 NOSIG RMK A2997
RPLL,2025-02-20 13:00,RPLL 201300Z 08008KT 9000 -RA SCT023 OVC090 25/23 Q1015 NOSIG RMK A2997
RPLL,2025-02-20 14:00,RPLL 201400Z 08003KT 050V110 9999 SCT025 OVC100 25/23 Q1015 NOSIG RMK A2997
RPLL,2025-02-20 15:00,RPLL 201500Z 12003KT 070V190 9999 -RA SCT025 OVC100 25/23 Q1015 NOSIG RMK A2997
RPLL,2025-02-20 16:00,RPLL 201600Z 11003KT 080V160 9999 SCT025 BKN100 26/24 Q1015 NOSIG RMK A2997
RPLL,2025-02-20 17:00,RPLL 201700Z 05003KT 010V070 9999 SCT025 BKN100 26/23 Q1014 NOSIG RMK A2994
RPLL,2025-02-20 18:00,RPLL 201800Z 30004KT 270V330 9999 SCT025 BKN100 26/23 Q1014 NOSIG RMK A2994
RPLL,2025-02-20 19:00,RPLL 201900Z VRB02KT 9999 FEW025 BKN100 26/23 Q1013 NOSIG RMK A2991
RPLL,2025-02-20 20:00,RPLL 202000Z 10002KT 9999 FEW025 BKN100 26/23 Q1013 NOSIG RMK A2991
RPLL,2025-02-20 21:00,RPLL 202100Z 12004KT 080V160 9999 FEW025 BKN100 26/23 Q1013 NOSIG RMK A2991
RPLL,2025-02-20 22:00,RPLL 202200Z 11004KT 070V150 9999 FEW025 SCT100 26/23 Q1014 NOSIG RMK A2994
RPLL,2025-02-20 23:00,RPLL 202300Z 11004KT 080V140 9999 FEW025 SCT100 26/23 Q1014 NOSIG RMK A2994
RPLL,2025-02-21 00:00,RPLL 210000Z VRB02KT 9999 SCT025 BKN100 28/23 Q1015 NOSIG RMK A2997
RPLL,2025-02-21 01:00,RPLL 210100Z 30003KT 250V020 9000 SCT025 BKN100 27/24 Q1015 NOSIG RMK A2997
RPLL,2025-02-21 02:00,RPLL 210200Z 11005KT 070V150 9000 SCT023 BKN100 29/22 Q1016 NOSIG RMK A3000
RPLL,2025-02-21 03:00,RPLL 210300Z 13007KT 080V170 9000 SCT023 BKN100 30/23 Q1015 NOSIG RMK A2997
RPLL,2025-02-21 04:00,RPLL 210400Z 12007KT 050V170 9000 SCT023 BKN100 29/24 Q1015 NOSIG RMK A2997
RPLL,2025-02-21 05:00,RPLL 210500Z 11008KT 070V160 9999 FEW025 BKN100 30/23 Q1014 NOSIG RMK A2994
RPLL,2025-02-21 06:00,RPLL 210600Z 12008KT 090V160 9999 SCT023 BKN100 30/23 Q1013 NOSIG RMK A2991
RPLL,2025-02-21 07:00,RPLL 210700Z 11005KT 070V220 9999 SCT023 BKN100 31/23 Q1012 NOSIG RMK A2988
RPLL,2025-02-21 08:00,RPLL 210800Z 07010KT 9999 SCT025 BKN090 30/21 Q1012 NOSIG RMK A2988
RPLL,2025-02-21 09:00,RPLL 210900Z 10006KT 060V120 9999 SCT025 BKN090 29/22 Q1013 NOSIG RMK A2991
RPLL,2025-02-21 10:00,RPLL 211000Z 09007KT 070V130 9999 FEW025 BKN100 29/22 Q1013 NOSIG RMK A2991
RPLL,2025-02-21 11:00,RPLL 211100Z 09004KT 050V140 9999 FEW025 BKN100 28/22 Q1014 NOSIG RMK A2994
RPLL,2025-02-21 12:00,RPLL 211200Z 10007KT 070V130 9999 SCT025 BKN100 28/22 Q1015 NOSIG RMK A2997
RPLL,2025-02-21 13:00,RPLL 211300Z 10007KT 070V130 9999 SCT025 BKN100 28/22 Q1016 NOSIG RMK A3000
RPLL,2025-02-21 14:00,RPLL 211400Z 09006KT 9999 SCT025 BKN100 28/22 Q1016 NOSIG RMK A3000
RPLL,2025-02-21 15:00,RPLL 211500Z 10004KT 070V130 9999 SCT025 OVC100 27/22 Q1016 NOSIG RMK A3000
RPLL,2025-02-21 16:00,RPLL 211600Z 09003KT 9999 SCT025 OVC100 27/22 Q1016 NOSIG RMK A3000
RPLL,2025-02-21 17:00,RPLL 211700Z 11005KT 080V140 9999 FEW025 OVC100 27/21 Q1016 NOSIG RMK A3000
RPLL,2025-02-21 18:00,RPLL 211800Z 10006KT 070V140 9999 FEW025 BKN100 27/22 Q1015 NOSIG RMK A2997
RPLL,2025-02-21 19:00,RPLL 211900Z 10007KT 070V140 9999 FEW025 BKN100 27/22 Q1014 NOSIG RMK A2994
RPLL,2025-02-21 20:00,RPLL 212000Z 10005KT 070V130 9999 FEW025 BKN100 27/21 Q1014 NOSIG RMK A2994
RPLL,2025-02-21 21:00,RPLL 212100Z 11003KT 080V140 9999 FEW025 BKN130 27/21 Q1015 NOSIG RMK A2997
RPLL,2025-02-21 22:00,RPLL 212200Z 11004KT 070V170 9999 FEW025 BKN100 27/21 Q1015 NOSIG RMK A2997
RPLL,2025-02-21 23:00,RPLL 212300Z 10004KT 050V140 9999 FEW025 BKN100 27/21 Q1016 NOSIG RMK A3000
RPLL,2025-02-22 00:00,RPLL 220000Z 11006KT 060V170 9999 FEW025 BKN100 27/21 Q1016 NOSIG RMK A3000
RPLL,2025-02-22 01:00,RPLL 220100Z 10008KT 9999 FEW025 BKN100 28/21 Q1017 NOSIG RMK A3003
RPLL,2025-02-22 02:00,RPLL 220200Z 09008KT 060V130 9999 FEW025 BKN100 30/20 Q1017 NOSIG RMK A3003
RPLL,2025-02-22 03:00,RPLL 220300Z 09010KT 060V130 9999 FEW025 BKN100 30/20 Q1016 NOSIG RMK A3000
RPLL,2025-02-22 04:00,RPLL 220400Z 09011KT 060V130 9999 FEW025 BKN100 31/20 Q1015 NOSIG RMK A2997
RPLL,2025-02-22 05:00,RPLL 220500Z 09011KT 050V130 9999 FEW025 BKN100 32/20 Q1015 NOSIG RMK A2997
RPLL,2025-02-22 06:00,RPLL 220600Z 13010G21KT 090V190 9999 FEW025 BKN100 31/21 Q1014 NOSIG RMK A2994
RPLL,2025-02-22 07:00,RPLL 220700Z 10012KT 070V150 9999 FEW025 SCT100 31/21 Q1013 NOSIG RMK A2991
RPLL,2025-02-22 08:00,RPLL 220800Z 09012KT 070V170 9999 FEW025 31/21 Q1013 NOSIG RMK A2991
RPLL,2025-02-22 09:00,RPLL 220900Z 11010KT 070V140 9999 FEW025 BKN100 30/21 Q1014 NOSIG RMK A2994
RPLL,2025-02-22 10:00,RPLL 221000Z 10008KT 070V130 9999 FEW025 BKN100 28/21 Q1014 NOSIG RMK A2994
RPLL,2025-02-22 11:00,RPLL 221100Z 11006KT 080V150 9999 FEW025 BKN100 28/22 Q1015 NOSIG RMK A2997
RPLL,2025-02-22 12:00,RPLL 221200Z 11009KT 080V160 9999 FEW025 BKN100 28/21 Q1016 NOSIG RMK A3000
RPLL,2025-02-22 13:00,RPLL 221300Z 11008KT 080V160 9999 FEW025 BKN100 27/21 Q1016 NOSIG RMK A3000
RPLL,2025-02-22 14:00,RPLL 221400Z 11007KT 080V150 9999 FEW025 BKN100 27/21 Q1017 NOSIG RMK A3003
RPLL,2025-02-22 15:00,RPLL 221500Z 10006KT 070V160 9999 SCT025 OVC100 27/21 Q1017 NOSIG RMK A3003
RPLL,2025-02-22 16:00,RPLL 221600Z 11007KT 070V150 9999 FEW025 BKN100 27/21 Q1017 NOSIG RMK A3003
RPLL,2025-02-22 17:00,RPLL 221700Z 10005KT 070V130 9999 FEW025 BKN100 27/21 Q1016 NOSIG RMK A3000
RPLL,2025-02-22 18:00,RPLL 221800Z 12004KT 070V150 9999 FEW025 BKN100 26/21 Q1016 NOSIG RMK A3000
RPLL,2025-02-22 19:00,RPLL 221900Z 10004KT 060V140 9999 FEW025 BKN130 27/21 Q1016 NOSIG RMK A3000
RPLL,2025-02-22 20:00,RPLL 222000Z 08004KT 9999 FEW025 BKN130 26/21 Q1015 NOSIG RMK A2997
RPLL,2025-02-22 21:00,RPLL 222100Z 11004KT 070V160 9999 FEW025 BKN100 26/21 Q1016 NOSIG RMK A3000
RPLL,2025-02-22 22:00,RPLL 222200Z 10004KT 060V140 9999 FEW025 BKN100 27/21 Q1016 NOSIG RMK A3000
RPLL,2025-02-22 23:00,RPLL 222300Z 06003KT 350V090 9999 FEW025 SCT100 27/21 Q1017 NOSIG RMK A3003
RPLL,2025-02-23 00:00,RPLL 230000Z 12004KT 080V190 9999 FEW025 SCT100 28/21 Q1018 NOSIG RMK A3006
RPLL,2025-02-23 01:00,RPLL 230100Z 12005KT 080V150 9999 FEW025 SCT100 29/21 Q1018 NOSIG RMK A3006
RPLL,2025-02-23 02:00,RPLL 230200Z 11006KT 060V210 9999 FEW025 SCT100 30/21 Q1018 NOSIG RMK A3006
RPLL,2025-02-23 03:00,RPLL 230300Z VRB05KT 9999 FEW025 SCT100 31/21 Q1018 NOSIG RMK A3006
RPLL,2025-02-23 04:00,RPLL 230400Z 07010KT 9999 FEW025 SCT100 32/19 Q1017 NOSIG RMK A3003
RPLL,2025-02-23 05:00,RPLL 230500Z 13009KT 090V170 9999 FEW025 BKN100 32/20 Q1016 NOSIG RMK A3000
RPLL,2025-02-23 06:00,RPLL 230600Z 11011KT 080V160 9999 FEW025 BKN100 30/21 Q1015 NOSIG RMK A2997
RPLL,2025-02-23 07:00,RPLL 230700Z 12009G19KT 070V160 9999 FEW025 SCT100 31/22 Q1014 NOSIG RMK A2994
RPLL,2025-02-23 08:00,RPLL 230800Z 09012KT 060V130 9999 SCT025 BKN100 31/21 Q1015 NOSIG RMK A2997
RPLL,2025-02-23 09:00,RPLL 230900Z 11009KT 080V150 9999 FEW025 30/21 Q1015 NOSIG RMK A2997
RPLL,2025-02-23 10:00,RPLL 231000Z 09007KT 060V120 9999 FEW025 29/19 Q1016 NOSIG RMK A3000
RPLL,2025-02-23 11:00,RPLL 231100Z 09008KT 9999 FEW025 28/19 Q1016 NOSIG RMK A3000
RPLL,2025-02-23 12:00,RPLL 231200Z 10007KT 060V150 9999 FEW025 28/20 Q1017 NOSIG RMK A3003
RPLL,2025-02-23 13:00,RPLL 231300Z 10005KT 060V150 9999 FEW025 27/20 Q1017 NOSIG RMK A3003
RPLL,2025-02-23 14:00,RPLL 231400Z 12006KT 070V150 9999 FEW025 27/20 Q1018 NOSIG RMK A3006
RPLL,2025-02-23 15:00,RPLL 231500Z 11005KT 070V150 9999 FEW025 27/21 Q1018 NOSIG RMK A3006
RPLL,2025-02-23 16:00,RPLL 231600Z 11006KT 070V160 9999 FEW025 27/21 Q1018 NOSIG RMK A3006
RPLL,2025-02-23 17:00,RPLL 231700Z 10005KT 070V150 9999 FEW025 26/21 Q1017 NOSIG RMK A3006
RPLL,2025-02-23 18:00,RPLL 231800Z 08003KT 040V160 9999 FEW025 25/21 Q1017 NOSIG RMK A3003
RPLL,2025-02-23 19:00,RPLL 231900Z 03003KT 360V060 9999 FEW025 25/21 Q1016 NOSIG RMK A3000
RPLL,2025-02-23 20:00,RPLL 232000Z 06003KT 9999 FEW025 24/21 Q1016 NOSIG RMK A3000
RPLL,2025-02-23 21:00,RPLL 232100Z VRB02KT 9999 SCT025 SCT100 27/20 Q1016 NOSIG RMK A3000
RPLL,2025-02-23 22:00,RPLL 232200Z 06005KT 9999 FEW025 25/22 Q1017 NOSIG RMK A3003
RPLL,2025-02-23 23:00,RPLL 232300Z 07003KT 050V120 9999 FEW025 BKN100 26/21 Q1018 NOSIG RMK A3006
RPLL,2025-02-24 00:00,RPLL 240000Z 09004KT 050V130 9999 FEW025 BKN100 28/20 Q1018 NOSIG RMK A3006
RPLL,2025-02-24 01:00,RPLL 240100Z 09004KT 060V130 9999 FEW025 29/20 Q1019 NOSIG RMK A3009
RPLL,2025-02-24 02:00,RPLL 240200Z 13007KT 090V180 9999 FEW025 SCT100 29/20 Q1019 NOSIG RMK A3009
RPLL,2025-02-24 03:00,RPLL 240300Z 11006KT 060V150 9999 FEW025 BKN100 29/21 Q1019 NOSIG RMK A3009
RPLL,2025-02-24 04:00,RPLL 240400Z 09011KT 060V130 9999 FEW025 BKN100 29/21 Q1018 NOSIG RMK A3006
RPLL,2025-02-24 05:00,RPLL 240500Z 08013KT 060V120 9999 FEW025 BKN100 30/20 Q1017 NOSIG RMK A3003
RPLL,2025-02-24 06:00,RPLL 240600Z 10009KT 060V130 9999 FEW025 BKN100 31/21 Q1016 NOSIG RMK A3000
RPLL,2025-02-24 07:00,RPLL 240700Z 09011KT 060V130 9999 FEW025 31/19 Q1015 NOSIG RMK A2997
RPLL,2025-02-24 08:00,RPLL 240800Z 09011KT 070V140 9999 SCT025 BKN150 30/20 Q1015 NOSIG RMK A2997
RPLL,2025-02-24 09:00,RPLL 240900Z 09009KT 060V130 9999 SCT025 BKN100 30/20 Q1016 NOSIG RMK A3000
RPLL,2025-02-24 10:00,RPLL 241000Z 09011KT 060V130 9999 SCT025 29/20 Q1016 NOSIG RMK A3000
RPLL,2025-02-24 11:00,RPLL 241100Z 10006KT 060V140 9999 SCT025 BKN100 28/21 Q1017 NOSIG RMK A3003
RPLL,2025-02-24 12:00,RPLL 241200Z 11007KT 080V150 9999 SCT025 BKN100 27/21 Q1017 NOSIG RMK A3003
RPLL,2025-02-24 13:00,RPLL 241300Z 11007KT 080V150 9999 SCT025 26/21 Q1018 NOSIG RMK A3006
RPLL,2025-02-24 14:00,RPLL 241400Z 11008KT 080V140 9999 SCT025 26/21 Q1018 NOSIG RMK A3006
RPLL,2025-02-24 15:00,RPLL 241500Z 11005KT 060V160 9999 FEW025 26/21 Q1019 NOSIG RMK A3009
RPLL,2025-02-24 16:00,RPLL 241600Z 09004KT 060V140 9999 FEW025 26/21 Q1018 NOSIG RMK A3006
RPLL,2025-02-24 17:00,RPLL 241700Z 12004KT 090V150 9999 FEW025 25/21 Q1018 NOSIG RMK A3006
RPLL,2025-02-24 18:00,RPLL 241800Z 10004KT 060V140 9999 SCT025 25/22 Q1017 NOSIG RMK A3003
RPLL,2025-02-24 19:00,RPLL 241900Z 06004KT 040V130 9999 SCT025 25/21 Q1017 NOSIG RMK A3003
RPLL,2025-02-24 20:00,RPLL 242000Z 05005KT 010V070 9999 FEW025 SCT100 25/21 Q1017 NOSIG RMK A3003
RPLL,2025-02-24 21:00,RPLL 242100Z 06004KT 9999 SCT025 25/21 Q1017 NOSIG RMK A3003
RPLL,2025-02-24 22:00,RPLL 242200Z 08003KT 9999 SCT025 24/21 Q1017 NOSIG RMK A3003
RPLL,2025-02-24 23:00,RPLL 242300Z 07004KT 9999 SCT025 26/21 Q1018 NOSIG RMK A3006
RPLL,2025-02-25 00:00,RPLL 250000Z 08004KT 050V110 9999 FEW025 28/21 Q1018 NOSIG RMK A3006
RPLL,2025-02-25 01:00,RPLL 250100Z 12005KT 070V200 9999 FEW025 28/21 Q1018 NOSIG RMK A3006
RPLL,2025-02-25 02:00,RPLL 250200Z VRB04KT 9999 FEW025 BKN100 28/21 Q1019 NOSIG RMK A3009
RPLL,2025-02-25 03:00,RPLL 250300Z 10008KT 060V160 9999 SCT025 30/22 Q1018 NOSIG RMK A3006
RPLL,2025-02-25 04:00,RPLL 250400Z 12009KT 080V160 9999 SCT025 BKN100 29/22 Q1017 NOSIG RMK A3003
RPLL,2025-02-25 05:00,RPLL 250500Z 12010G21KT 080V170 9999 SCT025 BKN100 29/23 Q1016 NOSIG RMK A3000
RPLL,2025-02-25 06:00,RPLL 250600Z 11014KT 080V160 9999 SCT025 30/22 Q1015 NOSIG RMK A2997
RPLL,2025-02-25 07:00,RPLL 250700Z 11013KT 090V150 9999 SCT025 BKN100 28/22 Q1015 NOSIG RMK A2997
RPLL,2025-02-25 08:00,RPLL 250800Z 11010KT 080V160 9999 SCT025 SCT100 29/22 Q1015 NOSIG RMK A2997
RPLL,2025-02-25 09:00,RPLL 250900Z 12010KT 100V160 9999 FEW025 27/22 Q1015 NOSIG RMK A2997
RPLL,2025-02-25 10:00,RPLL 251000Z 12008KT 080V150 9999 SCT025 SCT100 27/22 Q1016 NOSIG RMK A3000
RPLL,2025-02-25 11:00,RPLL 251100Z 11009KT 070V140 9999 FEW025 26/22 Q1017 NOSIG RMK A3003
RPLL,2025-02-25 12:00,RPLL 251200Z 09006KT 060V130 9999 FEW025 25/22 Q1017 NOSIG RMK A3003
RPLL,2025-02-25 13:00,RPLL 251300Z 10005KT 060V150 9999 FEW025 26/22 Q1018 NOSIG RMK A3006
RPLL,2025-02-25 14:00,RPLL 251400Z 08005KT 040V110 9999 FEW025 26/21 Q1018 NOSIG RMK A3006
RPLL,2025-02-25 15:00,RPLL 251500Z 09005KT 060V120 9999 SCT025 26/20 Q1018 NOSIG RMK A3006
RPLL,2025-02-25 16:00,RPLL 251600Z 09005KT 060V130 9999 BKN025 26/20 Q1018 NOSIG RMK A3006
RPLL,2025-02-25 17:00,RPLL 251700Z 11006KT 070V140 9999 SCT025 BKN100 26/21 Q1018 NOSIG RMK A3006
RPLL,2025-02-25 18:00,RPLL 251800Z 07004KT 9999 SCT025 25/22 Q1017 NOSIG RMK A3003
RPLL,2025-02-25 19:00,RPLL 251900Z 08003KT 050V120 9999 FEW025 25/21 Q1017 NOSIG RMK A3003
RPLL,2025-02-25 20:00,RPLL 252000Z 08004KT 050V110 9999 SCT025 25/21 Q1016 NOSIG RMK A3000
RPLL,2025-02-25 21:00,RPLL 252100Z 07004KT 9999 SCT025 24/21 Q1016 NOSIG RMK A3000
RPLL,2025-02-25 22:00,RPLL 252200Z 08004KT 9999 FEW025 BKN100 25/20 Q1017 NOSIG RMK A3003
RPLL,2025-02-25 23:00,RPLL 252300Z 07007KT 9999 FEW025 26/20 Q1017 NOSIG RMK A3003
RPLL,2025-02-26 00:00,RPLL 260000Z 07007KT 9999 FEW025 26/20 Q1017 NOSIG RMK A3003
RPLL,2025-02-26 01:00,RPLL 260100Z 08009KT 050V130 9999 FEW025 SCT100 28/21 Q1018 NOSIG RMK A3006
RPLL,2025-02-26 02:00,RPLL 260200Z 10010KT 070V140 9999 FEW025 29/21 Q1018 NOSIG RMK A3006
RPLL,2025-02-26 03:00,RPLL 260300Z 10010KT 060V160 9999 FEW025 BKN100 29/21 Q1017 NOSIG RMK A3003
RPLL,2025-02-26 04:00,RPLL 260400Z 10010KT 070V130 9999 FEW025 BKN100 29/21 Q1017 NOSIG RMK A3003
RPLL,2025-02-26 05:00,COR RPLL 260500Z 11008KT 080V150 9999 FEW025 BKN100 29/21 Q1016 NOSIG RMK A3000
RPLL,2025-02-26 06:00,RPLL 260600Z 12008KT 070V190 9999 FEW025 BKN100 30/21 Q1015 NOSIG RMK A2997
RPLL,2025-02-26 07:00,RPLL 260700Z 12009KT 080V160 9999 SCT025 BKN100 29/21 Q1014 NOSIG RMK A2994
RPLL,2025-02-26 08:00,RPLL 260800Z 12008KT 080V180 9999 SCT025 BKN100 28/21 Q1014 NOSIG RMK A2994
RPLL,2025-02-26 09:00,RPLL 260900Z 11009KT 070V140 9999 FEW025 BKN100 28/21 Q1014 NOSIG RMK A2994
RPLL,2025-02-26 10:00,RPLL 261000Z 11009KT 070V150 9999 FEW025 BKN100 27/21 Q1015 NOSIG RMK A2997
RPLL,2025-02-26 11:00,RPLL 261100Z 11009KT 070V150 9999 FEW025 SCT100 26/20 Q1010 NOSIG RMK A3000
RPLL,2025-02-26 12:00,COR RPLL 261200Z 11008KT 070V140 9999 FEW025 26/20 Q1016 NOSIG RMK A3000
RPLL,2025-02-26 13:00,RPLL 261300Z 11008KT 080V140 9999 FEW025 26/20 Q1017 NOSIG RMK A3003
RPLL,2025-02-26 14:00,RPLL 261400Z 11005KT 060V150 9999 FEW025 26/20 Q1017 NOSIG A3003
RPLL,2025-02-26 15:00,RPLL 261500Z 10007KT 060V120 9999 FEW025 26/21 Q1017 NOSIG RMK A3003
RPLL,2025-02-26 16:00,RPLL 261600Z 11004KT 070V140 9999 FEW025 25/21 Q1017 NOSIG RMK A3003
RPLL,2025-02-26 17:00,RPLL 261700Z 10004KT 9999 FEW025 25/20 Q1016 NOSIG RMK A3000
RPLL,2025-02-26 18:00,RPLL 261800Z 11004KT 060V140 9999 FEW025 25/20 Q1016 NOSIG RMK A3000
RPLL,2025-02-26 19:00,RPLL 261900Z 13003KT 110V170 9999 FEW025 24/20 Q1015 NOSIG RMK A2997
RPLL,2025-02-26 20:00,RPLL 262000Z VRB02KT 9999 FEW025 24/20 Q1015 NOSIG RMK A2997
RPLL,2025-02-26 21:00,RPLL 262100Z 12003KT 090V160 9999 FEW025 24/20 Q1015 NOSIG RMK A2997
RPLL,2025-02-26 22:00,RPLL 262200Z 12003KT 080V160 9999 FEW025 24/20 Q1015 NOSIG RMK A2997
RPLL,2025-02-26 23:00,RPLL 262300Z 10005KT 060V130 9999 FEW025 25/20 Q1016 NOSIG RMK A3000
RPLL,2025-02-27 00:00,RPLL 270000Z 11008KT 070V160 9999 FEW025 26/20 Q1016 NOSIG RMK A3000
RPLL,2025-02-27 01:00,RPLL 270100Z 10008KT 070V150 9999 FEW025 28/19 Q1017 NOSIG RMK A3003
RPLL,2025-02-27 02:00,RPLL 270200Z 12008KT 080V170 9999 FEW025 29/19 Q1016 NOSIG RMK A3000
RPLL,2025-02-27 03:00,RPLL 270300Z 12009KT 080V170 9999 FEW025 30/19 Q1016 NOSIG RMK A3000
RPLL,2025-02-27 04:00,RPLL 270400Z 10011G21KT 070V170 9999 FEW025 30/18 Q1015 NOSIG RMK A2997
RPLL,2025-02-27 05:00,RPLL 270500Z 11011KT 070V160 9999 FEW025 31/18 Q1014 NOSIG RMK A2994
RPLL,2025-02-27 06:00,RPLL 270600Z 12011G21KT 090V160 9999 FEW025 31/19 Q1013 NOSIG RMK A2991
RPLL,2025-02-27 07:00,RPLL 270700Z 13010G20KT 080V170 9999 FEW025 SCT100 30/20 Q1012 NOSIG RMK A2988
RPLL,2025-02-27 08:00,RPLL 270800Z 12007KT 060V180 9999 FEW025 BKN100 29/20 Q1012 NOSIG RMK A2988
RPLL,2025-02-27 09:00,RPLL 270900Z 11007KT 070V180 9999 SCT025 30/18 Q1012 NOSIG RMK A2988
RPLL,2025-02-27 10:00,RPLL 271000Z 10008KT 070V140 9999 FEW025 29/18 Q1013 NOSIG RMK A2991
RPLL,2025-02-27 11:00,RPLL 271100Z 10007KT 060V140 9999 FEW025 27/18 Q1014 NOSIG RMK A2994
RPLL,2025-02-27 12:00,RPLL 271200Z 10007KT 080V160 9999 FEW025 26/18 Q1014 NOSIG RMK A2994
RPLL,2025-02-27 13:00,RPLL 271300Z 10006KT 070V130 9999 FEW025 26/19 Q1015 NOSIG RMK A2997
RPLL,2025-02-27 14:00,COR RPLL 271400Z 11006KT 080V150 9999 FEW025 26/20 Q1015 NOSIG RMK A2997
RPLL,2025-02-27 15:00,RPLL 271500Z 12005KT 080V200 9999 FEW025 25/20 Q1015 NOSIG RMK A2997
RPLL,2025-02-27 16:00,RPLL 271600Z 10005KT 070V140 9999 FEW025 25/20 Q1015 NOSIG RMK A2997
RPLL,2025-02-27 17:00,RPLL 271700Z 11004KT 080V170 9999 FEW025 25/21 Q1014 NOSIG RMK A2994
RPLL,2025-02-27 18:00,RPLL 271800Z 10004KT 070V150 9999 FEW025 25/21 Q1013 NOSIG RMK A2991
RPLL,2025-02-27 19:00,RPLL 271900Z 13005KT 070V160 9999 FEW025 SCT100 25/21 Q1013 NOSIG RMK A2991
RPLL,2025-02-27 20:00,RPLL 272000Z 09004KT 060V130 9999 FEW025 BKN100 26/22 Q1013 NOSIG RMK A2991
RPLL,2025-02-27 21:00,RPLL 272100Z 06006KT 9999 FEW025 SCT100 24/21 Q1013 NOSIG RMK A2991
RPLL,2025-02-27 22:00,RPLL 272200Z 07003KT 050V110 9999 FEW025 24/20 Q1014 NOSIG RMK A2994
RPLL,2025-02-27 23:00,RPLL 272300Z 08003KT 9999 FEW025 25/20 Q1014 NOSIG RMK A2994
RPLL,2025-02-28 00:00,RPLL 280000Z 11003KT 060V160 9999 FEW025 27/20 Q1015 NOSIG RMK A2997
RPLL,2025-02-28 01:00,RPLL 280100Z 10008KT 060V160 9999 FEW025 SCT100 28/21 Q1015 NOSIG RMK A2997
RPLL,2025-02-28 02:00,RPLL 280200Z 10009KT 060V160 9999 FEW025 30/20 Q1015 NOSIG RMK A2997
RPLL,2025-02-28 03:00,RPLL 280300Z 10010G22KT 070V150 9999 SCT025 31/19 Q1015 NOSIG RMK A2997
RPLL,2025-02-28 04:00,RPLL 280400Z 13009KT 070V160 9999 SCT025 31/20 Q1014 NOSIG RMK A2994
RPLL,2025-02-28 05:00,RPLL 280500Z 13007KT 070V190 9999 FEW025 33/20 Q1013 NOSIG RMK A2991
RPLL,2025-02-28 06:00,RPLL 280600Z 12009KT 080V180 9999 FEW025 BKN090 32/20 Q1012 NOSIG RMK A2988
RPLL,2025-02-28 07:00,RPLL 280700Z VRB09KT 9999 FEW025 BKN100 33/20 Q1012 NOSIG RMK A2988
RPLL,2025-02-28 08:00,RPLL 280800Z 12009KT 100V160 9999 SCT025 BKN100 31/20 Q1012 NOSIG RMK A2988
RPLL,2025-02-28 09:00,RPLL 280900Z 10008KT 070V140 9999 SCT025 BKN100 30/21 Q1013 NOSIG RMK A2991
RPLL,2025-02-28 10:00,RPLL 281000Z 12007KT 080V160 9999 FEW025 BKN100 28/21 Q1013 NOSIG RMK A2991
RPLL,2025-02-28 11:00,RPLL 281100Z 11006KT 070V140 9999 FEW025 BKN100 28/22 Q1014 NOSIG RMK A2994
RPLL,2025-02-28 12:00,RPLL 281200Z 12006KT 090V160 9999 FEW025 BKN100 27/22 Q1015 NOSIG RMK A2997
RPLL,2025-02-28 13:00,RPLL 281300Z 13004KT 080V170 9999 FEW025 BKN100 27/22 Q1015 NOSIG RMK A2997
RPLL,2025-02-28 14:00,RPLL 281400Z 10004KT 070V130 9999 FEW025 BKN100 27/21 Q1015 NOSIG RMK A2997
RPLL,2025-02-28 15:00,RPLL 281500Z 11003KT 080V150 9999 FEW025 BKN100 27/21 Q1015 NOSIG RMK A2997
RPLL,2025-02-28 16:00,RPLL 281600Z 10003KT 050V140 9999 FEW025 SCT100 27/21 Q1014 NOSIG RMK A2994
RPLL,2025-02-28 17:00,RPLL 281700Z VRB02KT 9999 FEW025 SCT100 26/21 Q1014 NOSIG RMK A2994
RPLL,2025-02-28 18:00,RPLL 281800Z VRB02KT 9999 FEW025 SCT100 26/21 Q1013 NOSIG RMK A2991
RPLL,2025-02-28 19:00,RPLL 281900Z 11003KT 080V150 9999 FEW025 26/21 Q1013 NOSIG RMK A2991
RPLL,2025-02-28 20:00,RPLL 282000Z VRB02KT 9999 FEW025 26/21 Q1013 NOSIG RMK A2991
RPLL,2025-02-28 21:00,RPLL 282100Z 12004KT 050V160 9999 FEW025 26/21 Q1013 NOSIG RMK A2991
RPLL,2025-02-28 22:00,RPLL 282200Z 09003KT 050V130 9999 FEW025 26/21 Q1013 NOSIG RMK A2991
RPLL,2025-02-28 23:00,RPLL 282300Z 06004KT 9999 FEW025 26/22 Q1014 NOSIG RMK A2994
RPLL,2025-03-01 00:00,RPLL 010000Z 11005KT 060V150 9999 FEW025 28/21 Q1014 NOSIG RMK A2994
RPLL,2025-03-01 01:00,RPLL 010100Z 10006KT 050V150 9999 FEW025 29/21 Q1014 NOSIG RMK A2994
RPLL,2025-03-01 02:00,RPLL 010200Z 10007KT 060V140 9999 FEW025 31/21 Q1014 NOSIG RMK A2994
RPLL,2025-03-01 03:00,RPLL 010300Z 11007KT 070V150 9999 SCT025 32/22 Q1013 NOSIG RMK A2991
RPLL,2025-03-01 04:00,RPLL 010400Z VRB06KT 9999 FEW025 33/22 Q1012 NOSIG RMK A2988
RPLL,2025-03-01 05:00,RPLL 010500Z 15009KT 090V240 9999 FEW025 33/23 Q1011 NOSIG RMK A2985
RPLL,2025-03-01 06:00,RPLL 010600Z 12012G24KT 070V170 9999 FEW025 32/22 Q1010 NOSIG RMK A2983
RPLL,2025-03-01 07:00,RPLL 010700Z 12009KT 080V180 9999 FEW025 BKN100 32/22 Q1010 NOSIG RMK A2983
RPLL,2025-03-01 08:00,RPLL 010800Z 11011KT 080V140 9999 FEW025 BKN100 31/22 Q1010 NOSIG RMK A2983
RPLL,2025-03-01 09:00,RPLL 010900Z 10009KT 050V140 9999 FEW025 BKN100 30/21 Q1010 NOSIG RMK A2983
RPLL,2025-03-01 10:00,RPLL 011000Z 10007KT 070V140 9999 FEW025 BKN100 29/22 Q1011 NOSIG RMK A2985
RPLL,2025-03-01 11:00,RPLL 011100Z 13006KT 080V180 9999 FEW025 BKN100 29/22 Q1012 NOSIG RMK A2988
RPLL,2025-03-01 12:00,RPLL 011200Z 13004KT 080V180 9999 FEW025 BKN100 28/22 Q1013 NOSIG RMK A2991
RPLL,2025-03-01 13:00,RPLL 011300Z 13005KT 080V180 9999 FEW025 BKN100 28/22 Q1013 NOSIG RMK A2991
RPLL,2025-03-01 14:00,RPLL 011400Z 12005KT 090V160 9999 FEW025 BKN100 28/22 Q1013 NOSIG RMK A2991
RPLL,2025-03-01 15:00,RPLL 011500Z 12004KT 080V160 9999 FEW025 BKN100 28/23 Q1013 NOSIG RMK A2991
RPLL,2025-03-01 16:00,RPLL 011600Z 12003KT 070V170 9999 FEW025 BKN100 27/23 Q1013 NOSIG RMK A2991
RPLL,2025-03-01 17:00,RPLL 011700Z 09004KT 060V150 9999 FEW025 BKN100 28/23 Q1013 NOSIG RMK A2991
RPLL,2025-03-01 18:00,RPLL 011800Z VRB02KT 9999 FEW025 SCT100 27/23 Q1012 NOSIG RMK A2988
RPLL,2025-03-01 19:00,RPLL 011900Z VRB02KT 9999 -SHRA SCT025 BKN090 27/23 Q1011 NOSIG RMK A2985
RPLL,2025-03-01 20:00,RPLL 012000Z 16003KT 110V230 9999 FEW025 BKN100 26/25 Q1011 NOSIG RMK A2985
RPLL,2025-03-01 21:00,RPLL 012100Z VRB02KT 9999 FEW025 SCT150 26/25 Q1011 NOSIG RMK A2985
RPLL,2025-03-01 22:00,RPLL 012200Z VRB02KT 9999 FEW025 BKN130 26/25 Q1012 NOSIG RMK A2988
RPLL,2025-03-01 23:00,RPLL 012300Z VRB01KT 9999 FEW025 BKN100 27/24 Q1012 NOSIG RMK A2988
RPLL,2025-03-02 00:00,RPLL 020000Z 09006KT 060V130 9999 FEW025 BKN100 28/23 Q1013 NOSIG RMK A2991
RPLL,2025-03-02 01:00,RPLL 020100Z 09010KT 9999 FEW025 30/23 Q1013 NOSIG RMK A2991
RPLL,2025-03-02 02:00,RPLL 020200Z 10008KT 060V140 9999 FEW025 32/23 Q1013 NOSIG RMK A2991
RPLL,2025-03-02 03:00,RPLL 020300Z 13008KT 080V200 9999 SCT025 32/24 Q1012 NOSIG RMK A2988
RPLL,2025-03-02 04:00,RPLL 020400Z 13009KT 100V210 9999 FEW025 33/24 Q1011 NOSIG RMK A2985
RPLL,2025-03-02 05:00,RPLL 020500Z 11010KT 060V150 9999 FEW025 33/24 Q1010 NOSIG RMK A2983
RPLL,2025-03-02 06:00,RPLL 020600Z VRB08KT 9999 FEW025 34/24 Q1009 NOSIG RMK A2980
RPLL,2025-03-02 07:00,RPLL 020700Z 14009KT 110V220 9999 FEW025 33/24 Q1008 NOSIG RMK A2977
RPLL,2025-03-02 08:00,RPLL 020800Z 13010G22KT 080V180 9999 FEW025 32/24 Q1008 NOSIG RMK A2977
RPLL,2025-03-02 09:00,RPLL 020900Z 13010KT 080V170 9999 FEW025 31/24 Q1009 NOSIG RMK A2980
RPLL,2025-03-02 10:00,RPLL 021000Z 12007KT 040V210 9999 FEW025 30/23 Q1009 NOSIG RMK A2980
RPLL,2025-03-02 11:00,RPLL 021100Z 12008KT 080V170 9999 FEW025 29/23 Q1010 NOSIG RMK A2983
RPLL,2025-03-02 12:00,RPLL 021200Z 10007KT 070V130 9999 FEW025 29/23 Q1011 NOSIG RMK A2985
RPLL,2025-03-02 13:00,RPLL 021300Z 09009KT 9999 FEW025 28/23 Q1012 NOSIG RMK A2988
RPLL,2025-03-02 14:00,RPLL 021400Z 10006KT 070V130 9999 FEW025 28/22 Q1011 NOSIG RMK A2985
RPLL,2025-03-02 15:00,RPLL 021500Z 09005KT 060V120 9999 FEW025 28/21 Q1012 NOSIG RMK A2988
RPLL,2025-03-02 16:00,RPLL 021600Z VRB02KT 9999 FEW025 28/21 Q1012 NOSIG RMK A2988
RPLL,2025-03-02 17:00,RPLL 021700Z 08004KT 9999 FEW025 27/20 Q1011 NOSIG RMK A2985
RPLL,2025-03-02 18:00,RPLL 021800Z 12003KT 9999 FEW025 27/20 Q1010 NOSIG RMK A2983
RPLL,2025-03-02 19:00,RPLL 021900Z VRB02KT 9999 FEW025 BKN100 27/21 Q1010 NOSIG RMK A2983
RPLL,2025-03-02 20:00,RPLL 022000Z 11003KT 080V150 9999 FEW025 27/21 Q1010 NOSIG RMK A2983
RPLL,2025-03-02 21:00,RPLL 022100Z 08004KT 060V130 9999 FEW025 27/22 Q1010 NOSIG RMK A2983
RPLL,2025-03-02 22:00,RPLL 022200Z 07004KT 030V090 9999 FEW025 26/21 Q1010 NOSIG RMK A2983
RPLL,2025-03-02 23:00,RPLL 022300Z VRB02KT 9999 FEW025 27/22 Q1011 NOSIG RMK A2985
RPLL,2025-03-03 00:00,RPLL 030000Z 11003KT 050V170 9999 FEW025 29/22 Q1011 NOSIG RMK A2985
RPLL,2025-03-03 01:00,RPLL 030100Z 10007KT 070V140 9999 FEW025 30/22 Q1012 NOSIG RMK A2988
RPLL,2025-03-03 02:00,RPLL 030200Z 09008KT 060V140 9999 FEW025 32/23 Q1012 NOSIG RMK A2988
RPLL,2025-03-03 03:00,RPLL 030300Z 11010KT 080V180 9999 FEW025 32/22 Q1011 NOSIG RMK A2985
RPLL,2025-03-03 04:00,RPLL 030400Z 12010G21KT 070V160 9999 FEW025 34/23 Q1010 NOSIG RMK A2983
RPLL,2025-03-03 05:00,RPLL 030500Z VRB09G20KT 9999 FEW025 33/23 Q1010 NOSIG RMK A2983
RPLL,2025-03-03 06:00,RPLL 030600Z 11011KT 080V150 9999 FEW025 BKN100 32/23 Q1009 NOSIG RMK A2980
RPLL,2025-03-03 07:00,RPLL 030700Z 11012KT 060V130 9999 FEW025 BKN100 32/23 Q1009 NOSIG RMK A2980
RPLL,2025-03-03 08:00,RPLL 030800Z 11010KT 070V150 9999 SCT025 BKN100 30/23 Q1009 NOSIG RMK A2980
RPLL,2025-03-03 09:00,RPLL 030900Z 10007KT 070V130 9999 SCT025 BKN100 30/22 Q1009 NOSIG RMK A2980
RPLL,2025-03-03 10:00,RPLL 031000Z 12004KT 080V170 9999 FEW025 BKN100 29/23 Q1009 NOSIG RMK A2980
RPLL,2025-03-03 11:00,RPLL 031100Z 14006KT 090V190 9999 FEW025 BKN100 29/23 Q1009 NOSIG RMK A2980
RPLL,2025-03-03 12:00,RPLL 031200Z 14005KT 070V210 9999 FEW025 BKN100 29/23 Q1010 NOSIG RMK A2983
RPLL,2025-03-03 13:00,RPLL 031300Z 13006KT 080V200 9999 FEW025 BKN100 28/23 Q1011 NOSIG RMK A2985
RPLL,2025-03-03 14:00,RPLL 031400Z 12005KT 080V180 9999 SCT025 BKN100 28/23 Q1011 NOSIG RMK A2985
RPLL,2025-03-03 15:00,RPLL 031500Z 11006KT 070V140 9999 SCT025 BKN100 28/23 Q1011 NOSIG RMK A2985
RPLL,2025-03-03 16:00,RPLL 031600Z 11006KT 070V160 9999 SCT025 BKN100 28/22 Q1011 NOSIG RMK A2985
RPLL,2025-03-03 17:00,RPLL 031700Z 12004KT 070V150 9999 SCT025 BKN100 28/23 Q1010 NOSIG RMK A2983
RPLL,2025-03-03 18:00,RPLL 031800Z 10003KT 070V160 9999 SCT025 BKN100 28/22 Q1010 NOSIG RMK A2983
RPLL,2025-03-03 19:00,RPLL 031900Z 13003KT 110V180 9999 SCT025 BKN100 28/22 Q1009 NOSIG RMK A2980
RPLL,2025-03-03 20:00,RPLL 032000Z 14003KT 100V170 9999 FEW025 SCT100 28/23 Q1009 NOSIG RMK A2980
RPLL,2025-03-03 21:00,RPLL 032100Z 14003KT 090V170 9999 SCT025 BKN100 28/23 Q1009 NOSIG RMK A2980
RPLL,2025-03-03 22:00,RPLL 032200Z 13003KT 070V180 9999 SCT025 BKN100 28/23 Q1010 NOSIG RMK A2983
RPLL,2025-03-03 23:00,RPLL 032300Z 12005KT 070V160 9999 SCT025 BKN100 28/23 Q1010 NOSIG RMK A2983
RPLL,2025-03-04 00:00,RPLL 040000Z 11006KT 080V150 9999 SCT025 BKN100 28/23 Q1011 NOSIG RMK A2985
RPLL,2025-03-04 01:00,RPLL 040100Z 11011KT 080V160 9999 SCT025 BKN100 30/23 Q1011 NOSIG RMK A2985
RPLL,2025-03-04 02:00,RPLL 040200Z 11011KT 070V150 9999 FEW025 31/23 Q1011 NOSIG RMK A2985
RPLL,2025-03-04 03:00,RPLL 040300Z 13009KT 060V190 9999 FEW025 32/24 Q1011 NOSIG RMK A2985
RPLL,2025-03-04 04:00,RPLL 040400Z 13010KT 080V170 9999 FEW025 32/24 Q1010 NOSIG RMK A2983
RPLL,2025-03-04 05:00,RPLL 040500Z 13012KT 090V160 9999 FEW025 32/24 Q1009 NOSIG RMK A2980
RPLL,2025-03-04 06:00,RPLL 040600Z 13009KT 080V180 9999 FEW025 33/24 Q1008 NOSIG RMK A2977
RPLL,2025-03-04 07:00,RPLL 040700Z 13009KT 080V180 9999 FEW025 33/24 Q1008 NOSIG RMK A2977
RPLL,2025-03-04 08:00,RPLL 040800Z 12008KT 080V180 9999 FEW025 33/23 Q1007 NOSIG RMK A2974
RPLL,2025-03-04 09:00,RPLL 040900Z 11008KT 070V150 9999 FEW025 32/23 Q1008 NOSIG RMK A2977
RPLL,2025-03-04 10:00,RPLL 041000Z 07007KT 070V160 9999 FEW025 SCT100 31/23 Q1008 NOSIG RMK A2977
RPLL,2025-03-04 11:00,RPLL 041100Z 12007KT 080V160 9999 FEW025 SCT100 30/23 Q1009 NOSIG RMK A2980
RPLL,2025-03-04 12:00,RPLL 041200Z 12007KT 080V180 9999 FEW025 BKN100 29/23 Q1009 NOSIG RMK A2980
RPLL,2025-03-04 13:00,RPLL 041300Z 12006KT 080V170 9999 FEW025 SCT100 29/23 Q1010 NOSIG RMK A2983
RPLL,2025-03-04 14:00,RPLL 041400Z 12005KT 080V150 9999 FEW025 SCT100 29/23 Q1010 NOSIG RMK A2983
RPLL,2025-03-04 15:00,RPLL 041500Z 12005KT 080V170 9999 FEW025 SCT100 28/23 Q1010 NOSIG RMK A2983
RPLL,2025-03-04 16:00,RPLL 041600Z 13003KT 090V180 9999 FEW025 SCT100 28/23 Q1010 NOSIG RMK A2983
RPLL,2025-03-04 17:00,RPLL 041700Z 14004KT 090V180 9999 FEW025 BKN150 28/24 Q1010 NOSIG RMK A2983
RPLL,2025-03-04 18:00,RPLL 041800Z 14004KT 050V190 9999 FEW025 28/23 Q1010 NOSIG RMK A2983
RPLL,2025-03-04 19:00,RPLL 041900Z 14004KT 090V190 9999 FEW025 BKN100 28/24 Q1009 NOSIG RMK A2980
RPLL,2025-03-04 20:00,RPLL 042000Z 14003KT 060V210 9999 FEW025 BKN100 28/24 Q1009 NOSIG RMK A2980
RPLL,2025-03-04 21:00,RPLL 042100Z 14003KT 090V190 9999 FEW025 27/24 Q1009 NOSIG RMK A2980
RPLL,2025-03-04 22:00,RPLL 042200Z VRB02KT 9999 FEW025 27/24 Q1010 NOSIG RMK A2983
RPLL,2025-03-04 23:00,RPLL 042300Z 11004KT 080V150 9999 FEW025 28/24 Q1011 NOSIG RMK A2985
RPLL,2025-03-05 00:00,RPLL 050000Z 12004KT 050V180 9999 FEW025 30/24 Q1011 NOSIG RMK A2985
RPLL,2025-03-05 01:00,RPLL 050100Z VRB03KT 9999 FEW025 31/24 Q1012 NOSIG RMK A2988
RPLL,2025-03-05 02:00,RPLL 050200Z VRB07KT 9999 FEW025 30/23 Q1012 NOSIG RMK A2988
RPLL,2025-03-05 03:00,RPLL 050300Z 28006KT 9999 FEW025 31/24 Q1011 NOSIG RMK A2985
RPLL,2025-03-05 04:00,RPLL 050400Z 32003KT 270V010 9999 FEW025 32/24 Q1010 NOSIG RMK A2983
RPLL,2025-03-05 05:00,RPLL 050500Z 15006KT 080V210 9999 FEW025 35/23 Q1009 NOSIG RMK A2980
RPLL,2025-03-05 06:00,RPLL 050600Z 15007KT 9999 FEW025 35/22 Q1008 NOSIG RMK A2977
RPLL,2025-03-05 07:00,RPLL 050700Z 13007KT 070V190 9999 FEW025 35/22 Q1008 NOSIG RMK A2977
RPLL,2025-03-05 08:00,RPLL 050800Z 13006KT 070V180 9999 FEW025 35/23 Q1007 NOSIG RMK A2974
RPLL,2025-03-05 09:00,RPLL 050900Z 12008KT 080V160 9999 FEW025 33/23 Q1008 NOSIG RMK A2977
RPLL,2025-03-05 10:00,RPLL 051000Z 13007KT 070V170 9999 SCT025 32/23 Q1008 NOSIG RMK A2977
RPLL,2025-03-05 11:00,RPLL 051100Z 12006KT 090V170 9999 FEW025 BKN100 31/24 Q1009 NOSIG RMK A2980
RPLL,2025-03-05 12:00,RPLL 051200Z 14006KT 070V220 9999 FEW025 SCT100 30/24 Q1009 NOSIG RMK A2980
RPLL,2025-03-05 13:00,RPLL 051300Z 14007KT 080V180 9999 FEW025 29/25 Q1010 NOSIG RMK A2983
RPLL,2025-03-05 14:00,RPLL 051400Z 14007KT 100V200 9999 FEW025 BKN100 29/25 Q1011 NOSIG RMK A2985
RPLL,2025-03-05 15:00,RPLL 051500Z 13007KT 070V170 9999 FEW025 SCT100 29/24 Q1011 NOSIG RMK A2985
RPLL,2025-03-05 16:00,RPLL 051600Z 13005KT 080V180 9999 SCT025 29/24 Q1011 NOSIG RMK A2985
RPLL,2025-03-05 17:00,RPLL 051700Z 12004KT 080V170 9999 FEW025 28/24 Q1011 NOSIG RMK A2985
RPLL,2025-03-05 18:00,RPLL 051800Z VRB02KT 9999 FEW025 28/24 Q1010 NOSIG RMK A2983
RPLL,2025-03-05 19:00,RPLL 051900Z 11004KT 060V150 9999 FEW025 28/23 Q1010 NOSIG RMK A2983
RPLL,2025-03-05 20:00,RPLL 052000Z 11003KT 070V160 9999 FEW025 27/24 Q1010 NOSIG RMK A2983
RPLL,2025-03-05 21:00,RPLL 052100Z 12003KT 190V150 9999 FEW025 27/24 Q1011 NOSIG RMK A2985
RPLL,2025-03-05 22:00,RPLL 052200Z 13003KT 090V170 9999 FEW025 SCT100 27/24 Q1012 NOSIG RMK A2988
RPLL,2025-03-05 23:00,RPLL 052300Z VRB02KT 9999 FEW025 28/24 Q1012 NOSIG RMK A2988
RPLL,2025-03-06 00:00,RPLL 060000Z 12005KT 090V160 9999 FEW025 30/23 Q1013 NOSIG RMK A2991
RPLL,2025-03-06 01:00,RPLL 060100Z 12004KT 050V220 9999 FEW025 31/23 Q1013 NOSIG RMK A2991
RPLL,2025-03-06 02:00,RPLL 060200Z 13005KT 080V200 9999 FEW025 32/23 Q1013 NOSIG RMK A2991
RPLL,2025-03-06 03:00,RPLL 060300Z 11006KT 040V200 9999 FEW025 33/23 Q1012 NOSIG RMK A2988
RPLL,2025-03-06 04:00,RPLL 060400Z VRB05KT 9999 FEW025 34/23 Q1011 NOSIG RMK A2985
RPLL,2025-03-06 05:00,RPLL 060500Z 13006KT 060V210 9999 FEW025 34/23 Q1010 NOSIG RMK A2983
RPLL,2025-03-06 06:00,RPLL 060600Z 14006KT 070V210 9999 FEW025 35/23 Q1009 NOSIG RMK A2980
RPLL,2025-03-06 07:00,RPLL 060700Z 13008KT 070V180 9999 FEW025 35/23 Q1008 NOSIG RMK A2977
RPLL,2025-03-06 08:00,RPLL 060800Z 14009KT 080V190 9999 FEW025 34/22 Q1008 NOSIG RMK A2977
RPLL,2025-03-06 09:00,RPLL 060900Z 14007KT 100V180 9999 FEW025 33/22 Q1008 NOSIG RMK A2977
RPLL,2025-03-06 10:00,RPLL 061000Z 14007KT 080V190 9999 FEW025 31/23 Q1009 NOSIG RMK A2980
RPLL,2025-03-06 11:00,RPLL 061100Z 14006KT 090V200 9999 FEW025 SCT100 30/24 Q1010 NOSIG RMK A2983
RPLL,2025-03-06 12:00,RPLL 061200Z 14008KT 090V190 9999 FEW025 29/24 Q1011 NOSIG RMK A2985
RPLL,2025-03-06 13:00,RPLL 061300Z 14005KT 060V210 9999 FEW025 29/24 Q1011 NOSIG RMK A2985
RPLL,2025-03-06 14:00,RPLL 061400Z 12005KT 090V160 9999 FEW025 29/23 Q1012 NOSIG RMK A2988
RPLL,2025-03-06 15:00,RPLL 061500Z 14004KT 070V180 9999 FEW025 29/23 Q1012 NOSIG RMK A2988
RPLL,2025-03-06 17:00,RPLL 061700Z VRB02KT 9999 FEW025 28/22 Q1011 NOSIG RMK A2985
RPLL,2025-03-06 18:00,RPLL 061800Z VRB02KT 9999 FEW025 28/23 Q1011 NOSIG RMK A2985
RPLL,2025-03-06 19:00,RPLL 061900Z 15003KT 110V210 9999 FEW025 BKN130 28/23 Q1010 NOSIG RMK A2983
RPLL,2025-03-06 20:00,RPLL 062000Z 13003KT 080V170 9999 FEW025 27/22 Q1010 NOSIG RMK A2983
RPLL,2025-03-06 21:00,RPLL 062100Z VRB02KT 9999 FEW025 27/22 Q1010 NOSIG RMK A2983
RPLL,2025-03-06 22:00,RPLL 062200Z 11002KT 9999 FEW025 27/22 Q1010 NOSIG RMK A2983
RPLL,2025-03-06 23:00,RPLL 062300Z VRB01KT 9999 FEW025 27/22 Q1011 NOSIG RMK A2985
RPLL,2025-03-07 00:00,RPLL 070000Z 11005KT 070V180 9999 FEW025 29/22 Q1012 NOSIG RMK A2988
RPLL,2025-03-07 01:00,RPLL 070100Z 13006KT 090V180 9999 FEW025 31/22 Q1012 NOSIG RMK A2988
RPLL,2025-03-07 02:00,RPLL 070200Z 11006KT 060V190 9999 FEW025 32/23 Q1012 NOSIG RMK A2988
RPLL,2025-03-07 03:00,RPLL 070300Z 13006KT 090V190 9999 FEW025 BKN100 32/24 Q1011 NOSIG RMK A2985
RPLL,2025-03-07 04:00,RPLL 070400Z 11007KT 070V150 9999 SCT025 BKN100 32/23 Q1010 NOSIG RMK A2983
RPLL,2025-03-07 05:00,RPLL 070500Z 12007KT 080V180 9999 SCT025 BKN100 32/23 Q1009 NOSIG RMK A2980
RPLL,2025-03-07 06:00,RPLL 070600Z 12008KT 080V160 9999 SCT025 BKN100 32/24 Q1009 NOSIG RMK A2980
RPLL,2025-03-07 07:00,RPLL 070700Z 09011KT 060V150 9999 -SHRA FEW023 SCT025 BKN090 30/23 Q1009 NOSIG RMK A2980
RPLL,2025-03-07 08:00,RPLL 070800Z 11009KT 070V170 9999 SCT025 BKN100 31/24 Q1009 NOSIG RMK A2980
RPLL,2025-03-07 09:00,RPLL 070900Z 10007KT 060V140 9999 SCT025 BKN100 30/23 Q1009 NOSIG RMK A2980
RPLL,2025-03-07 10:00,RPLL 071000Z 11006KT 070V140 9999 FEW025 BKN100 29/24 Q1009 NOSIG RMK A2980
RPLL,2025-03-07 11:00,RPLL 071100Z 12009KT 090V160 9999 FEW025 SCT100 28/23 Q1010 NOSIG RMK A2983
RPLL,2025-03-07 12:00,RPLL 071200Z 11005KT 070V160 9999 FEW025 SCT100 28/23 Q1011 NOSIG RMK A2985
RPLL,2025-03-07 13:00,RPLL 071300Z 11007KT 9999 FEW025 BKN100 28/23 Q1011 NOSIG RMK A2985
RPLL,2025-03-07 14:00,RPLL 071400Z 11005KT 070V150 9999 FEW025 BKN100 28/23 Q1012 NOSIG RMK A2988
RPLL,2025-03-07 15:00,RPLL 071500Z 11007KT 070V150 9999 FEW025 BKN100 28/23 Q1012 NOSIG RMK A2988
RPLL,2025-03-07 16:00,RPLL 071600Z 11003KT 070V160 9999 SCT025 BKN100 28/23 Q1012 NOSIG RMK A2988
RPLL,2025-03-07 17:00,RPLL 071700Z 11004KT 080V140 9999 SCT025 BKN100 28/23 Q1011 NOSIG RMK A2985
RPLL,2025-03-07 18:00,RPLL 071800Z 09005KT 9999 FEW025 BKN100 28/24 Q1011 NOSIG RMK A2985
RPLL,2025-03-07 19:00,RPLL 071900Z 10004KT 070V140 9999 FEW025 BKN100 27/23 Q1010 NOSIG RMK A2983
RPLL,2025-03-07 20:00,RPLL 072000Z 08004KT 050V110 9999 FEW025 BKN090 27/23 Q1010 NOSIG RMK A2983
RPLL,2025-03-07 21:00,RPLL 072100Z 11003KT 080V170 9999 FEW025 BKN100 27/23 Q1010 NOSIG RMK A2983
RPLL,2025-03-07 22:00,RPLL 072200Z 08004KT 050V120 9999 FEW025 SCT100 27/23 Q1011 NOSIG RMK A2985
RPLL,2025-03-07 23:00,RPLL 072300Z 35006KT 300V040 9999 SCT025 BKN100 27/24 Q1012 NOSIG RMK A2988
RPLL,2025-03-08 00:00,RPLL 080000Z 02006KT 350V050 9999 SCT025 BKN100 28/24 Q1013 NOSIG RMK A2991
RPLL,2025-03-08 01:00,RPLL 080100Z 35004KT 280V040 9999 SCT025 BKN100 28/23 Q1013 NOSIG RMK A2991
RPLL,2025-03-08 02:00,RPLL 080200Z VRB05KT 9999 -SHRA SCT025TCU BKN090 29/23 Q1013 NOSIG RMK A2991 TCU NW
RPLL,2025-03-08 03:00,RPLL 080300Z VRB02KT 9999 SCT025 BKN100 27/25 Q1013 NOSIG RMK A2991
RPLL,2025-03-08 04:00,COR RPLL 080400Z VRB04KT 9999 VCSH SCT025 BKN100 28/25 Q1012 NOSIG RMK A2988 VCSH N
RPLL,2025-03-08 05:00,RPLL 080500Z 02009KT 350V050 9000 -SHRA FEW023CB SCT025 BKN090 27/25 Q1012 NOSIG RMK A2988 CB N
RPLL,2025-03-08 06:00,RPLL 080600Z 01006KT 9999 FEW025 BKN100 27/25 Q1011 NOSIG RMK A2985
RPLL,2025-03-08 07:00,RPLL 080700Z 32004KT 270V020 9999 FEW025 BKN100 28/25 Q1011 NOSIG RMK A2985
RPLL,2025-03-08 08:00,RPLL 080800Z 31005KT 250V350 9999 FEW025 BKN130 28/25 Q1010 NOSIG RMK A2983
RPLL,2025-03-08 09:00,RPLL 080900Z 26004KT 230V300 9999 FEW025 SCT130 29/26 Q1011 NOSIG RMK A2985
RPLL,2025-03-08 10:00,RPLL 081000Z 28003KT 230V350 9999 FEW025 SCT130 29/25 Q1011 NOSIG RMK A2985
RPLL,2025-03-08 11:00,COR RPLL 081100Z 11004KT 070V130 9999 FEW025 SCT100 29/24 Q1012 NOSIG RMK A2988
RPLL,2025-03-08 12:00,RPLL 081200Z 11007KT 080V150 9999 FEW025 SCT100 28/23 Q1013 NOSIG RMK A2991
RPLL,2025-03-08 13:00,RPLL 081300Z 11004KT 070V160 9999 FEW025 BKN100 28/23 Q1013 NOSIG RMK A2991
RPLL,2025-03-08 14:00,RPLL 081400Z 11004KT 070V150 9999 FEW025 BKN100 28/23 Q1014 NOSIG RMK A2994
RPLL,2025-03-08 15:00,RPLL 081500Z 08004KT 9999 FEW025 BKN100 28/23 Q1014 NOSIG RMK A2994
RPLL,2025-03-08 16:00,RPLL 081600Z 11004KT 080V160 9999 FEW025 BKN100 27/23 Q1014 NOSIG RMK A2994
RPLL,2025-03-08 17:00,RPLL 081700Z 11004KT 080V140 9999 FEW025 BKN100 27/23 Q1014 NOSIG RMK A2994
RPLL,2025-03-08 18:00,RPLL 081800Z 11004KT 080V170 9999 FEW025 BKN100 28/23 Q1013 NOSIG RMK A2991
RPLL,2025-03-08 19:00,RPLL 081900Z 12005KT 060V180 9999 FEW025 BKN100 27/24 Q1013 NOSIG RMK A2991
RPLL,2025-03-08 20:00,RPLL 082000Z 14005KT 090V200 9999 -SHRA FEW025 OVC100 26/25 Q1013 NOSIG RMK A2991
RPLL,2025-03-08 21:00,RPLL 082100Z 07005KT 9999 -RA FEW025 OVC100 26/25 Q1012 NOSIG RMK A2988
RPLL,2025-03-08 22:00,RPLL 082200Z 13003KT 100V170 9999 -RA FEW025 BKN100 26/25 Q1013 NOSIG RMK A2991
RPLL,2025-03-08 23:00,RPLL 082300Z 17003KT 130V230 9999 -RA FEW025 BKN100 26/25 Q1014 NOSIG RMK A2994
RPLL,2025-03-09 00:00,RPLL 090000Z VRB02KT 9999 FEW025 SCT100 26/25 Q1014 NOSIG RMK A2994
RPLL,2025-03-09 01:00,RPLL 090100Z 17003KT 070V230 9999 FEW025 BKN100 29/25 Q1015 NOSIG RMK A2997
RPLL,2025-03-09 02:00,RPLL 090200Z 11005KT 050V170 9999 SCT025 BKN100 29/25 Q1015 NOSIG RMK A2997
RPLL,2025-03-09 03:00,RPLL 090300Z 11005KT 070V230 9999 SCT025 BKN100 30/24 Q1015 NOSIG RMK A2997
RPLL,2025-03-09 04:00,RPLL 090400Z 11008KT 070V150 9999 FEW025 BKN100 31/24 Q1014 NOSIG RMK A2994
RPLL,2025-03-09 05:00,RPLL 090500Z 10009KT 060V140 9999 FEW025 BKN100 31/23 Q1014 NOSIG RMK A2994
RPLL,2025-03-09 06:00,RPLL 090600Z 09011KT 060V130 9999 FEW025 BKN100 31/23 Q1013 NOSIG RMK A2991
RPLL,2025-03-09 07:00,RPLL 090700Z 10008KT 070V150 9999 FEW025 BKN130 31/23 Q1012 NOSIG RMK A2988
RPLL,2025-03-09 08:00,RPLL 090800Z 10011KT 070V150 9999 FEW025 SCT150 30/23 Q1012 NOSIG RMK A2988
RPLL,2025-03-09 09:00,RPLL 090900Z 11010KT 070V150 9999 FEW025 SCT150 29/23 Q1013 NOSIG RMK A2991
RPLL,2025-03-09 10:00,RPLL 091000Z 11007KT 070V160 9999 FEW025 SCT150 29/22 Q1013 NOSIG RMK A2991
RPLL,2025-03-09 11:00,RPLL 091100Z 08007KT 9999 FEW025 29/22 Q1014 NOSIG RMK A2994
RPLL,2025-03-09 12:00,RPLL 091200Z 10004KT 070V130 9999 FEW025 SCT130 28/22 Q1014 NOSIG RMK A2994
RPLL,2025-03-09 13:00,RPLL 091300Z 09006KT 9999 FEW025 SCT130 28/23 Q1015 NOSIG RMK A2997
RPLL,2025-03-09 14:00,RPLL 091400Z 12004KT 060V170 9999 FEW025 28/23 Q1016 NOSIG RMK A3000
RPLL,2025-03-09 15:00,RPLL 091500Z 09006KT 050V130 8000 -SHRA SCT023 OVC090 27/23 Q1017 NOSIG RMK A3003
RPLL,2025-03-09 16:00,RPLL 091600Z 09003KT 050V130 9999 FEW025 SCT100 26/24 Q1016 NOSIG RMK A3000
RPLL,2025-03-09 17:00,RPLL 091700Z 08004KT 9999 FEW025 BKN100 26/23 Q1015 NOSIG RMK A2997
RPLL,2025-03-09 18:00,RPLL 091800Z 10003KT 9999 FEW025 26/23 Q1014 NOSIG RMK A2994
RPLL,2025-03-09 19:00,RPLL 091900Z 36004KT 9999 FEW025 SCT150 26/23 Q1014 NOSIG RMK A2994
RPLL,2025-03-09 20:00,RPLL 092000Z VRB02KT 9999 FEW025 BKN100 26/23 Q1014 NOSIG RMK A2994
RPLL,2025-03-09 21:00,RPLL 092100Z 02004KT 340V040 9999 FEW025 BKN130 26/23 Q1014 NOSIG RMK A2994
RPLL,2025-03-09 22:00,RPLL 092200Z 08003KT 060V120 9999 FEW025 SCT130 26/23 Q1015 NOSIG RMK A2997
RPLL,2025-03-09 23:00,RPLL 092300Z 04003KT 340V100 9999 FEW025 27/23 Q1015 NOSIG RMK A2997
RPLL,2025-03-10 00:00,COR RPLL 100000Z 11003KT 070V170 9999 FEW025 BKN100 28/23 Q1016 NOSIG RMK A3000
RPLL,2025-03-10 01:00,RPLL 100100Z 11006KT 060V190 9999 FEW025 SCT100 30/23 Q1016 NOSIG RMK A3000
RPLL,2025-03-10 02:00,RPLL 100200Z 10008KT 070V140 9999 FEW025 BKN100 30/23 Q1016 NOSIG RMK A3000
RPLL,2025-03-10 03:00,RPLL 100300Z 10011KT 070V140 9999 FEW025 32/22 Q1015 NOSIG RMK A2997
RPLL,2025-03-10 04:00,RPLL 100400Z 09010KT 040V120 9999 FEW025 33/22 Q1015 NOSIG RMK A2997
RPLL,2025-03-10 05:00,COR RPLL 100500Z 10010KT 070V160 9999 FEW025 33/23 Q1014 NOSIG RMK A2994
RPLL,2025-03-10 06:00,RPLL 100600Z 12012KT 090V150 9999 FEW025 BKN100 32/23 Q1014 NOSIG RMK A2994
RPLL,2025-03-10 07:00,RPLL 100700Z 11008KT 060V150 9999 FEW025 BKN100 32/23 Q1013 NOSIG RMK A2991
RPLL,2025-03-10 08:00,RPLL 100800Z 10010KT 060V140 9999 FEW025 BKN100 32/22 Q1013 NOSIG RMK A2991
RPLL,2025-03-10 09:00,RPLL 100900Z 08012KT 060V120 9999 FEW025 31/21 Q1013 NOSIG RMK A2991
RPLL,2025-03-10 10:00,RPLL 101000Z 09008KT 070V130 9999 FEW025 30/22 Q1013 NOSIG RMK A2991
RPLL,2025-03-10 11:00,RPLL 101100Z 09006KT 9999 FEW025 BKN100 30/22 Q1014 NOSIG RMK A2994
RPLL,2025-03-10 12:00,RPLL 101200Z 12003KT 080V170 9999 FEW025 BKN100 29/23 Q1015 NOSIG RMK A2997
RPLL,2025-03-10 13:00,RPLL 101300Z 10003KT 070V140 9999 SCT025 29/23 Q1015 NOSIG RMK A2997
RPLL,2025-03-10 14:00,RPLL 101400Z VRB02KT 9999 FEW025 28/23 Q1015 NOSIG RMK A2997
RPLL,2025-03-10 15:00,RPLL 101500Z 12003KT 070V200 9999 FEW025 28/23 Q1015 NOSIG RMK A2997
RPLL,2025-03-10 16:00,RPLL 101600Z 10003KT 070V140 9999 FEW025 28/23 Q1015 NOSIG RMK A2997
RPLL,2025-03-10 17:00,RPLL 101700Z VRB02KT 9999 SCT025 27/23 Q1014 NOSIG RMK A2994
RPLL,2025-03-10 18:00,RPLL 101800Z 10003KT 070V130 9999 FEW025 27/23 Q1014 NOSIG RMK A2994
RPLL,2025-03-10 19:00,RPLL 101900Z VRB02KT 9999 FEW025 27/23 Q1013 NOSIG RMK A2991
RPLL,2025-03-10 20:00,RPLL 102000Z VRB02KT 9999 FEW025 27/23 Q1013 NOSIG RMK A2991
RPLL,2025-03-10 21:00,RPLL 102100Z 10006KT 060V140 9999 FEW025 SCT100 27/23 Q1013 NOSIG RMK A2991
RPLL,2025-03-10 22:00,RPLL 102200Z 10006KT 060V130 9999 SCT025 27/23 Q1013 NOSIG RMK A2991
RPLL,2025-03-10 23:00,RPLL 102300Z 07005KT 9999 FEW025 27/24 Q1014 NOSIG RMK A2994
RPLL,2025-03-11 00:00,RPLL 110000Z 08004KT 040V110 9999 FEW025 29/23 Q1014 NOSIG RMK A2994
RPLL,2025-03-11 01:00,RPLL 110100Z 10006KT 050V140 9999 FEW025 31/23 Q1014 NOSIG RMK A2994
RPLL,2025-03-11 02:00,RPLL 110200Z 27005KT 220V300 9999 FEW025 BKN100 29/23 Q1014 NOSIG RMK A2994
RPLL,2025-03-11 03:00,RPLL 110300Z 29005KT 250V330 9999 FEW025 BKN100 31/24 Q1014 NOSIG RMK A2994
RPLL,2025-03-11 04:00,RPLL 110400Z 11009KT 070V150 9999 FEW025 BKN100 32/24 Q1013 NOSIG RMK A2991
RPLL,2025-03-11 05:00,RPLL 110500Z 12011G21KT 080V150 9999 SCT025 33/24 Q1012 NOSIG RMK A2988
RPLL,2025-03-11 06:00,RPLL 110600Z 12012G30KT 080V170 9999 SCT025 33/24 Q1011 NOSIG RMK A2985
RPLL,2025-03-11 07:00,RPLL 110700Z 12012KT 090V170 9999 SCT025 32/24 Q1010 NOSIG RMK A2983
RPLL,2025-03-11 08:00,RPLL 110800Z 13010KT 070V170 9999 SCT025TCU 32/24 Q1010 NOSIG RMK A2983 TCU NW
RPLL,2025-03-11 09:00,RPLL 110900Z 11008KT 070V180 9999 SCT025 31/23 Q1011 NOSIG RMK A2985
RPLL,2025-03-11 10:00,RPLL 111000Z 11008KT 060V140 9999 FEW025 30/22 Q1011 NOSIG RMK A2985
RPLL,2025-03-11 11:00,RPLL 111100Z 11008KT 080V160 9999 FEW025 29/23 Q1012 NOSIG RMK A2988
RPLL,2025-03-11 12:00,RPLL 111200Z 10004KT 070V140 9999 FEW025 29/23 Q1013 NOSIG RMK A2991
RPLL,2025-03-11 13:00,RPLL 111300Z 12004KT 090V150 9999 FEW025 28/23 Q1013 NOSIG RMK A2991
RPLL,2025-03-11 14:00,RPLL 111400Z VRB02KT 9999 FEW025 28/23 Q1013 NOSIG RMK A2991
RPLL,2025-03-11 15:00,RPLL 111500Z 12003KT 070V200 9999 FEW025 SCT100 28/23 Q1013 NOSIG RMK A2991
RPLL,2025-03-11 16:00,RPLL 111600Z 11004KT 060V140 9999 FEW025 28/23 Q1013 NOSIG RMK A2991
RPLL,2025-03-11 17:00,RPLL 111700Z 12005KT 080V160 9999 FEW025 27/23 Q1012 NOSIG RMK A2988
RPLL,2025-03-11 18:00,RPLL 111800Z 12005KT 070V160 9999 FEW025 SCT100 27/23 Q1011 NOSIG RMK A2985
RPLL,2025-03-11 19:00,RPLL 111900Z 12005KT 060V190 9999 FEW025 27/24 Q1011 NOSIG RMK A2985
RPLL,2025-03-11 20:00,RPLL 112000Z 07006KT 9999 FEW025 26/24 Q1011 NOSIG RMK A2985
RPLL,2025-03-11 21:00,RPLL 112100Z 07005KT 9999 FEW025 26/23 Q1011 NOSIG RMK A2985
RPLL,2025-03-11 22:00,RPLL 112200Z VRB02KT 9999 FEW025 26/23 Q1012 NOSIG RMK A2988
RPLL,2025-03-11 23:00,RPLL 112300Z VRB02KT 9999 FEW025 SCT100 27/23 Q1013 NOSIG RMK A2991 METAR RPLB 112300Z 10006KT 9999 FEW020 26/23 Q1013 NOSIG RMK A2991
RPLL,2025-03-12 00:00,RPLL 120000Z 08007KT 060V120 9999 FEW025 SCT100 28/22 Q1013 NOSIG RMK A2991 METAR RPLB 120000Z 09006KT 9999 FEW020 29/23 Q1014 NOSIG RMK A2994
RPLL,2025-03-12 01:00,RPLL 120100Z 08006KT 050V130 9999 FEW025 SCT100 30/23 Q1014 NOSIG RMK A2994
RPLL,2025-03-12 02:00,RPLL 120200Z 09008KT 070V150 9999 FEW025 31/23 Q1014 NOSIG RMK A2994
RPLL,2025-03-12 03:00,RPLL 120300Z 10007KT 050V170 9999 FEW025 32/24 Q1013 NOSIG RMK A2991
RPLL,2025-03-12 04:00,RPLL 120400Z 13007KT 050V190 9999 FEW025 34/23 Q1012 NOSIG RMK A2988
RPLL,2025-03-12 05:00,RPLL 120500Z 11009KT 080V160 9999 FEW025 33/23 Q1011 NOSIG RMK A2985
RPLL,2025-03-12 06:00,RPLL 120600Z 11011KT 070V140 9999 FEW025 34/22 Q1010 NOSIG RMK A2983
RPLL,2025-03-12 07:00,RPLL 120700Z 11010KT 070V170 9999 FEW025 34/22 Q1009 NOSIG RMK A2980
RPLL,2025-03-12 08:00,RPLL 120800Z 13010KT 080V170 9999 FEW025 33/23 Q1009 NOSIG RMK A2980
RPLL,2025-03-12 09:00,RPLL 120900Z 11008KT 9999 FEW025 32/23 Q1010 NOSIG RMK A2983
RPLL,2025-03-12 10:00,RPLL 121000Z 11009KT 070V150 9999 FEW025 31/22 Q1011 NOSIG RMK A2985
RPLL,2025-03-12 11:00,RPLL 121100Z 11008KT 080V150 9999 FEW025 30/23 Q1012 NOSIG RMK A2988
RPLL,2025-03-12 12:00,RPLL 121200Z 11005KT 070V150 9999 FEW025 29/23 Q1012 NOSIG RMK A2988
RPLL,2025-03-12 13:00,RPLL 121300Z 11008G18KT 070V140 9999 FEW025 29/23 Q1013 NOSIG RMK A2991
RPLL,2025-03-12 14:00,RPLL 121400Z 10008KT 070V140 9999 FEW025 28/23 Q1013 NOSIG RMK A2991
RPLL,2025-03-12 15:00,RPLL 121500Z 10006KT 070V130 9999 FEW025 28/23 Q1013 NOSIG RMK A2991
RPLL,2025-03-12 16:00,RPLL 121600Z 09006KT 060V120 9999 FEW025 28/22 Q1013 NOSIG RMK A2991
RPLL,2025-03-12 17:00,RPLL 121700Z 09004KT 060V120 9999 FEW025 28/22 Q1012 NOSIG RMK A2988
RPLL,2025-03-12 18:00,RPLL 121800Z 07003KT 030V110 9999 FEW025 27/21 Q1011 NOSIG RMK A2985
RPLL,2025-03-12 19:00,RPLL 121900Z VRB02KT 9999 FEW025 27/21 Q1011 NOSIG RMK A2985
RPLL,2025-03-12 20:00,RPLL 122000Z 08003KT 9999 FEW025 26/21 Q1011 NOSIG RMK A2985
RPLL,2025-03-12 21:00,RPLL 122100Z 08003KT 9999 FEW025 26/23 Q1011 NOSIG RMK A2985
RPLL,2025-03-12 22:00,RPLL 122200Z 07005KT 9999 FEW025 27/23 Q1012 NOSIG RMK A2988
RPLL,2025-03-12 23:00,RPLL 122300Z 06004KT 9999 FEW025 27/23 Q1013 NOSIG RMK A2991
RPLL,2025-03-13 00:00,RPLL 130000Z 09003KT 040V150 9999 FEW025 30/23 Q1013 NOSIG RMK A2991
RPLL,2025-03-13 01:00,RPLL 130100Z 10005KT 050V170 9999 FEW025 31/23 Q1014 NOSIG RMK A2994
RPLL,2025-03-13 02:00,RPLL 130200Z 11008KT 060V160 9999 FEW025 32/23 Q1014 NOSIG RMK A2994
RPLL,2025-03-13 03:00,RPLL 130300Z 11011KT 070V140 9999 FEW025 33/22 Q1013 NOSIG RMK A2991
RPLL,2025-03-13 04:00,RPLL 130400Z 12010KT 070V170 9999 FEW025 34/22 Q1012 NOSIG RMK A2988
RPLL,2025-03-13 05:00,RPLL 130500Z 12011G21KT 090V180 9999 FEW025 34/22 Q1011 NOSIG RMK A2985
RPLL,2025-03-13 06:00,RPLL 130600Z 12012KT 090V170 9999 FEW025 33/22 Q1011 NOSIG RMK A2985
RPLL,2025-03-13 07:00,RPLL 130700Z 10010G20KT 070V140 9999 FEW025 33/22 Q1010 NOSIG RMK A2983
RPLL,2025-03-13 08:00,RPLL 130800Z 10010KT 060V150 9999 FEW025 33/20 Q1010 NOSIG RMK A2983
RPLL,2025-03-13 09:00,RPLL 130900Z 11007KT 070V160 9999 FEW025 32/21 Q1011 NOSIG RMK A2985
RPLL,2025-03-13 10:00,RPLL 131000Z 11007KT 070V150 9999 FEW025 31/21 Q1011 NOSIG RMK A2985
RPLL,2025-03-13 11:00,RPLL 131100Z 11006KT 070V150 9999 FEW025 30/21 Q1011 NOSIG RMK A2985
RPLL,2025-03-13 12:00,RPLL 131200Z 10005KT 070V140 9999 FEW025 30/21 Q1012 NOSIG RMK A2988
RPLL,2025-03-13 13:00,RPLL 131300Z 11004KT 080V160 9999 FEW025 29/21 Q1013 NOSIG RMK A2991
RPLL,2025-03-13 14:00,RPLL 131400Z 12005KT 080V180 9999 FEW025 28/23 Q1013 NOSIG RMK A2991
RPLL,2025-03-13 15:00,RPLL 131500Z 13007KT 100V170 9999 FEW025 28/22 Q1013 NOSIG RMK A2991
RPLL,2025-03-13 16:00,RPLL 131600Z 12006KT 080V160 9999 FEW025 28/22 Q1013 NOSIG RMK A2991
RPLL,2025-03-13 17:00,RPLL 131700Z 11006KT 070V150 9999 FEW025 28/22 Q1013 NOSIG RMK A2991
RPLL,2025-03-13 18:00,RPLL 131800Z 10005KT 070V130 9999 FEW025 27/23 Q1012 NOSIG RMK A2988
RPLL,2025-03-13 19:00,RPLL 131900Z 11003KT 080V140 9999 FEW025 27/22 Q1012 NOSIG RMK A2988
RPLL,2025-03-13 20:00,RPLL 132000Z 11003KT 080V160 9999 FEW025 27/22 Q1012 NOSIG RMK A2988
RPLL,2025-03-13 21:00,RPLL 132100Z 10003KT 070V130 9999 FEW025 26/22 Q1012 NOSIG RMK A2988
RPLL,2025-03-13 22:00,RPLL 132200Z 09002KT 9999 FEW025 26/22 Q1013 NOSIG RMK A2991
RPLL,2025-03-13 23:00,COR RPLL 132300Z 10003KT 8000 FEW025 27/22 Q1014 NOSIG RMK A2994
RPLL,2025-03-14 00:00,RPLL 140000Z 11004KT 060V150 9000 FEW025 29/22 Q1014 NOSIG RMK A2994
RPLL,2025-03-14 01:00,RPLL 140100Z 09005KT 050V140 9000 FEW025 30/21 Q1014 NOSIG RMK A2994
RPLL,2025-03-14 02:00,RPLL 140200Z VRB08KT 9999 FEW025 32/22 Q1014 NOSIG RMK A2994
RPLL,2025-03-14 03:00,RPLL 140300Z 11011KT 070V170 9999 FEW025 32/21 Q1014 NOSIG RMK A2994
RPLL,2025-03-14 04:00,RPLL 140400Z 11012KT 080V160 9999 FEW025 33/21 Q1013 NOSIG RMK A2991
RPLL,2025-03-14 05:00,COR RPLL 140500Z 12010KT 080V180 9999 FEW025 33/21 Q1012 NOSIG RMK A2988
RPLL,2025-03-14 06:00,RPLL 140600Z 13010KT 050V210 9999 FEW025 33/22 Q1011 NOSIG RMK A2985
RPLL,2025-03-14 07:00,RPLL 140700Z 13012G23KT 090V160 9999 FEW025 33/22 Q1011 NOSIG RMK A2985
RPLL,2025-03-14 08:00,RPLL 140800Z 13011G21KT 090V160 9999 FEW025 32/21 Q1011 NOSIG RMK A2985
RPLL,2025-03-14 09:00,RPLL 140900Z 13009KT 090V180 9999 FEW025 32/21 Q1011 NOSIG RMK A2985
RPLL,2025-03-14 10:00,RPLL 141000Z 13006KT 090V170 9999 FEW025 30/22 Q1012 NOSIG RMK A2988
RPLL,2025-03-14 11:00,RPLL 141100Z 12007KT 080V170 9999 FEW025 29/21 Q1012 NOSIG RMK A2988
RPLL,2025-03-14 12:00,RPLL 141200Z 11007KT 070V140 9999 FEW025 29/21 Q1013 NOSIG RMK A2991
RPLL,2025-03-14 13:00,RPLL 141300Z 10005KT 070V140 9999 FEW025 28/21 Q1013 NOSIG RMK A2991
RPLL,2025-03-14 14:00,RPLL 141400Z 11006KT 080V140 9999 FEW025 28/22 Q1013 NOSIG RMK A2991
RPLL,2025-03-14 15:00,RPLL 141500Z 10004KT 060V140 9999 FEW025 27/22 Q1013 NOSIG RMK A2991
RPLL,2025-03-14 16:00,RPLL 141600Z 12006KT 090V180 9999 FEW025 27/22 Q1013 NOSIG RMK A2991
RPLL,2025-03-14 17:00,RPLL 141700Z 10005KT 060V140 9999 FEW025 27/22 Q1012 NOSIG RMK A2988
RPLL,2025-03-14 18:00,RPLL 141800Z 13005KT 090V190 9999 FEW025 27/21 Q1012 NOSIG RMK A2988
RPLL,2025-03-14 19:00,RPLL 141900Z 11003KT 080V150 9999 FEW025 26/22 Q1011 NOSIG RMK A2985
RPLL,2025-03-14 20:00,RPLL 142000Z 07003KT 9999 FEW025 25/21 Q1011 NOSIG RMK A2985
RPLL,2025-03-14 21:00,RPLL 142100Z 09002KT 9999 FEW025 25/22 Q1011 NOSIG RMK A2985
RPLL,2025-03-14 22:00,RPLL 142200Z 09003KT 9999 SCT025 26/21 Q1011 NOSIG RMK A2985
RPLL,2025-03-14 23:00,RPLL 142300Z VRB02KT 9999 FEW025 SCT100 27/21 Q1012 NOSIG RMK A2988
RPLL,2025-03-15 00:00,RPLL 150000Z 09006KT 050V130 9999 FEW025 28/22 Q1013 NOSIG RMK A2991
RPLL,2025-03-15 01:00,RPLL 150100Z 10004KT 050V150 9999 FEW025 BKN100 29/21 Q1013 NOSIG RMK A2991
RPLL,2025-03-15 02:00,RPLL 150200Z 27006KT 230V340 9999 FEW025 SCT100 29/22 Q1013 NOSIG RMK A2991
RPLL,2025-03-15 03:00,RPLL 150300Z 30008KT 270V330 9999 FEW025 BKN100 29/22 Q1013 NOSIG RMK A2991
RPLL,2025-03-15 04:00,RPLL 150400Z 28007KT 230V330 9999 FEW025 BKN100 30/22 Q1012 NOSIG RMK A2988
RPLL,2025-03-15 05:00,RPLL 150500Z 30007KT 9999 FEW025 BKN100 31/22 Q1011 NOSIG RMK A2985
RPLL,2025-03-15 06:00,RPLL 150600Z 31006KT 260V340 9999 SCT025 BKN100 31/21 Q1010 NOSIG RMK A2983
RPLL,2025-03-15 07:00,RPLL 150700Z 14004KT 080V200 9999 SCT025 BKN100 32/21 Q1010 NOSIG RMK A2983
RPLL,2025-03-15 08:00,RPLL 150800Z 12004KT 060V200 9999 FEW025 33/21 Q1009 NOSIG RMK A2980
RPLL,2025-03-15 09:00,RPLL 150900Z 14007KT 100V180 9999 FEW025 32/22 Q1009 NOSIG RMK A2980
RPLL,2025-03-15 10:00,RPLL 151000Z 15004KT 090V210 9999 FEW025 31/23 Q1009 NOSIG RMK A2980
RPLL,2025-03-15 11:00,RPLL 151100Z 15004KT 080V200 9999 FEW025 30/23 Q1010 NOSIG RMK A2983
RPLL,2025-03-15 12:00,RPLL 151200Z VRB02KT 9999 FEW025 29/23 Q1010 NOSIG RMK A2983
RPLL,2025-03-15 13:00,RPLL 151300Z 15003KT 120V210 9999 FEW025 29/23 Q1011 NOSIG RMK A2985
RPLL,2025-03-15 14:00,RPLL 151400Z 14004KT 100V180 9999 FEW025 28/23 Q1011 NOSIG RMK A2985
RPLL,2025-03-15 15:00,RPLL 151500Z 14004KT 100V180 9999 FEW025 28/23 Q1011 NOSIG RMK A2985
RPLL,2025-03-15 16:00,RPLL 151600Z 12004KT 060V170 9999 SCT025 28/23 Q1011 NOSIG RMK A2985
RPLL,2025-03-15 17:00,RPLL 151700Z 11003KT 060V170 9999 FEW025 27/23 Q1011 NOSIG RMK A2985
RPLL,2025-03-15 18:00,RPLL 151800Z VRB02KT 9999 FEW025 27/23 Q1010 NOSIG RMK A2983
RPLL,2025-03-15 19:00,RPLL 151900Z VRB01KT 9999 FEW025 26/23 Q1010 NOSIG RMK A2983
RPLL,2025-03-15 20:00,RPLL 152000Z VRB02KT 9999 FEW025 26/24 Q1010 NOSIG RMK A2983
RPLL,2025-03-15 21:00,RPLL 152100Z VRB01KT 9999 FEW025 26/24 Q1010 NOSIG RMK A2983
RPLL,2025-03-15 22:00,RPLL 152200Z VRB01KT 9999 FEW025 25/23 Q1011 NOSIG RMK A2985
RPLL,2025-03-15 23:00,RPLL 152300Z 03004KT 330V060 9999 FEW025 27/22 Q1012 NOSIG RMK A2988
RPLL,2025-03-16 00:00,RPLL 160000Z 02005KT 310V080 9999 FEW025 29/23 Q1012 NOSIG RMK A2988
RPLL,2025-03-16 01:00,RPLL 160100Z 36006KT 300V050 9999 FEW025 30/23 Q1012 NOSIG RMK A2988
RPLL,2025-03-16 02:00,RPLL 160200Z VRB04KT 9999 FEW025 31/23 Q1012 NOSIG RMK A2988
RPLL,2025-03-16 03:00,RPLL 160300Z 29009KT 9999 FEW025 31/24 Q1012 NOSIG RMK A2988
RPLL,2025-03-16 04:00,RPLL 160400Z 30008KT 260V340 9999 FEW025 31/23 Q1011 NOSIG RMK A2985
RPLL,2025-03-16 05:00,RPLL 160500Z 27007KT 210V340 9999 FEW025 31/23 Q1010 NOSIG RMK A2983
RPLL,2025-03-16 06:00,RPLL 160600Z 27007KT 230V300 9999 FEW025 32/24 Q1009 NOSIG RMK A2980
RPLL,2025-03-16 07:00,RPLL 160700Z 16005KT 090V240 9999 FEW025 33/22 Q1008 NOSIG RMK A2977
RPLL,2025-03-16 08:00,RPLL 160800Z 14006KT 100V210 9999 FEW025 33/22 Q1008 NOSIG RMK A2977
RPLL,2025-03-16 09:00,RPLL 160900Z VRB06KT 9999 FEW025 33/21 Q1008 NOSIG RMK A2977
RPLL,2025-03-16 10:00,RPLL 161000Z VRB05KT 9999 FEW025 31/22 Q1009 NOSIG RMK A2980
RPLL,2025-03-16 11:00,RPLL 161100Z 12007KT 080V170 9999 FEW025 30/21 Q1009 NOSIG RMK A2980
RPLL,2025-03-16 12:00,RPLL 161200Z 14008KT 090V180 9999 FEW025 29/23 Q1010 NOSIG RMK A2983
RPLL,2025-03-16 13:00,RPLL 161300Z 13006KT 090V180 9999 FEW025 29/22 Q1010 NOSIG RMK A2983
RPLL,2025-03-16 14:00,RPLL 161400Z 13004KT 070V170 9999 FEW025 28/21 Q1011 NOSIG RMK A2985
RPLL,2025-03-16 15:00,RPLL 161500Z 13003KT 090V180 9999 FEW025 BKN100 28/21 Q1011 NOSIG RMK A2985
RPLL,2025-03-16 16:00,RPLL 161600Z 15003KT 100V200 9999 FEW025 SCT100 28/22 Q1011 NOSISG RMK A2985
RPLL,2025-03-16 17:00,RPLL 161700Z 14004KT 090V170 9999 FEW025 28/22 Q1010 NOSIG RMK A2983
RPLL,2025-03-16 18:00,RPLL 161800Z 12004KT 070V160 9999 FEW025 27/22 Q1010 NOSIG RMK A2983
RPLL,2025-03-16 19:00,RPLL 161900Z 11004KT 080V170 9999 FEW025 27/22 Q1010 NOSIG RMK A2983
RPLL,2025-03-16 20:00,RPLL 162000Z 09003KT 060V130 9999 FEW025 27/23 Q1010 NOSIG RMK A2983
RPLL,2025-03-16 21:00,RPLL 162100Z 09003KT 070V130 9999 FEW025 26/23 Q1010 NOSIG RMK A2983
RPLL,2025-03-16 22:00,RPLL 162200Z 06005KT 9999 SCT025 26/23 Q1011 NOSIG RMK A2985
RPLL,2025-03-16 23:00,RPLL 162300Z 10003KT 070V150 9999 SCT025 28/22 Q1011 NOSIG RMK A2985
RPLL,2025-03-17 00:00,RPLL 170000Z 08003KT 010V120 9999 SCT025 BKN100 29/22 Q1012 NOSIG RMK A2988
RPLL,2025-03-17 01:00,RPLL 170100Z VRB03KT 9999 FEW025 SCT100 30/23 Q1012 NOSIG RMK A2988
RPLL,2025-03-17 02:00,RPLL 170200Z 28005KT 220V350 9999 SCT025 BKN100 29/23 Q1012 NOSIG RMK A2988
RPLL,2025-03-17 02:42,RPLL 170242Z 20003KT 130V250 9999 -SHRA SCT025 BKN100 28/25 Q1012 NOSIG RMK A2988
RPLL,2025-03-17 03:00,RPLL 170300Z 18003KT 150V210 9999 FEW025 BKN100 28/24 Q1012 NOSIG RMK A2988
RPLL,2025-03-17 04:00,RPLL 170400Z VRB03KT 9999 SCT025 BKN100 30/23 Q1011 NOSIG RMK A2985
RPLL,2025-03-17 05:00,RPLL 170500Z VRB03KT 9999 FEW025 BKN100 30/25 Q1010 NOSIG RMK A2983
RPLL,2025-03-17 06:00,RPLL 170600Z 12007KT 070V180 9999 FEW025 BKN100 30/23 Q1010 NOSIG RMK A2983
RPLL,2025-03-17 07:00,RPLL 170700Z 12010KT 080V180 9999 SCT025 BKN100 30/23 Q1009 NOSIG RMK A2980
RPLL,2025-03-17 08:00,RPLL 170800Z 11008KT 080V170 9999 SCT025 BKN100 29/23 Q1009 NOSIG RMK A2980
RPLL,2025-03-17 09:00,RPLL 170900Z 12009KT 9999 SCT025 29/23 Q1010 NOSIG RMK A2983
RPLL,2025-03-17 10:00,RPLL 171000Z 12009KT 070V170 9999 SCT025 28/23 Q1010 NOSIG RMK A2983
RPLL,2025-03-17 11:00,RPLL 171100Z 12006KT 050V150 9999 FEW025 SCT100 28/23 Q1010 NOSIG RMK A2983
RPLL,2025-03-17 12:00,RPLL 171200Z 11007KT 080V150 9999 FEW025 SCT100 28/22 Q1011 NOSIG RMK A2985
RPLL,2025-03-17 13:00,RPLL 171300Z 11008KT 070V160 9999 FEW025 27/22 Q1012 NOSIG RMK A2988
RPLL,2025-03-17 14:00,RPLL 171400Z 11008KT 080V150 9999 FEW025 28/22 Q1013 NOSIG RMK A2991
RPLL,2025-03-17 15:00,RPLL 171500Z 12007KT 080V170 9999 FEW025 BKN100 27/22 Q1013 NOSIG RMK A2991
RPLL,2025-03-17 16:00,RPLL 171600Z 11005KT 080V170 9999 FEW025 BKN100 27/22 Q1012 NOSIG RMK A2988
RPLL,2025-03-17 17:00,RPLL 171700Z 12005KT 080V150 9999 FEW025 27/22 Q1012 NOSIG RMK A2988
RPLL,2025-03-17 18:00,RPLL 171800Z 07003KT 040V140 9999 FEW025 BKN100 27/22 Q1012 NOSIG RMK A2988
RPLL,2025-03-17 19:00,RPLL 171900Z 05003KT 9999 FEW025 BKN100 27/22 Q1012 NOSIG RMK A2988
RPLL,2025-03-17 20:00,RPLL 172000Z VRB01KT 9999 FEW025 BKN100 27/21 Q1012 NOSIG RMK A2988
RPLL,2025-03-17 21:00,RPLL 172100Z 35004KT 290V040 9999 FEW025 BKN100 27/22 Q1012 NOSIG RMK A2988
RPLL,2025-03-17 22:00,RPLL 172200Z 02004KT 320V070 9999 FEW025 BKN100 27/22 Q1013 NOSIG RMK A2991
RPLL,2025-03-17 23:00,RPLL 172300Z 03004KT 330V090 9999 FEW025 BKN100 27/21 Q1014 NOSIG RMK A2994
RPLL,2025-03-18 00:00,RPLL 180000Z 00000KT 9999 FEW025 29/22 Q1014 NOSIG RMK A2994
RPLL,2025-03-18 01:00,RPLL 180100Z 28007KT 250V340 9999 FEW025 BKN100 28/22 Q1014 NOSIG RMK A2994
RPLL,2025-03-18 02:00,RPLL 180200Z 31005KT 270V330 9999 FEW025 BKN100 29/22 Q1014 NOSIG RMK A2994
RPLL,2025-03-18 03:00,RPLL 180300Z 26005KT 9999 SCT025 BKN100 29/23 Q1014 NOSIG RMK A2994
RPLL,2025-03-18 04:00,RPLL 180400Z VRB04KT 9999 FEW025 BKN100 30/23 Q1013 NOSIG RMK A2991
RPLL,2025-03-18 05:00,RPLL 180500Z VRB04KT 9999 FEW025 BKN100 32/23 Q1012 NOSIG RMK A2988
RPLL,2025-03-18 06:00,RPLL 180600Z VRB03KT 9999 FEW025 BKN100 32/23 Q1011 NOSIG RMK A2985
RPLL,2025-03-18 07:00,RPLL 180700Z 12008KT 080V180 9999 FEW025 BKN100 32/23 Q1010 NOSIG RMK A2983
RPLL,2025-03-18 08:00,RPLL 180800Z 14009KT 090V180 9999 FEW025 BKN100 31/23 Q1010 NOSIG RMK A2983
RPLL,2025-03-18 09:00,RPLL 180900Z 12008KT 100V160 9999 FEW025 SCT100 30/23 Q1010 NOSIG RMK A2983
RPLL,2025-03-18 10:00,RPLL 181000Z 12007KT 080V160 9999 FEW025 29/23 Q1011 NOSIG RMK A2985
RPLL,2025-03-18 11:00,RPLL 181100Z 13006KT 070V160 9999 FEW025 29/23 Q1011 NOSIG RMK A2985
RPLL,2025-03-18 12:00,RPLL 181200Z 12007KT 080V150 9999 FEW025 28/23 Q1012 NOSIG RMK A2988
RPLL,2025-03-18 13:00,RPLL 181300Z 12005KT 090V170 9999 FEW025 28/23 Q1013 NOSIG RMK A2991
RPLL,2025-03-18 14:00,RPLL 181400Z 12007KT 060V170 9999 FEW025 28/23 Q1014 NOSIG RMK A2994
RPLL,2025-03-18 15:00,RPLL 181500Z 11006KT 070V150 9999 FEW025 28/23 Q1014 NOSIG RMK A2994
RPLL,2025-03-18 16:00,RPLL 181600Z 11006KT 070V140 9999 FEW025 27/23 Q1014 NOSIG RMK A2994
RPLL,2025-03-18 17:00,RPLL 181700Z VRB02KT 9999 FEW025 27/23 Q1014 NOSIG RMK A2994
RPLL,2025-03-18 18:00,RPLL 181800Z VRB02KT 9999 FEW025 SCT100 27/23 Q1013 NOSIG RMK A2991
RPLL,2025-03-18 19:00,RPLL 181900Z 00000KT 9999 FEW025 26/23 Q1013 NOSIG RMK A2991
RPLL,2025-03-18 20:00,RPLL 182000Z 00000KT 9999 FEW025 SCT130 26/23 Q1013 NOSIG RMK A2991
RPLL,2025-03-18 21:00,RPLL 182100Z VRB01KT 9999 FEW025 26/23 Q1013 NOSIG RMK A2991
RPLL,2025-03-18 22:00,RPLL 182200Z 00000KT 9999 FEW025 26/23 Q1014 NOSIG RMK A2994
RPLL,2025-03-18 23:00,RPLL 182300Z 00000KT 9999 SCT025 BKN100 27/23 Q1014 NOSIG RMK A2994
RPLL,2025-03-19 00:00,RPLL 190000Z VRB02KT 9999 SCT025 BKN100 28/23 Q1015 NOSIG RMK A2997
RPLL,2025-03-19 01:00,RPLL 190100Z VRB02KT 9999 FEW025 30/23 Q1015 NOSIG RMK A2997
RPLL,2025-03-19 02:00,RPLL 190200Z 29005KT 260V360 9999 FEW025 BKN100 29/23 Q1015 NOSIG RMK A2997
RPLL,2025-03-19 03:00,RPLL 190300Z VRB05KT 9999 FEW025 BKN100 30/23 Q1015 NOSIG RMK A2997
RPLL,2025-03-19 04:00,RPLL 190400Z 30005KT 230V350 9999 FEW025 BKN100 31/23 Q1014 NOSIG RMK A2994
RPLL,2025-03-19 05:00,RPLL 190500Z VRB03KT 9999 FEW025 BKN100 32/22 Q1013 NOSIG RMK A2991
RPLL,2025-03-19 06:00,RPLL 190600Z VRB01KT 9999 FEW025 BKN100 32/22 Q1012 NOSIG RMK A2988
RPLL,2025-03-19 07:00,RPLL 190700Z 14007KT 100V180 9999 FEW025 BKN100 31/23 Q1011 NOSIG RMK A2985
RPLL,2025-03-19 08:00,RPLL 190800Z 12010KT 080V150 9999 FEW025 BKN100 30/23 Q1011 NOSIG RMK A2985
RPLL,2025-03-19 09:00,RPLL 190900Z 11010KT 080V150 9999 FEW025 BKN100 29/23 Q1012 NOSIG RMK A2988
RPLL,2025-03-19 10:00,RPLL 191000Z 12009KT 080V160 9999 FEW025 BKN100 28/22 Q1012 NOSIG RMK A2988
RPLL,2025-03-19 11:00,RPLL 191100Z 12009KT 080V160 9999 SCT025 BKN090 28/23 Q1013 NOSIG RMK A2991
RPLL,2025-03-19 12:00,RPLL 191200Z 12008KT 070V180 9999 FEW025 SCT100 27/23 Q1014 NOSIG RMK A2994
RPLL,2025-03-19 13:00,RPLL 191300Z 11010KT 080V140 9999 FEW025 SCT100 27/22 Q1015 NOSIG RMK A2997
RPLL,2025-03-19 14:00,RPLL 191400Z 11008KT 070V150 9999 FEW025 BKN100 27/22 Q1015 NOSIG RMK A2997
RPLL,2025-03-19 15:00,RPLL 191500Z 11006KT 070V160 9999 SCT025 BKN100 27/22 Q1015 NOSIG RMK A2997
RPLL,2025-03-19 16:00,RPLL 191600Z VRB06KT 9999 SCT025 BKN100 27/21 Q1015 NOSIG RMK A2997
RPLL,2025-03-19 17:00,RPLL 191700Z 11006KT 060V160 9999 SCT025 27/22 Q1015 NOSIG RMK A2997
RPLL,2025-03-19 18:00,RPLL 191800Z 11005KT 060V150 9999 SCT025 BKN100 27/22 Q1015 NOSIG RMK A2997
RPLL,2025-03-19 19:00,RPLL 191900Z 11007KT 080V140 9999 SCT025 BKN090 26/23 Q1014 NOSIG RMK A2994
RPLL,2025-03-19 20:00,RPLL 192000Z 10005KT 070V140 9999 SCT025 BKN090 26/23 Q1014 NOSIG RMK A2994
RPLL,2025-03-19 21:00,RPLL 192100Z 09003KT 050V150 9999 FEW025 BKN100 26/22 Q1014 NOSIG RMK A2994
RPLL,2025-03-19 22:00,RPLL 192200Z 32003KT 250V350 9999 SCT025 BKN090 26/22 Q1015 NOSIG RMK A2997
RPLL,2025-03-19 23:00,RPLL 192300Z 02006KT 350V060 9999 SCT025 BKN100 26/22 Q1016 NOSIG RMK A3000
RPLL,2025-03-20 00:00,RPLL 200000Z 33004KT 240V010 9999 SCT025 BKN100 27/21 Q1016 NOSIG RMK A3000
RPLL,2025-03-20 01:00,RPLL 200100Z VRB02KT 9999 SCT025 BKN100 27/22 Q1017 NOSIG RMK A3003
RPLL,2025-03-20 02:00,RPLL 200200Z 02005KT 340V040 9999 SCT025 BKN100 26/23 Q1017 NOSIG RMK A3003
RPLL,2025-03-20 03:00,RPLL 200300Z VRB01KT 9999 -SHRA SCT025 OVC100 27/23 Q1017 NOSIG RMK A3003
RPLL,2025-03-20 04:00,RPLL 200400Z 28005KT 220V350 9999 SCT025 OVC100 26/23 Q1016 NOSIG RMK A3000
RPLL,2025-03-20 05:00,RPLL 200500Z 10008KT 060V150 9999 -SHRA SCT023 OVC100 29/22 Q1015 NOSIG RMK A2997
RPLL,2025-03-20 06:00,RPLL 200600Z 11010G23KT 070V160 9999 FEW025 BKN100 29/22 Q1014 NOSIG RMK A2994
RPLL,2025-03-20 07:00,RPLL 200700Z 10010G23KT 080V150 9999 SCT025 BKN100 29/22 Q1014 NOSIG RMK A2994
RPLL,2025-03-20 08:00,RPLL 200800Z 11010KT 070V160 9999 SCT025 BKN100 28/22 Q1014 NOSIG RMK A2994
RPLL,2025-03-20 09:00,RPLL 200900Z 11009KT 070V150 9999 FEW025 BKN100 28/22 Q1014 NOSIG RMK A2994
RPLL,2025-03-20 10:00,RPLL 201000Z 11008KT 050V150 9999 FEW025 BKN100 28/25 Q1014 NOSIG RMK A2994
RPLL,2025-03-20 11:00,RPLL 201100Z 11006KT 070V140 9999 FEW025 SCT100 27/22 Q1015 NOSIG RMK A2997
RPLL,2025-03-20 12:00,RPLL 201200Z 11008KT 9999 FEW025 BKN100 27/22 Q1015 NOSIG RMK A2997
RPLL,2025-03-20 13:00,RPLL 201300Z 10008KT 9999 FEW025 SCT100 27/22 Q1015 NOSIG RMK A2997
RPLL,2025-03-20 14:00,RPLL 201400Z 12004KT 080V170 9999 FEW025 27/22 Q1016 NOSIG RMK A3000
RPLL,2025-03-20 15:00,RPLL 201500Z 10004KT 070V130 9999 FEW025 27/22 Q1016 NOSIG RMK A3000
RPLL,2025-03-20 16:00,RPLL 201600Z 14002KT 9999 FEW025 26/22 Q1016 NOSIG RMK A3000
RPLL,2025-03-20 17:00,RPLL 201700Z 11004KT 080V140 9999 SCT023 BKN100 27/22 Q1015 NOSIG RMK A2997
RPLL,2025-03-20 18:00,RPLL 201800Z 08002KT 9999 -SHRA SCT023 BKN100 26/22 Q1014 NOSIG RMK A2994
RPLL,2025-03-20 19:00,RPLL 201900Z 09003KT 050V120 9999 SCT025 OVC090 27/22 Q1014 NOSIG RMK A2994
RPLL,2025-03-20 20:00,RPLL 202000Z 11004KT 060V160 9999 SCT025 BKN090 27/21 Q1014 NOSIG RMK A2994
RPLL,2025-03-20 21:00,RPLL 202100Z 10005KT 070V140 9999 FEW025 BKN100 26/22 Q1015 NOSIG RMK A2997
RPLL,2025-03-20 22:00,RPLL 202200Z 10004KT 070V160 9999 SCT025 BKN100 26/22 Q1015 NOSIG RMK A2997
RPLL,2025-03-20 23:00,RPLL 202300Z 10003KT 060V140 9999 SCT025 BKN100 27/22 Q1016 NOSIG RMK A3000
RPLL,2025-03-21 00:00,RPLL 210000Z 11004KT 060V180 9999 SCT025 BKN100 27/22 Q1017 NOSIG RMK A3003
RPLL,2025-03-21 01:00,RPLL 210100Z 09004KT 050V150 9999 SCT025 BKN100 28/21 Q1017 NOSIG RMK A3003
RPLL,2025-03-21 02:00,RPLL 210200Z 11004KT 050V180 9999 SCT025 BKN100 29/21 Q1017 NOSIG RMK A3003
RPLL,2025-03-21 03:00,RPLL 210300Z 12007KT 050V200 9999 SCT025 BKN100 30/22 Q1016 NOSIG RMK A3000
RPLL,2025-03-21 04:00,RPLL 210400Z 13008KT 090V170 9999 SCT025 BKN100 30/22 Q1016 NOSIG RMK A3000
RPLL,2025-03-21 05:00,RPLL 210500Z 10010KT 050V150 9999 SCT025 BKN100 30/22 Q1015 NOSIG RMK A2997
RPLL,2025-03-21 06:00,RPLL 210600Z 12010KT 080V180 9999 SCT025 BKN100 29/21 Q1014 NOSIG RMK A2994
RPLL,2025-03-21 07:00,RPLL 210700Z 12008KT 080V170 9999 SCT025 BKN100 29/21 Q1013 NOSIG RMK A2991
RPLL,2025-03-21 08:00,RPLL 210800Z 12008KT 070V180 9999 SCT025 BKN100 29/21 Q1013 NOSIG RMK A2991
RPLL,2025-03-21 09:00,RPLL 210900Z 11010KT 070V150 9999 FEW025 BKN100 28/21 Q1013 NOSIG RMK A2991
RPLL,2025-03-21 10:00,RPLL 211000Z 11008KT 070V150 9999 FEW025 SCT100 27/21 Q1014 NOSIG RMK A2994
RPLL,2025-03-21 11:00,RPLL 211100Z 12006KT 070V160 9999 FEW025 SCT100 26/21 Q1015 NOSIG RMK A2997
RPLL,2025-03-21 12:00,RPLL 211200Z 11008KT 060V140 9999 FEW025 26/21 Q1016 NOSIG RMK A3000
RPLL,2025-03-21 13:00,RPLL 211300Z 12006KT 060V160 9999 FEW025 26/20 Q1016 NOSIG RMK A3000
RPLL,2025-03-21 14:00,RPLL 211400Z 12006KT 070V160 9999 FEW025 26/21 Q1017 NOSIG RMK A3003
RPLL,2025-03-21 15:00,RPLL 211500Z 12004KT 070V150 9999 FEW025 26/21 Q1017 NOSIG RMK A3003
RPLL,2025-03-21 16:00,RPLL 211600Z 12004KT 080V160 9999 FEW025 26/21 Q1016 NOSIG RMK A3000
RPLL,2025-03-21 17:00,RPLL 211700Z 12004KT 090V160 9999 FEW025 25/21 Q1016 NOSIG RMK A3000
RPLL,2025-03-21 18:00,RPLL 211800Z 12003KT 080V170 9999 FEW025 25/20 Q1015 NOSIG RMK A2997
RPLL,2025-03-21 19:00,RPLL 211900Z VRB02KT 9999 FEW025 24/20 Q1015 NOSIG RMK A2997
RPLL,2025-03-21 20:00,RPLL 212000Z VRB01KT 9999 FEW025 25/20 Q1014 NOSIG RMK A2994
RPLL,2025-03-21 21:00,RPLL 212100Z VRB01KT 9999 FEW025 25/20 Q1015 NOSIG RMK A2997
RPLL,2025-03-21 22:00,RPLL 212200Z VRB01KT 9999 FEW025 25/20 Q1015 NOSIG RMK A2997
RPLL,2025-03-21 23:00,RPLL 212300Z VRB02KT 9999 FEW025 25/20 Q1016 NOSIG RMK A3000
RPLL,2025-03-22 00:00,RPLL 220000Z VRB02KT 9999 FEW025 26/20 Q1016 NOSIG RMK A3000
RPLL,2025-03-22 01:00,RPLL 220100Z VRB03KT 9999 FEW025 28/20 Q1017 NOSIG RMK A3003
RPLL,2025-03-22 02:00,RPLL 220200Z 09004KT 030V140 9999 FEW025 29/20 Q1016 NOSIG RMK A3000
RPLL,2025-03-22 03:00,RPLL 220300Z 27004KT 230V330 9999 FEW025 BKN100 28/21 Q1016 NOSIG RMK A3000
RPLL,2025-03-22 04:00,RPLL 220400Z 31006KT 280V340 9999 FEW025 BKN100 29/21 Q1015 NOSIG RMK A2997
RPLL,2025-03-22 05:00,RPLL 220500Z 29007KT 220V330 9999 FEW025 BKN100 30/21 Q1013 NOSIG RMK A2991
RPLL,2025-03-22 06:00,RPLL 220600Z VRB04KT 9999 FEW025 BKN100 30/21 Q1013 NOSIG RMK A2991
RPLL,2025-03-22 07:00,RPLL 220700Z 12008KT 070V180 9999 FEW025 BKN100 31/21 Q1012 NOSIG RMK A2988
RPLL,2025-03-22 08:00,RPLL 220800Z 14008KT 090V200 9999 SCT025 SCT100 31/21 Q1012 NOSIG RMK A2988
RPLL,2025-03-22 09:00,RPLL 220900Z 12008KT 080V150 9999 BKN025 29/21 Q1012 NOSIG RMK A2988
RPLL,2025-03-22 10:00,RPLL 221000Z 12007KT 080V180 9999 SCT025 SCT100 28/21 Q1013 NOSIG RMK A2991
RPLL,2025-03-22 11:00,RPLL 221100Z 12007KT 080V170 9999 FEW025 SCT100 27/21 Q1014 NOSIG RMK A2994
RPLL,2025-03-22 12:00,RPLL 221200Z 12005KT 090V160 9999 FEW025 SCT100 27/21 Q1014 NOSIG RMK A2994
RPLL,2025-03-22 13:00,RPLL 221300Z 13005KT 080V160 9999 FEW025 27/21 Q1015 NOSIG RMK A2997
RPLL,2025-03-22 14:00,RPLL 221400Z 13004KT 090V170 9999 FEW025 26/21 Q1016 NOSIG RMK A3000
RPLL,2025-03-22 15:00,RPLL 221500Z 13006KT 090V160 9999 FEW025 26/21 Q1016 NOSIG RMK A3000
RPLL,2025-03-22 16:00,RPLL 221600Z 12004KT 080V170 9999 FEW025 26/20 Q1015 NOSIG RMK A2997
RPLL,2025-03-22 17:00,RPLL 221700Z 14003KT 090V200 9999 FEW025 25/20 Q1014 NOSIG RMK A2994
RPLL,2025-03-22 18:00,RPLL 221800Z VRB02KT 9999 FEW025 25/20 Q1014 NOSIG RMK A2994
RPLL,2025-03-22 19:00,RPLL 221900Z 09003KT 050V130 9999 FEW025 24/20 Q1013 NOSIG RMK A2991
RPLL,2025-03-22 20:00,RPLL 222000Z VRB01KT 9999 FEW025 25/21 Q1013 NOSIG RMK A2991
RPLL,2025-03-22 21:00,RPLL 222100Z 30003KT 270V030 9999 FEW025 25/20 Q1013 NOSIG RMK A2991
RPLL,2025-03-22 22:00,RPLL 222200Z VRB02KT 9999 FEW025 25/20 Q1014 NOSIG RMK A2994
RPLL,2025-03-22 23:00,RPLL 222300Z VRB03KT 9999 FEW025 26/21 Q1014 NOSIG RMK A2994
RPLL,2025-03-23 00:00,RPLL 230000Z VRB02KT 9999 FEW025 27/20 Q1015 NOSIG RMK A2997
RPLL,2025-03-23 01:00,RPLL 230100Z VRB03KT 9999 FEW025 29/20 Q1015 NOSIG RMK A2997
RPLL,2025-03-23 02:00,RPLL 230200Z 11006KT 070V150 9999 FEW025 30/20 Q1015 NOSIG RMK A2997
RPLL,2025-03-23 03:00,RPLL 230300Z VRB05KT 9999 FEW025 31/21 Q1014 NOSIG RMK A2994
RPLL,2025-03-23 04:00,RPLL 230400Z 13008KT 070V190 9999 FEW025 32/21 Q1014 NOSIG RMK A2994
RPLL,2025-03-23 05:00,RPLL 230500Z 14009KT 100V190 9999 FEW025 32/21 Q1012 NOSIG RMK A2988
RPLL,2025-03-23 06:00,RPLL 230600Z VRB08KT 9999 FEW025 33/22 Q1011 NOSIG RMK A2985
RPLL,2025-03-23 07:00,RPLL 230700Z 13010G20KT 070V190 9999 FEW025 32/22 Q1010 NOSIG RMK A2983
RPLL,2025-03-23 08:00,RPLL 230800Z 13011KT 080V170 9999 FEW025 30/21 Q1010 NOSIG RMK A2983
RPLL,2025-03-23 09:00,RPLL 230900Z 12009KT 090V170 9999 FEW025 29/21 Q1011 NOSIG RMK A2985
RPLL,2025-03-23 10:00,RPLL 231000Z 12008KT 070V160 9999 FEW025 28/21 Q1011 NOSIG RMK A2985
RPLL,2025-03-23 11:00,RPLL 231100Z 13006KT 100V180 9999 FEW025 BKN100 28/21 Q1012 NOSIG RMK A2988
RPLL,2025-03-23 12:00,RPLL 231200Z 14005KT 100V180 9999 FEW025 SCT100 27/22 Q1012 NOSIG RMK A2988
RPLL,2025-03-23 13:00,RPLL 231300Z 12004KT 080V180 9999 FEW025 27/22 Q1013 NOSIG RMK A2991
RPLL,2025-03-23 14:00,RPLL 231400Z 13004KT 070V170 9999 FEW025 27/22 Q1013 NOSIG RMK A2991
RPLL,2025-03-23 15:00,RPLL 231500Z 12004KT 050V190 9999 FEW025 26/21 Q1013 NOSIG RMK A2991
RPLL,2025-03-23 16:00,RPLL 231600Z 13004KT 110V170 9999 FEW025 26/21 Q1012 NOSIG RMK A2988
RPLL,2025-03-23 17:00,RPLL 231700Z 14003KT 100V180 9999 FEW025 26/21 Q1011 NOSIG RMK A2985
RPLL,2025-03-23 18:00,RPLL 231800Z VRB02KT 9999 FEW025 26/21 Q1011 NOSIG RMK A2985
RPLL,2025-03-23 19:00,RPLL 231900Z VRB01KT 9999 FEW025 25/21 Q1010 NOSIG RMK A2983
RPLL,2025-03-23 20:00,RPLL 232000Z VRB01KT 9999 FEW025 25/21 Q1010 NOSIG RMK A2983
RPLL,2025-03-23 21:00,RPLL 232100Z VRB01KT 9999 FEW025 25/22 Q1010 NOSIG RMK A2983
RPLL,2025-03-23 22:00,RPLL 232200Z VRB02KT 9999 FEW025 25/22 Q1011 NOSIG RMK A2985
RPLL,2025-03-23 23:00,RPLL 232300Z VRB02KT 9999 FEW025 26/22 Q1011 NOSIG RMK A2985
RPLL,2025-03-24 00:00,RPLL 240000Z VRB02KT 9999 FEW025 28/21 Q1012 NOSIG RMK A2988
RPLL,2025-03-24 01:00,RPLL 240100Z VRB03KT 9999 FEW025 29/21 Q1012 NOSIG RMK A2988
RPLL,2025-03-24 02:00,RPLL 240200Z VRB04KT 9999 FEW025 SCT100 30/22 Q1012 NOSIG RMK A2988
RPLL,2025-03-24 03:00,RPLL 240300Z VRB05KT 9999 FEW025 SCT100 30/22 Q1011 NOSIG RMK A2985
RPLL,2025-03-24 04:00,RPLL 240400Z VRB03KT 9999 FEW025 SCT100 31/23 Q1011 NOSIG RMK A2985
RPLL,2025-03-24 05:00,RPLL 240500Z VRB04KT 9999 FEW025 SCT100 33/22 Q1010 NOSIG RMK A2983
RPLL,2025-03-24 06:00,RPLL 240600Z 12004KT 020V180 9999 FEW025 BKN100 32/22 Q1009 NOSIG RMK A2980
RPLL,2025-03-24 07:00,RPLL 240700Z 14006KT 090V190 9999 FEW025 SCT100 33/22 Q1009 NOSIG RMK A2980
RPLL,2025-03-24 08:00,RPLL 240800Z 15007KT 100V190 9999 FEW025 BKN100 32/23 Q1009 NOSIG RMK A2980
RPLL,2025-03-24 09:00,RPLL 240900Z 14007KT 100V190 9999 FEW025 BKN100 31/23 Q1009 NOSIG RMK A2980
RPLL,2025-03-24 10:00,RPLL 241000Z 15006KT 080V190 9999 FEW025 30/22 Q1009 NOSIG RMK A2980
RPLL,2025-03-24 11:00,RPLL 241100Z 14006KT 090V190 9999 FEW025 29/23 Q1009 NOSIG RMK A2980
RPLL,2025-03-24 12:00,RPLL 241200Z 15006KT 090V200 9999 FEW025 28/23 Q1010 NOSIG RMK A2983
RPLL,2025-03-24 13:00,RPLL 241300Z 14006KT 070V190 9999 FEW025 28/21 Q1011 NOSIG RMK A2985
RPLL,2025-03-24 14:00,RPLL 241400Z 14006KT 090V200 9999 BKN025 28/21 Q1011 NOSIG RMK A2985
RPLL,2025-03-24 15:00,RPLL 241500Z 14005KT 100V180 9999 FEW025 SCT100 28/22 Q1011 NOSIG RMK A2985
RPLL,2025-03-24 16:00,RPLL 241600Z 14005KT 100V170 9999 FEW025 28/22 Q1010 NOSIG RMK A2983
RPLL,2025-03-24 17:00,RPLL 241700Z 14004KT 080V190 9999 FEW025 27/23 Q1010 NOSIG RMK A2983
RPLL,2025-03-24 18:00,RPLL 241800Z 14003KT 100V200 9999 FEW025 27/24 Q1009 NOSIG RMK A2980
RPLL,2025-03-24 19:00,RPLL 241900Z VRB02KT 9999 FEW025 SCT100 27/23 Q1008 NOSIG RMK A2977
RPLL,2025-03-24 20:00,RPLL 242000Z VRB01KT 9999 FEW025 SCT100 27/24 Q1008 NOSIG RMK A2977
RPLL,2025-03-24 21:00,RPLL 242100Z VRB02KT 9999 SCT025 BKN100 27/24 Q1008 NOSIG RMK A2977
RPLL,2025-03-24 22:00,RPLL 242200Z VRB01KT 9999 FEW025 SCT100 27/24 Q1009 NOSIG RMK A2980
RPLL,2025-03-24 23:00,RPLL 242300Z 18003KT 140V230 9999 FEW025 27/24 Q1009 NOSIG RMK A2980
RPLL,2025-03-25 00:00,RPLL 250000Z VRB02KT 9999 FEW025 SCT100 28/24 Q1009 NOSIG RMK A2980
RPLL,2025-03-25 01:00,RPLL 250100Z 29004KT 260V330 9999 FEW025 SCT100 29/23 Q1009 NOSIG RMK A2980
RPLL,2025-03-25 02:00,RPLL 250200Z 10006KT 060V180 9999 FEW025 SCT100 31/23 Q1009 NOSIG RMK A2980
RPLL,2025-03-25 03:00,RPLL 250300Z 14006KT 030V200 9999 FEW025 32/23 Q1009 NOSIG RMK A2980
RPLL,2025-03-25 04:00,RPLL 250400Z 11008KT 060V190 9999 FEW025 33/22 Q1008 NOSIG RMK A2977
RPLL,2025-03-25 05:00,RPLL 250500Z 13008KT 080V190 9999 FEW025 34/22 Q1007 NOSIG RMK A2974
RPLL,2025-03-25 06:00,RPLL 250600Z 13008KT 080V190 9999 FEW025 35/21 Q1006 NOSIG RMK A2971
RPLL,2025-03-25 07:00,RPLL 250700Z 12009KT 060V150 9999 FEW025 34/22 Q1006 NOSIG RMK A2971
RPLL,2025-03-25 08:00,RPLL 250800Z 14008KT 100V190 9999 FEW025 34/22 Q1006 NOSIG RMK A2971
RPLL,2025-03-25 09:00,RPLL 250900Z 11008KT 080V160 9999 FEW025 33/21 Q1006 NOSIG RMK A2971
RPLL,2025-03-25 10:00,RPLL 251000Z 12008KT 090V150 9999 FEW025 32/22 Q1007 NOSIG RMK A2974
RPLL,2025-03-25 11:00,RPLL 251100Z 11007KT 080V150 9999 FEW025 31/22 Q1008 NOSIG RMK A2977
RPLL,2025-03-25 12:00,RPLL 251200Z 11007KT 070V150 9999 FEW025 30/23 Q1008 NOSIG RMK A2977
RPLL,2025-03-25 13:00,RPLL 251300Z 12007KT 040V170 9999 FEW025 29/23 Q1009 NOSIG RMK A2980
RPLL,2025-03-25 14:00,RPLL 251400Z 15005KT 080V220 9999 FEW025 29/24 Q1010 NOSIG RMK A2983
RPLL,2025-03-25 15:00,RPLL 251500Z 13005KT 090V190 9999 FEW025 29/23 Q1010 NOSIG RMK A2983
RPLL,2025-03-25 16:00,RPLL 251600Z 13006KT 090V180 9999 FEW025 28/23 Q1009 NOSIG RMK A2980
RPLL,2025-03-25 17:00,RPLL 251700Z 12006KT 080V150 9999 FEW025 28/23 Q1009 NOSIG RMK A2980
RPLL,2025-03-25 18:00,RPLL 251800Z 12005KT 030V180 9999 FEW025 28/22 Q1008 NOSIG RMK A2977
RPLL,2025-03-25 19:00,RPLL 251900Z 10003KT 050V160 9999 FEW025 27/22 Q1008 NOSIG RMK A2977
RPLL,2025-03-25 20:00,RPLL 252000Z 11003KT 080V160 9999 FEW025 27/22 Q1008 NOSIG RMK A2977
RPLL,2025-03-25 21:00,RPLL 252100Z VRB02KT 9999 FEW025 27/22 Q1008 NOSIG RMK A2977
RPLL,2025-03-25 22:00,RPLL 252200Z 11003KT 9999 FEW025 27/23 Q1009 NOSIG RMK A2980 METAR RPLB 252200Z 04004KT 9999 FEW020 25/23 Q1009 NOSIG RMK A2980
RPLL,2025-03-25 23:00,RPLL 252300Z 11003KT 070V130 9999 FEW025 28/23 Q1009 NOSIG RMK A2980
RPLL,2025-03-26 00:00,RPLL 260000Z 11003KT 360V160 9999 FEW025 30/22 Q1009 NOSIG RMK A2980
RPLL,2025-03-26 01:00,RPLL 260100Z 12005KT 070V170 9999 FEW025 31/22 Q1010 NOSIG RMK A2983
RPLL,2025-03-26 02:00,RPLL 260200Z 08007KT 050V160 9999 FEW025 32/22 Q1010 NOSIG RMK A2983
RPLL,2025-03-26 03:00,RPLL 260300Z 11006KT 030V200 9999 FEW025 33/23 Q1009 NOSIG RMK A2980
RPLL,2025-03-26 04:00,RPLL 260400Z 11006KT 030V200 9999 FEW025 33/23 Q1009 NOSIG RMK A2980
RPLL,2025-03-26 05:00,RPLL 260500Z 11009KT 080V150 9999 FEW025 34/22 Q1008 NOSIG RMK A2977
RPLL,2025-03-26 06:00,RPLL 260600Z 14008KT 080V200 9999 FEW025 35/22 Q1006 NOSIG RMK A2971
RPLL,2025-03-26 07:00,RPLL 260700Z 12009KT 080V170 9999 FEW025 34/22 Q1006 NOSIG RMK A2971
RPLL,2025-03-26 08:00,COR RPLL 260800Z 14009KT 090V190 9999 FEW025 34/23 Q1005 NOSIG RMK A2968
RPLL,2025-03-26 09:00,RPLL 260900Z 14008KT 080V190 9999 FEW025 33/24 Q1006 NOSIG RMK A2971
RPLL,2025-03-26 10:00,RPLL 261000Z VRB08KT 9999 FEW025 SCT100 31/24 Q1006 NOSIG RMK A2971
RPLL,2025-03-26 11:00,RPLL 261100Z 13007KT 090V190 9999 FEW025 30/24 Q1007 NOSIG RMK A2974
RPLL,2025-03-26 12:00,RPLL 261200Z 12007KT 090V160 9999 FEW025 30/23 Q1007 NOSIG RMK A2974
RPLL,2025-03-26 13:00,RPLL 261300Z 14005KT 060V220 9999 FEW025 29/23 Q1008 NOSIG RMK A2977
RPLL,2025-03-26 14:00,RPLL 261400Z 13006KT 060V170 9999 FEW025 29/23 Q1009 NOSIG RMK A2980
RPLL,2025-03-26 15:00,RPLL 261500Z 14005KT 080V180 9999 FEW025 SCT100 29/23 Q1009 NOSIG RMK A2980
RPLL,2025-03-26 16:00,RPLL 261600Z 14005KT 090V190 9999 FEW025 SCT100 29/23 Q1008 NOSIG RMK A2977
RPLL,2025-03-26 17:00,RPLL 261700Z 13004KT 090V180 9999 FEW025 29/22 Q1008 NOSIG RMK A2977
RPLL,2025-03-26 18:00,RPLL 261800Z 15003KT 100V200 9999 FEW025 28/22 Q1007 NOSIG RMK A2974
RPLL,2025-03-26 19:00,RPLL 261900Z 18003KT 160V220 9999 FEW025 28/22 Q1007 NOSIG RMK A2974
RPLL,2025-03-26 20:00,RPLL 262000Z 21003KT 170V240 9999 FEW025 SCT100 28/24 Q1007 NOSIG RMK A2974
RPLL,2025-03-26 21:00,RPLL 262100Z VRB02KT 9999 FEW025 SCT100 28/24 Q1008 NOSIG RMK A2977
RPLL,2025-03-26 22:00,RPLL 262200Z 17003KT 120V200 9999 FEW025 BKN100 28/23 Q1008 NOSIG RMK A2977
RPLL,2025-03-26 23:00,RPLL 262300Z 14004KT 070V200 9999 FEW025 SCT100 29/24 Q1009 NOSIG RMK A2980
RPLL,2025-03-27 00:00,RPLL 270000Z 11004KT 070V150 9999 FEW025 SCT100 29/24 Q1009 NOSIG RMK A2980
RPLL,2025-03-27 01:00,RPLL 270100Z 11004KT 060V180 9999 FEW025 SCT100 31/14 Q1010 NOSIG RMK A2983
RPLL,2025-03-27 02:00,RPLL 270200Z 10006KT 060V140 9999 FEW025 BKN100 31/23 Q1010 NOSIG RMK A2983
RPLL,2025-03-27 03:00,RPLL 270300Z 10008KT 9999 FEW025 BKN100 32/24 Q1009 NOSIG RMK A2980
RPLL,2025-03-27 04:00,RPLL 270400Z 13008KT 080V170 9999 FEW025 BKN100 32/24 Q1008 NOSIG RMK A2977
RPLL,2025-03-27 05:00,RPLL 270500Z 11007KT 050V180 9999 FEW025 BKN100 33/24 Q1007 NOSIG RMK A2974
RPLL,2025-03-27 06:00,RPLL 270600Z 12006KT 030V200 9999 FEW025 BKN100 33/24 Q1006 NOSIG RMK A2971
RPLL,2025-03-27 07:00,RPLL 270700Z 12006KT 070V190 9999 FEW025 BKN100 34/24 Q1005 NOSIG RMK A2968
RPLL,2025-03-27 08:00,RPLL 270800Z 13008KT 090V190 9999 FEW025 SCT100 34/24 Q1005 NOSIG RMK A2968
RPLL,2025-03-27 09:00,RPLL 270900Z 12007KT 080V180 9999 FEW025 SCT100 33/24 Q1005 NOSIG RMK A2968
RPLL,2025-03-27 10:00,RPLL 271000Z 12007KT 080V150 9999 FEW025 BKN100 32/23 Q1006 NOSIG RMK A2971
RPLL,2025-03-27 11:00,RPLL 271100Z 12007KT 070V160 9999 FEW025 BKN100 31/24 Q1007 NOSIG RMK A2974
RPLL,2025-03-27 11:10,RPLL 271110Z 12007KT 080V160 9999 -SHRA SCT025 BKN100 30/24 Q1007 NOSIG RMK A2974
RPLL,2025-03-27 12:00,RPLL 271200Z 12006KT 080V160 9999 FEW025 BKN100 30/25 Q1007 NOSIG RMK A2974
RPLL,2025-03-27 13:00,RPLL 271300Z 13005KT 080V170 9999 FEW025 BKN100 30/25 Q1008 NOSIG RMK A2977
RPLL,2025-03-27 14:00,RPLL 271400Z 13006KT 070V180 9999 FEW025 SCT100 30/25 Q1009 NOSIG RMK A2980
RPLL,2025-03-27 15:00,RPLL 271500Z 13005KT 060V180 9999 FEW025 29/25 Q1009 NOSIG RMK A2980
RPLL,2025-03-27 16:00,RPLL 271600Z 14003KT 100V190 9999 FEW025 29/25 Q1008 NOSIG RMK A2977
RPLL,2025-03-27 17:00,RPLL 271700Z 14005KT 090V180 9999 FEW025 28/25 Q1008 NOSIG RMK A2977
RPLL,2025-03-27 18:00,RPLL 271800Z VRB02KT 9999 FEW025 28/25 Q1007 NOSIG RMK A2974
RPLL,2025-03-27 19:00,RPLL 271900Z 15003KT 110V200 9999 FEW025 28/24 Q1007 NOSIG RMK A2974
RPLL,2025-03-27 20:00,RPLL 272000Z VRB02KT 9999 FEW025 28/24 Q1007 NOSIG RMK A2974
RPLL,2025-03-27 21:00,RPLL 272100Z VRB02KT 9999 FEW025 28/24 Q1007 NOSIG RMK A2974
RPLL,2025-03-27 22:00,RPLL 272200Z VRB01KT 9999 FEW025 27/24 Q1008 NOSIG RMK A2977
RPLL,2025-03-27 23:00,RPLL 272300Z VRB02KT 9999 FEW025 29/24 Q1009 NOSIG RMK A2980
RPLL,2025-03-28 00:00,RPLL 280000Z 10004KT 060V140 9999 FEW025 30/23 Q1010 NOSIG RMK A2983
RPLL,2025-03-28 01:00,RPLL 280100Z 12005KT 070V230 9999 FEW025 32/23 Q1010 NOSIG RMK A2983
RPLL,2025-03-28 02:00,RPLL 280200Z 10005KT 020V190 9999 FEW025 32/23 Q1010 NOSIG RMK A2983
RPLL,2025-03-28 03:00,RPLL 280300Z VRB03KT 9999 FEW025 SCT100 34/23 Q1010 NOSIG RMK A2983
RPLL,2025-03-28 04:00,RPLL 280400Z 14008KT 080V200 9999 FEW025 BKN100 34/24 Q1009 NOSIG RMK A2980
RPLL,2025-03-28 05:00,RPLL 280500Z 13008KT 080V180 9999 FEW025 BKN100 33/24 Q1008 NOSIG RMK A2977
RPLL,2025-03-28 06:00,RPLL 280600Z 14009KT 090V190 9999 FEW025 34/24 Q1007 NOSIG RMK A2974
RPLL,2025-03-28 07:00,RPLL 280700Z 13008KT 070V170 9999 SCT025 34/24 Q1006 NOSIG RMK A2971
RPLL,2025-03-28 08:00,RPLL 280800Z VRB05KT 9999 SCT025 33/24 Q1006 NOSIG RMK A2971
RPLL,2025-03-28 09:00,RPLL 280900Z 14006KT 090V210 9999 FEW025 BKN100 32/25 Q1007 NOSIG RMK A2974
RPLL,2025-03-28 10:00,RPLL 281000Z 12007KT 060V170 9999 FEW025 BKN100 31/24 Q1007 NOSIG RMK A2974
RPLL,2025-03-28 11:00,RPLL 281100Z 11009KT 080V160 9999 FEW025 BKN100 30/24 Q1008 NOSIG RMK A2977
RPLL,2025-03-28 12:00,RPLL 281200Z 13005KT 080V200 9999 FEW025 BKN100 30/23 Q1008 NOSIG RMK A2977
RPLL,2025-03-28 13:00,RPLL 281300Z 14006KT 070V190 9999 FEW025 BKN100 29/24 Q1010 NOSIG RMK A2983
RPLL,2025-03-28 14:00,RPLL 281400Z 13006KT 070V170 9999 FEW025 BKN100 29/24 Q1010 NOSIG RMK A2983
RPLL,2025-03-28 15:00,RPLL 281500Z 11008KT 060V150 9999 FEW025 BKN100 28/24 Q1010 NOSIG RMK A2983
RPLL,2025-03-28 16:00,RPLL 281600Z 13004KT 070V170 8000 -SHRA SCT023 OVC090 27/25 Q1010 NOSIG RMK A2983
RPLL,2025-03-28 17:00,RPLL 281700Z 14005KT 090V190 9999 FEW025 BKN100 28/25 Q1010 NOSIG RMK A2983
RPLL,2025-03-28 18:00,RPLL 281800Z 13005KT 090V190 9000 -SHRA SCT023 OVC100 28/25 Q1009 TEMPO 7000 RMK A2980
RPLL,2025-03-28 19:00,RPLL 281900Z 13004KT 080V190 9999 -RA FEW025 OVC100 26/26 Q1008 NOSIG RMK A2977
RPLL,2025-03-28 20:00,RPLL 282000Z 12003KT 080V180 9999 -RA FEW025 OVC100 26/26 Q1008 NOSIG RMK A2977
RPLL,2025-03-28 21:00,RPLL 282100Z VRB02KT 9999 -RA FEW025 OVC100 26/26 Q1008 NOSIG RMK A2977
RPLL,2025-03-28 22:00,RPLL 282200Z VRB01KT 9999 FEW025 OVC100 27/26 Q1009 NOSIG RMK A2980
RPLL,2025-03-28 23:00,RPLL 282300Z 11003KT 080V150 9999 FEW025 BKN100 27/26 Q1010 NOSIG RMK A2983
RPLL,2025-03-29 00:00,RPLL 290000Z 10008KT 070V140 9999 -RA SCT025 OVC090 27/25 Q1010 NOSIG RMK A2983
RPLL,2025-03-29 01:00,RPLL 290100Z 11005KT 070V160 9999 -RA SCT025 OVC090 27/25 Q1011 NOSIG RMK A2985
RPLL,2025-03-29 02:00,RPLL 290200Z 11005KT 080V160 9999 -RA SCT025 OVC090 28/25 Q1011 NOSIG RMK A2985
RPLL,2025-03-29 03:00,RPLL 290300Z VRB05KT 9999 SCT025 BKN100 29/26 Q1011 NOSIG RMK A2985
RPLL,2025-03-29 04:00,RPLL 290400Z 10006KT 060V140 9999 SCT025 BKN100 30/24 Q1010 NOSIG RMK A2983
RPLL,2025-03-29 05:00,RPLL 290500Z 11006KT 060V170 9999 FEW025 BKN100 31/24 Q1009 NOSIG RMK A2980
RPLL,2025-03-29 06:00,RPLL 290600Z 13009G20KT 060V170 9999 SCT025 BKN100 30/25 Q1008 NOSIG RMK A2977
RPLL,2025-03-29 07:00,RPLL 290700Z 13010KT 090V170 9999 SCT025 BKN100 30/25 Q1008 NOSIG RMK A2977
RPLL,2025-03-29 08:00,RPLL 290800Z 12014G25KT 080V150 9999 SCT025 BKN100 28/24 Q1008 NOSIG RMK A2977
RPLL,2025-03-29 09:00,RPLL 290900Z 10009G20KT 070V150 9999 SCT025 BKN100 28/23 Q1009 NOSIG RMK A2980
RPLL,2025-03-29 10:00,RPLL 291000Z 11007KT 070V140 9999 SCT025 BKN100 28/24 Q1009 NOSIG RMK A2980
RPLL,2025-03-29 11:00,RPLL 291100Z 10005KT 070V130 9999 -SHRA FEW025 BKN100 28/24 Q1010 NOSIG RMK A2983
RPLL,2025-03-29 12:00,RPLL 291200Z 09005KT 9999 FEW025 BKN100 28/24 Q1011 NOSIG RMK A2985
RPLL,2025-03-29 12:30,RPLL 291230Z 09004KT 060V120 9999 -RA FEW025 BKN100 28/24 Q1011 NOSIG RMK A2985
RPLL,2025-03-29 13:00,RPLL 291300Z 08004KT 9999 -RA FEW025 BKN100 28/24 Q1011 NOSIG RMK A2985
RPLL,2025-03-29 14:00,COR RPLL 291400Z 08003KT 9999 FEW025 BKN100 27/24 Q1012 NOSIG RMK A2988
RPLL,2025-03-29 15:00,RPLL 291500Z VRB01KT 9999 FEW025 BKN100 28/24 Q1012 NOSIG RMK A2988
RPLL,2025-03-29 16:00,RPLL 291600Z VRB01KT 9999 FEW025 BKN100 27/24 Q1012 NOSIG RMK A2988
RPLL,2025-03-29 17:00,RPLL 291700Z 09003KT 050V120 9999 FEW025 28/24 Q1011 NOSIG RMK A2985
RPLL,2025-03-29 18:00,RPLL 291800Z VRB02KT 9999 FEW025 BKN100 28/24 Q1010 NOSIG RMK A2983
RPLL,2025-03-29 19:00,RPLL 291900Z VRB01KT 9999 FEW025 BKN100 28/24 Q1010 NOSIG RMK A2983
RPLL,2025-03-29 20:00,RPLL 292000Z VRB01KT 9999 FEW025 OVC130 28/24 Q1010 NOSIG RMK A2983
RPLL,2025-03-29 21:00,RPLL 292100Z VRB02KT 9999 FEW025 BKN130 28/24 Q1011 NOSIG RMK A2985
RPLL,2025-03-29 22:00,RPLL 292200Z 12005KT 070V160 9999 FEW025 BKN130 28/24 Q1011 NOSIG RMK A2985
RPLL,2025-03-29 23:00,RPLL 292300Z 10006KT 060V130 9999 FEW025 BKN100 28/23 Q1012 NOSIG RMK A2988
RPLL,2025-03-30 00:00,RPLL 300000Z 10005KT 070V140 9999 FEW025 BKN100 29/23 Q1012 NOSIG RMK A2988
RPLL,2025-03-30 01:00,RPLL 300100Z 12008KT 080V200 9999 FEW025 BKN100 30/23 Q1013 NOSIG RMK A2991
RPLL,2025-03-30 02:00,RPLL 300200Z 09008KT 060V140 9999 SCT025 BKN100 30/23 Q1013 NOSIG RMK A2991
RPLL,2025-03-30 03:00,RPLL 300300Z 13007KT 080V200 9999 SCT025 BKN100 31/24 Q1013 NOSIG RMK A2991
RPLL,2025-03-30 04:00,RPLL 300400Z 13007KT 100V180 9999 SCT025 BKN100 31/23 Q1013 NOSIG RMK A2991
RPLL,2025-03-30 05:00,RPLL 300500Z 12008KT 070V170 9999 FEW025 BKN100 31/24 Q1012 NOSIG RMK A2988
RPLL,2025-03-30 06:00,RPLL 300600Z 12009KT 090V160 9999 FEW025 BKN100 31/24 Q1011 NOSIG RMK A2985
RPLL,2025-03-30 07:00,RPLL 300700Z 11010KT 060V170 9999 FEW025 BKN100 32/24 Q1010 NOSIG RMK A2983
RPLL,2025-03-30 08:00,RPLL 300800Z 14008KT 080V210 9999 FEW025 SCT100 32/24 Q1009 NOSIG RMK A2980
RPLL,2025-03-30 09:00,RPLL 300900Z 11010KT 080V140 9999 FEW025 BKN100 32/24 Q1010 NOSIG RMK A2983
RPLL,2025-03-30 10:00,RPLL 301000Z 11009KT 070V150 9999 FEW025 BKN100 29/24 Q1010 NOSIG RMK A2983
RPLL,2025-03-30 11:00,RPLL 301100Z 10007KT 060V130 9999 FEW025 SCT100 29/23 Q1011 NOSIG RMK A2985
RPLL,2025-03-30 12:00,RPLL 301200Z 12005KT 090V170 9999 FEW025 BKN100 29/23 Q1011 NOSIG RMK A2985
RPLL,2025-03-30 13:00,RPLL 301300Z 13005KT 090V180 9999 FEW025 BKN100 28/23 Q1012 NOSIG RMK A2988
RPLL,2025-03-30 14:00,RPLL 301400Z 13007KT 080V210 9999 FEW025 BKN100 28/23 Q1012 NOSIG RMK A2988
RPLL,2025-03-30 15:00,RPLL 301500Z 13007KT 090V180 9999 FEW025 BKN100 27/24 Q1012 NOSIG RMK A2988
RPLL,2025-03-30 16:00,RPLL 301600Z 12007KT 070V160 9999 FEW025 SCT100 27/24 Q1012 NOSIG RMK A2988
RPLL,2025-03-30 17:00,RPLL 301700Z 10008KT 020V130 9999 SCT023 BKN100 27/24 Q1012 NOSIG RMK A2988
RPLL,2025-03-30 18:00,RPLL 301800Z 11008KT 080V140 9999 SCT025 BKN100 27/24 Q1011 NOSIG RMK A2985
RPLL,2025-03-30 19:00,RPLL 301900Z 11007KT 9999 FEW025 SCT100 27/23 Q1011 NOSIG RMK A2985
RPLL,2025-03-30 20:00,RPLL 302000Z 12005KT 060V170 9999 SCT025 27/23 Q1010 NOSIG RMK A2983
RPLL,2025-03-30 21:00,RPLL 302100Z 12006KT 070V180 9999 FEW025 SCT100 27/23 Q1011 NOSIG RMK A2985
RPLL,2025-03-30 22:00,RPLL 302200Z 10006KT 070V140 9999 FEW025 BKN100 27/23 Q1011 NOSIG RMK A2985
RPLL,2025-03-30 23:00,RPLL 302300Z 09005KT 060V120 9999 FEW025 28/24 Q1012 NOSIG RMK A2988
RPLL,2025-03-31 00:00,RPLL 310000Z 09007KT 060V120 9999 FEW025 SCT100 29/24 Q1012 NOSIG RMK A2988
RPLL,2025-03-31 01:00,RPLL 310100Z 10005KT 060V140 9999 FEW025 30/24 Q1013 NOSIG RMK A2991
RPLL,2025-03-31 02:00,RPLL 310200Z 12009KT 080V150 9999 FEW025 31/23 Q1013 NOSIG RMK A2991
RPLL,2025-03-31 03:00,RPLL 310300Z 13008KT 070V160 9999 FEW025 BKN100 31/24 Q1013 NOSIG RMK A2991
RPLL,2025-03-31 04:00,RPLL 310400Z 13006KT 080V190 9999 FEW025 SCT100 32/24 Q1012 NOSIG RMK A2988
RPLL,2025-03-31 05:00,RPLL 310500Z 14008KT 080V190 9999 FEW025 SCT100 32/24 Q1010 NOSIG RMK A2983
RPLL,2025-03-31 06:00,RPLL 310600Z 13009KT 090V170 9999 FEW025 BKN100 31/25 Q1009 NOSIG RMK A2980
RPLL,2025-03-31 07:00,RPLL 310700Z 13011G21KT 080V200 9999 FEW025 31/24 Q1009 NOSIG RMK A2980
RPLL,2025-03-31 08:00,RPLL 310800Z 12013KT 090V160 9999 FEW025 31/24 Q1008 NOSIG RMK A2977
RPLL,2025-03-31 09:00,RPLL 310900Z 12009KT 070V160 9999 FEW025 31/23 Q1008 NOSIG RMK A2977
RPLL,2025-03-31 10:00,RPLL 311000Z 12008KT 080V190 9999 FEW025 30/23 Q1009 NOSIG RMK A2980
RPLL,2025-03-31 11:00,RPLL 311100Z 12007KT 080V170 9999 FEW025 29/23 Q1009 NOSIG RMK A2980
RPLL,2025-03-31 12:00,RPLL 311200Z 12006KT 080V180 9999 FEW025 29/28 Q1010 NOSIG RMK A2983
RPLL,2025-03-31 13:00,RPLL 311300Z 12004KT 070V150 9999 FEW025 29/23 Q1010 NOSIG RMK A2983
RPLL,2025-03-31 14:00,RPLL 311400Z 14004KT 080V210 9999 FEW025 28/23 Q1011 NOSIG RMK A2985
RPLL,2025-03-31 15:00,RPLL 311500Z 13005KT 100V190 9999 FEW025 28/23 Q1011 NOSIG RMK A2985
RPLL,2025-03-31 16:00,RPLL 311600Z 13004KT 090V200 9999 FEW025 28/22 Q1011 NOSIG RMK A2985
RPLL,2025-03-31 17:00,RPLL 311700Z 13004KT 050V170 9999 FEW025 28/22 Q1010 NOSIG RMK A2983
RPLL,2025-03-31 18:00,RPLL 311800Z 13003KT 080V190 9999 FEW025 28/23 Q1010 NOSIG RMK A2983
RPLL,2025-03-31 19:00,RPLL 311900Z 19003KT 140V230 9999 FEW025 27/24 Q1010 NOSIG RMK A2983
RPLL,2025-03-31 20:00,RPLL 312000Z VRB02KT 9999 FEW025 26/24 Q1010 NOSIG RMK A2983
RPLL,2025-03-31 21:00,RPLL 312100Z 17003KT 130V200 9999 FEW025 26/24 Q1010 NOSIG RMK A2983
RPLL,2025-03-31 22:00,RPLL 312200Z VRB01KT 9999 FEW025 26/24 Q1010 NOSIG RMK A2983
RPLL,2025-03-31 23:00,RPLL 312300Z 16003KT 110V200 9999 FEW025 SCT100 28/25 Q1011 NOSIG RMK A2985
RPLL,2025-04-01 00:00,RPLL 010000Z 09004KT 040V180 9999 FEW025 29/23 Q1012 NOSIG RMK A2988
RPLL,2025-04-01 01:00,RPLL 010100Z VRB02KT 9999 FEW025 31/23 Q1012 NOSIG RMK A2988
RPLL,2025-04-01 02:00,RPLL 010200Z 27009KT 9999 FEW025 29/23 Q1012 NOSIG RMK A2988
RPLL,2025-04-01 03:00,RPLL 010300Z 28008KT 260V320 9999 FEW025 32/24 Q1011 NOSIG RMK A2985
RPLL,2025-04-01 04:00,RPLL 010400Z 29005KT 240V340 9999 FEW025 SCT100 32/24 Q1011 NOSIG RMK A2985
RPLL,2025-04-01 05:00,RPLL 010500Z VRB05G16KT 9999 FEW025 SCT100 33/24 Q1010 NOSIG RMK A2983
RPLL,2025-04-01 06:00,RPLL 010600Z VRB03KT 9999 FEW025 BKN100 33/24 Q1009 NOSIG RMK A2980
RPLL,2025-04-01 07:00,RPLL 010700Z 12007KT 080V190 9999 FEW025 SCT100 34/23 Q1008 NOSIG RMK A2977
RPLL,2025-04-01 08:00,RPLL 010800Z 13007KT 080V190 9999 FEW025TCU SCT100 33/23 Q1008 NOSIG RMK A2977 TCU NW
RPLL,2025-04-01 09:00,RPLL 010900Z 14007KT 080V180 9999 FEW025 32/24 Q1008 NOSIG RMK A2977
RPLL,2025-04-01 10:00,RPLL 011000Z 13007KT 090V180 9999 FEW025 31/24 Q1009 NOSIG RMK A2980
RPLL,2025-04-01 11:00,COR RPLL 011100Z 13007KT 070V170 9999 FEW023CB SCT100 30/24 Q1009 NOSIG RMK A2980 CB W
RPLL,2025-04-01 12:00,RPLL 011200Z 14005KT 080V180 9999 FEW025 29/24 Q1010 NOSIG RMK A2983
RPLL,2025-04-01 13:00,RPLL 011300Z 12006KT 080V190 9999 FEW025 SCT100 29/24 Q1011 NOSIG RMK A2985
RPLL,2025-04-01 14:00,RPLL 011400Z 12007KT 060V210 9999 FEW025 BKN100 29/24 Q1011 NOSIG RMK A2985
RPLL,2025-04-01 15:00,RPLL 011500Z 12005KT 080V170 9999 FEW025 BKN100 29/23 Q1011 NOSIG RMK A2985
RPLL,2025-04-01 16:00,RPLL 011600Z 14005KT 080V190 9999 FEW025 BKN100 29/23 Q1011 NOSIG RMK A2985
RPLL,2025-04-01 17:00,RPLL 011700Z 14006KT 090V190 9999 FEW025 BKN100 28/23 Q1011 NOSIG RMK A2985
RPLL,2025-04-01 18:00,RPLL 011800Z 12006KT 090V160 9999 FEW025 BKN100 28/23 Q1011 NOSIG RMK A2985
RPLL,2025-04-01 19:00,RPLL 011900Z 12006KT 080V160 9999 FEW025 SCT100 28/22 Q1010 NOSIG RMK A2983
RPLL,2025-04-01 20:00,RPLL 012000Z 10004KT 070V140 9999 FEW025 28/22 Q1010 NOSIG RMK A2983
RPLL,2025-04-01 21:00,RPLL 012100Z 09004KT 050V140 9999 FEW025 28/23 Q1011 NOSIG RMK A2985
RPLL,2025-04-01 22:00,RPLL 012200Z 12003KT 090V160 9999 FEW025 27/23 Q1011 NOSIG RMK A2985
RPLL,2025-04-01 23:00,RPLL 012300Z 10004KT 070V150 9999 FEW025 29/23 Q1012 NOSIG RMK A2988
RPLL,2025-04-02 00:00,RPLL 020000Z 08007KT 050V140 9999 FEW025 30/22 Q1013 NOSIG RMK A2991
RPLL,2025-04-02 01:00,RPLL 020100Z 12005KT 070V170 9999 FEW025 32/22 Q1014 NOSIG RMK A2994
RPLL,2025-04-02 02:00,RPLL 020200Z VRB04KT 9999 FEW025 32/22 Q1013 NOSIG RMK A2991
RPLL,2025-04-02 03:00,RPLL 020300Z 13005KT 070V170 9999 FEW025 SCT100 32/22 Q1013 NOSIG RMK A2991
RPLL,2025-04-02 04:00,RPLL 020400Z VRB05KT 9999 FEW025 SCT100 33/22 Q1013 NOSIG RMK A2991
RPLL,2025-04-02 05:00,RPLL 020500Z VRB03KT 9999 FEW025 SCT100 33/22 Q1012 NOSIG RMK A2988
RPLL,2025-04-02 06:00,RPLL 020600Z VRB06KT 9999 FEW025 SCT100 34/22 Q1011 NOSIG RMK A2985
RPLL,2025-04-02 07:00,RPLL 020700Z VRB05KT 9999 FEW025 SCT100 34/22 Q1010 NOSIG RMK A2983
RPLL,2025-04-02 08:00,RPLL 020800Z 12007KT 080V190 9999 FEW025 SCT100 34/22 Q1010 NOSIG RMK A2983
RPLL,2025-04-02 09:00,RPLL 020900Z 15008KT 100V210 9999 FEW025 33/24 Q1010 NOSIG RMK A2983
RPLL,2025-04-02 10:00,RPLL 021000Z 14007KT 100V170 9999 FEW025 31/24 Q1010 NOSIG RMK A2983
RPLL,2025-04-02 11:00,RPLL 021100Z 14007KT 090V200 9999 FEW025 30/24 Q1010 NOSIG RMK A2983
RPLL,2025-04-02 12:00,RPLL 021200Z 14006KT 080V180 9999 FEW025 29/24 Q1011 NOSIG RMK A2985
RPLL,2025-04-02 13:00,RPLL 021300Z 12006KT 070V150 9999 FEW025 29/23 Q1012 NOSIG RMK A2988
RPLL,2025-04-02 14:00,RPLL 021400Z 11007KT 070V140 9999 FEW025 28/23 Q1013 NOSIG RMK A2991
RPLL,2025-04-02 15:00,RPLL 021500Z 13005KT 090V170 9999 FEW025 SCT100 28/23 Q1013 NOSIG RMK A2991
RPLL,2025-04-02 16:00,RPLL 021600Z 12006KT 070V190 9999 FEW025 BKN100 28/23 Q1013 NOSIG RMK A2991
RPLL,2025-04-02 17:00,RPLL 021700Z 12005KT 080V160 9999 FEW025 BKN100 28/23 Q1012 NOSIG RMK A2988
RPLL,2025-04-02 18:00,RPLL 021800Z 10005KT 070V130 9999 FEW025 BKN100 28/23 Q1012 NOSIG RMK A2988
RPLL,2025-04-02 19:00,RPLL 021900Z 10003KT 070V130 9999 FEW025 BKN100 28/23 Q1011 NOSIG RMK A2985
RPLL,2025-04-02 20:00,RPLL 022000Z 12003KT 080V160 9999 FEW025 SCT100 28/23 Q1011 NOSIG RMK A2985
RPLL,2025-04-02 21:00,RPLL 022100Z VRB01KT 9999 FEW025 27/23 Q1012 NOSIG RMK A2988
RPLL,2025-04-02 22:00,RPLL 022200Z 15003KT 100V180 9999 FEW025 27/23 Q1012 NOSIG RMK A2988
RPLL,2025-04-02 23:00,RPLL 022300Z 12004KT 050V170 9999 FEW025 29/23 Q1013 NOSIG RMK A2991
RPLL,2025-04-03 00:00,RPLL 030000Z 12004KT 090V170 9999 FEW025 30/23 Q1014 NOSIG RMK A2994
RPLL,2025-04-03 01:00,RPLL 030100Z VRB04KT 9999 FEW025 31/22 Q1014 NOSIG RMK A2994
RPLL,2025-04-03 02:00,RPLL 030200Z 09005KT 010V140 9999 FEW025 32/22 Q1014 NOSIG RMK A2994
RPLL,2025-04-03 03:00,RPLL 030300Z 27005KT 170V340 9999 FEW025 32/24 Q1013 NOSIG RMK A2991
RPLL,2025-04-03 04:00,RPLL 030400Z 28005KT 250V320 9999 FEW025 31/24 Q1013 NOSIG RMK A2991
RPLL,2025-04-03 05:00,RPLL 030500Z 13007KT 070V220 9999 FEW025 SCT100 34/24 Q1012 NOSIG RMK A2988
RPLL,2025-04-03 06:00,RPLL 030600Z 11007KT 060V160 9999 FEW025 34/23 Q1011 RMK A2985
RPLL,2025-04-03 07:00,RPLL 030700Z 13008KT 090V180 9999 SCT025 33/24 Q1010 NOSIG RMK A2983
RPLL,2025-04-03 08:00,RPLL 030800Z 14008KT 100V180 9999 FEW025 33/24 Q1010 NOSIG RMK A2983
RPLL,2025-04-03 09:00,RPLL 030900Z 13008KT 080V200 9999 FEW025 32/24 Q1010 NOSIG RMK A2983
RPLL,2025-04-03 10:00,RPLL 031000Z 13008KT 080V180 9999 FEW025 31/24 Q1010 NOSIG RMK A2983
RPLL,2025-04-03 11:00,RPLL 031100Z 13007KT 090V180 9999 FEW025 30/24 Q1011 NOSIG RMK A2985
RPLL,2025-04-03 12:00,RPLL 031200Z 12007KT 080V150 9999 FEW025 30/23 Q1011 NOSIG RMK A2985
RPLL,2025-04-03 13:00,RPLL 031300Z 11007KT 080V160 9999 FEW025 29/24 Q1012 NOSIG RMK A2988
RPLL,2025-04-03 14:00,RPLL 031400Z 13008KT 090V170 9999 FEW025 29/24 Q1012 NOSIG RMK A2988
RPLL,2025-04-03 15:00,RPLL 031500Z 12007KT 090V160 9999 FEW025 SCT100 29/24 Q1012 NOSIG RMK A2988
RPLL,2025-04-03 16:00,RPLL 031600Z 12005KT 090V170 9999 FEW025 28/23 Q1012 NOSIG RMK A2988
RPLL,2025-04-03 17:00,RPLL 031700Z VRB05KT 9999 FEW025 28/24 Q1012 NOSIG RMK A2988
RPLL,2025-04-03 18:00,RPLL 031800Z 11005KT 080V170 9999 FEW025 SCT100 28/24 Q1011 NOSIG RMK A2985
RPLL,2025-04-03 19:00,RPLL 031900Z 11004KT 070V150 9999 FEW025 BKN100 28/24 Q1011 NOSIG RMK A2985
RPLL,2025-04-03 20:00,RPLL 032000Z 09006KT 9999 FEW025 BKN090 28/24 Q1011 NOSIG RMK A2985
RPLL,2025-04-03 21:00,RPLL 032100Z 09005KT 060V120 9999 -SHRA FEW025 BKN090 28/24 Q1012 NOSIG RMK A2988
RPLL,2025-04-03 22:00,RPLL 032200Z 10003KT 070V140 9999 FEW025 SCT100 28/24 Q1012 NOSIG RMK A2988
RPLL,2025-04-03 23:00,RPLL 032300Z 11007KT 080V140 9999 FEW025 29/23 Q1012 NOSIG RMK A2988
RPLL,2025-04-04 00:00,RPLL 040000Z 12007KT 080V160 9999 FEW025 BKN100 30/23 Q1013 NOSIG RMK A2991
RPLL,2025-04-04 01:00,RPLL 040100Z 10007KT 070V190 9999 FEW025 BKN100 31/23 Q1013 NOSIG RMK A2991
RPLL,2025-04-04 02:00,RPLL 040200Z 10008KT 060V180 9999 FEW025 32/23 Q1013 NOSIG RMK A2991
RPLL,2025-04-04 03:00,RPLL 040300Z 12008KT 070V170 9999 FEW025 33/23 Q1013 NOSIG RMK A2991
RPLL,2025-04-04 04:00,RPLL 040400Z 13007KT 080V210 9999 FEW025 SCT100 34/23 Q1012 NOSIG RMK A2988
RPLL,2025-04-04 05:00,RPLL 040500Z 13009KT 070V170 9999 FEW025 SCT100 34/23 Q1011 NOSIG RMK A2985
RPLL,2025-04-04 06:00,RPLL 040600Z 13008KT 070V180 9999 SCT025 34/23 Q1010 NOSIG RMK A2983
RPLL,2025-04-04 07:00,RPLL 040700Z 12009KT 090V160 9999 SCT025 34/23 Q1010 NOSIG RMK A2983
RPLL,2025-04-04 08:00,RPLL 040800Z 12008KT 080V180 9999 FEW025 34/23 Q1009 NOSIG RMK A2980
RPLL,2025-04-04 09:00,RPLL 040900Z 11009KT 060V150 9999 FEW025 33/24 Q1009 NOSIG RMK A2980
RPLL,2025-04-04 10:00,RPLL 041000Z 13008KT 090V180 9999 FEW025 31/24 Q1010 NOSIG RMK A2983
RPLL,2025-04-04 11:00,RPLL 041100Z 11007KT 080V150 9999 FEW025 30/24 Q1011 NOSIG RMK A2985
RPLL,2025-04-04 12:00,RPLL 041200Z 12008KT 080V160 9999 FEW025 30/24 Q1011 NOSIG RMK A2985
RPLL,2025-04-04 13:00,RPLL 041300Z 13009KT 090V160 9999 FEW025 29/23 Q1012 NOSIG RMK A2988
RPLL,2025-04-04 14:00,RPLL 041400Z 12007KT 080V160 9999 FEW025 29/23 Q1012 NOSIG RMK A2988
RPLL,2025-04-04 15:00,RPLL 041500Z 12009KT 070V170 9999 FEW025 29/23 Q1012 NOSIG RMK A2988
RPLL,2025-04-04 16:00,RPLL 041600Z 11008KT 060V150 9999 FEW025 29/24 Q1012 NOSIG RMK A2988
RPLL,2025-04-04 17:00,RPLL 041700Z 11007KT 080V160 9999 FEW025 28/24 Q1011 NOSIG RMK A2985
RPLL,2025-04-04 18:00,RPLL 041800Z 11007KT 060V150 9999 FEW025 SCT100 28/24 Q1011 NOSIG RMK A2985
RPLL,2025-04-04 19:00,RPLL 041900Z 09005KT 060V120 9999 FEW025 BKN100 28/24 Q1011 NOSIG RMK A2985
RPLL,2025-04-04 20:00,RPLL 042000Z 06007KT 9999 FEW025 BKN100 27/24 Q1011 NOSIG RMK A2985
RPLL,2025-04-04 21:00,RPLL 042100Z 07011KT 9999 FEW025 SCT100 26/24 Q1011 NOSIG RMK A2985
RPLL,2025-04-04 22:00,RPLL 042200Z 05006KT 9999 FEW025 BKN100 26/24 Q1012 NOSIG RMK A2988
RPLL,2025-04-04 23:00,RPLL 042300Z 09004KT 9999 SCT025 BKN100 27/24 Q1012 NOSIG RMK A2988
RPLL,2025-04-05 00:00,RPLL 050000Z 05005KT 010V090 9999 SCT025 BKN100 29/23 Q1013 NOSIG RMK A2991
RPLL,2025-04-05 01:00,RPLL 050100Z 10003KT 010V150 9999 SCT025 BKN100 30/23 Q1013 NOSIG RMK A2991
RPLL,2025-04-05 02:00,RPLL 050200Z VRB05KT 9999 FEW025 BKN100 32/23 Q1013 NOSIG RMK A2991
RPLL,2025-04-05 03:00,RPLL 050300Z 13006KT 070V190 9999 FEW025 BKN100 32/25 Q1013 NOSIG RMK A2991
RPLL,2025-04-05 04:00,RPLL 050400Z 12008KT 070V170 9999 FEW023CB SCT025 BKN100 33/24 Q1012 NOSIG RMK A2988 CB N
RPLL,2025-04-05 05:00,RPLL 050500Z VRB08KT 9999 VCSH FEW023CB SCT025 BKN100 30/24 Q1011 NOSIG RMK A2985 CB/VCSH N
RPLL,2025-04-05 06:00,RPLL 050600Z 07011KT 9999 SCT025 BKN100 30/24 Q1010 NOSIG RMK A2983
RPLL,2025-04-05 07:00,RPLL 050700Z 06007KT 010V100 9999 FEW025 BKN100 32/23 Q1009 NOSIG RMK A2980
RPLL,2025-04-05 08:00,RPLL 050800Z 08008KT 050V130 9999 FEW025 SCT100 32/24 Q1009 NOSIG RMK A2980
RPLL,2025-04-05 09:00,RPLL 050900Z 11008KT 9999 FEW025 SCT100 32/23 Q1009 NOSIG RMK A2980
RPLL,2025-04-05 10:00,RPLL 051000Z 11008KT 080V150 9999 FEW025 SCT100 31/23 Q1010 NOSIG RMK A2983
RPLL,2025-04-05 11:00,RPLL 051100Z 14006KT 080V190 9999 FEW025 30/24 Q1010 NOSIG RMK A2983
RPLL,2025-04-05 12:00,RPLL 051200Z 15006KT 110V180 9999 FEW025 30/23 Q1011 NOSIG RMK A2985
RPLL,2025-04-05 13:00,RPLL 051300Z 15005KT 090V190 9999 FEW025 29/23 Q1011 NOSIG RMK A2985
RPLL,2025-04-05 14:00,RPLL 051400Z 13005KT 090V160 9999 FEW025 29/23 Q1012 NOSIG RMK A2988
RPLL,2025-04-05 15:00,RPLL 051500Z 12006KT 070V180 9999 FEW025 29/22 Q1012 NOSIG RMK A2988
RPLL,2025-04-05 16:00,RPLL 051600Z 12005KT 070V170 9999 FEW025 28/23 Q1011 NOSIG RMK A2985
RPLL,2025-04-05 17:00,RPLL 051700Z 12005KT 070V150 9999 FEW025 28/23 Q1011 NOSIG RMK A2985
RPLL,2025-04-05 18:00,RPLL 051800Z 11004KT 080V150 9999 FEW025 28/23 Q1010 NOSIG RMK A2983
RPLL,2025-04-05 19:00,RPLL 051900Z 09003KT 060V120 9999 FEW025 27/23 Q1010 NOSIG RMK A2983
RPLL,2025-04-05 20:00,RPLL 052000Z 10003KT 060V120 9999 FEW025 27/23 Q1010 NOSIG RMK A2983
RPLL,2025-04-05 21:00,RPLL 052100Z 10002KT 9999 FEW025 27/22 Q1010 NOSIG RMK A2983
RPLL,2025-04-05 22:00,RPLL 052200Z 06003KT 9999 FEW025 26/22 Q1011 NOSIG RMK A2985
RPLL,2025-04-05 23:00,RPLL 052300Z 06003KT 9999 FEW025 27/23 Q1011 NOSIG RMK A2985
RPLL,2025-04-06 00:00,RPLL 060000Z VRB02KT 9999 FEW025 SCT100 30/22 Q1012 NOSIG RMK A2988
RPLL,2025-04-06 01:00,RPLL 060100Z VRB03KT 9999 FEW025 31/22 Q1013 NOSIG RMK A2991
RPLL,2025-04-06 02:00,RPLL 060200Z 10005KT 050V170 9999 FEW025 32/22 Q1013 NOSIG RMK A2991
RPLL,2025-04-06 03:00,RPLL 060300Z 28006KT 230V350 9999 FEW025 31/24 Q1012 NOSIG RMK A2988
RPLL,2025-04-06 04:00,RPLL 060400Z 28004KT 230V340 9999 FEW025 BKN100 32/24 Q1012 NOSIG RMK A2988
RPLL,2025-04-06 05:00,RPLL 060500Z 28003KT 210V350 9999 FEW025 BKN100 32/24 Q1011 NOSIG RMK A2985
RPLL,2025-04-06 06:00,RPLL 060600Z 12008KT 080V210 9999 SCT025 34/23 Q1009 NOSIG RMK A2980
RPLL,2025-04-06 07:00,RPLL 060700Z 15008KT 070V210 9999 FEW025 35/23 Q1009 NOSIG RMK A2980
RPLL,2025-04-06 08:00,RPLL 060800Z 14009KT 090V190 9999 FEW025 33/22 Q1009 NOSIG RMK A2980
RPLL,2025-04-06 09:00,RPLL 060900Z 13008KT 090V160 9999 FEW025 34/22 Q1009 NOSIG RMK A2980
RPLL,2025-04-06 10:00,RPLL 061000Z 12007KT 060V180 9999 FEW025 32/23 Q1010 NOSIG RMK A2983
RPLL,2025-04-06 11:00,RPLL 061100Z 14005KT 090V190 9999 FEW025 31/23 Q1011 NOSIG RMK A2985
RPLL,2025-04-06 12:00,RPLL 061200Z 15005KT 110V200 9999 FEW025 30/23 Q1011 NOSIG RMK A2985
RPLL,2025-04-06 13:00,RPLL 061300Z 15004KT 100V210 9999 FEW025 SCT100 30/23 Q1012 NOSIG RMK A2988 METAR RPVM 061300Z 01004KT 9999 FEW020 SCT300 29/25 Q1012 NOSIG RMK A2988
RPLL,2025-04-06 14:00,RPLL 061400Z 17006KT 120V210 9999 FEW025 SCT100 29/25 Q1013 NOSIG RMK A2991
RPLL,2025-04-06 15:00,RPLL 061500Z 16004KT 100V200 9999 FEW025 BKN100 29/25 Q1013 NOSIG RMK A2991
RPLL,2025-04-06 16:00,RPLL 061600Z 14004KT 090V190 9999 FEW025 BKN100 29/25 Q1013 NOSIG RMK A2991
RPLL,2025-04-06 17:00,RPLL 061700Z 11003KT 070V140 9999 FEW025 BKN100 29/24 Q1012 NOSIG RMK A2988
RPLL,2025-04-06 18:00,RPLL 061800Z 03005KT 9000 SCT025 28/25 Q1012 NOSIG RMK A2988
RPLL,2025-04-06 19:00,RPLL 061900Z 07005KT 040V110 9999 FEW025 SCT100 28/25 Q1011 NOSIG RMK A2985
RPLL,2025-04-06 20:00,RPLL 062000Z VRB05KT 9999 FEW025 28/24 Q1011 NOSIG RMK A2985
RPLL,2025-04-06 21:00,RPLL 062100Z 14004KT 100V190 9999 FEW025 28/24 Q1012 NOSIG RMK A2988
RPLL,2025-04-06 22:00,RPLL 062200Z 12004KT 080V160 9999 FEW025 27/23 Q1012 NOSIG RMK A2988
RPLL,2025-04-06 23:00,RPLL 062300Z 10004KT 060V140 9999 FEW025 29/23 Q1013 NOSIG RMK A2991
RPLL,2025-04-07 00:00,RPLL 070000Z 12005KT 070V150 9999 FEW025 30/22 Q1014 NOSIG RMK A2994
RPLL,2025-04-07 01:00,RPLL 070100Z 11006KT 070V160 9999 FEW025 32/21 Q1014 NOSIG RMK A2994
RPLL,2025-04-07 02:00,RPLL 070200Z 11008KT 060V160 9999 FEW025 32/22 Q1014 NOSIG RMK A2994
RPLL,2025-04-07 03:00,RPLL 070300Z 11008KT 060V180 9999 FEW025 34/24 Q1014 NOSIG RMK A2994
RPLL,2025-04-07 04:00,RPLL 070400Z 12009KT 080V170 9999 FEW025 33/24 Q1013 NOSIG RMK A2991
RPLL,2025-04-07 05:00,RPLL 070500Z 12010KT 080V180 9999 FEW025 34/24 Q1012 NOSIG RMK A2988
RPLL,2025-04-07 06:00,RPLL 070600Z 13008KT 080V180 9999 FEW025 35/24 Q1011 NOSIG RMK A2985
RPLL,2025-04-07 07:00,RPLL 070700Z 12009KT 080V170 9999 FEW025 34/24 Q1010 NOSIG RMK A2983
RPLL,2025-04-07 08:00,RPLL 070800Z 12009KT 050V180 9999 FEW025 34/24 Q1010 NOSIG RMK A2983
RPLL,2025-04-07 09:00,RPLL 070900Z 13007KT 090V170 9999 FEW025 33/24 Q1010 NOSIG RMK A2983
RPLL,2025-04-07 10:00,RPLL 071000Z 12008KT 080V150 9999 FEW025 32/24 Q1011 NOSIG RMK A2985
RPLL,2025-04-07 11:00,RPLL 071100Z 12008KT 080V150 9999 FEW025 31/24 Q1012 NOSIG RMK A2988
RPLL,2025-04-07 12:00,RPLL 071200Z 11006KT 070V140 9999 FEW025 31/24 Q1013 NOSIG RMK A2991
RPLL,2025-04-07 13:00,RPLL 071300Z 13007KT 090V170 9999 FEW025 30/24 Q1013 NOSIG RMK A2991
RPLL,2025-04-07 14:00,RPLL 071400Z 12007KT 090V150 9999 FEW025 30/24 Q1014 NOSIG RMK A2994
RPLL,2025-04-07 15:00,RPLL 071500Z 12008KT 090V170 9999 FEW025 30/24 Q1014 NOSIG RMK A2994
RPLL,2025-04-07 16:00,RPLL 071600Z 11006KT 060V160 9999 FEW025 29/24 Q1013 NOSIG RMK A2991
RPLL,2025-04-07 17:00,RPLL 071700Z 12004KT 060V200 9999 FEW025 29/24 Q1013 NOSIG RMK A2991
RPLL,2025-04-07 18:00,RPLL 071800Z 12005KT 080V230 9999 FEW025 29/24 Q1012 NOSIG RMK A2988
RPLL,2025-04-07 19:00,RPLL 071900Z 12004KT 080V160 9999 FEW025 28/24 Q1012 NOSIG RMK A2988
RPLL,2025-04-07 20:00,RPLL 072000Z 11004KT 070V150 9999 FEW025 28/24 Q1012 NOSIG RMK A2988
RPLL,2025-04-07 21:00,RPLL 072100Z 12004KT 080V160 9999 FEW025 28/24 Q1012 NOSIG RMK A2988
RPLL,2025-04-07 22:00,RPLL 072200Z 12004KT 080V150 9999 FEW025 28/23 Q1013 NOSIG RMK A2991
RPLL,2025-04-07 23:00,RPLL 072300Z 11005KT 070V150 9999 FEW025 29/24 Q1013 NOSIG RMK A2991
RPLL,2025-04-08 00:00,RPLL 080000Z 08004KT 050V180 9999 FEW025 30/23 Q1014 NOSIG RMK A2994
RPLL,2025-04-08 01:00,RPLL 080100Z VRB06KT 9999 FEW025 32/24 Q1014 NOSIG RMK A2994
RPLL,2025-04-08 02:00,RPLL 080200Z 11006KT 070V140 9999 FEW025 BKN100 31/23 Q1014 NOSIG RMK A2994
RPLL,2025-04-08 03:00,RPLL 080300Z 13007KT 040V180 9999 FEW025 33/23 Q1014 NOSIG RMK A2994
RPLL,2025-04-08 04:00,RPLL 080400Z 12007KT 020V190 9999 FEW025 34/24 Q1013 NOSIG RMK A2991
RPLL,2025-04-08 05:00,RPLL 080500Z 12010KT 080V200 9999 FEW025 34/24 Q1012 NOSIG RMK A2988
RPLL,2025-04-08 06:00,RPLL 080600Z 15009KT 090V190 9999 FEW025 34/24 Q1011 NOSIG RMK A2985
RPLL,2025-04-08 07:00,RPLL 080700Z 15009KT 110V200 9999 FEW025 SCT100 34/24 Q1011 NOSIG RMK A2985
RPLL,2025-04-08 08:00,RPLL 080800Z 14009KT 090V180 9999 SCT025TCU 34/24 Q1010 NOSIG RMK A2983 TCU N/NE
RPLL,2025-04-08 09:00,RPLL 080900Z 13009KT 080V170 9999 FEW025TCU SCT100 33/24 Q1010 NOSIG RMK A2983 TCU E
RPLL,2025-04-08 10:00,RPLL 081000Z 14007KT 100V180 9999 FEW025 32/24 Q1011 NOSIG RMK A2985
RPLL,2025-04-08 11:00,RPLL 081100Z VRB07KT 9999 FEW025 31/24 Q1011 NOSIG RMK A2985
RPLL,2025-04-08 12:00,RPLL 081200Z 12008KT 080V160 9999 FEW025 30/23 Q1012 NOSIG RMK A2988
RPLL,2025-04-08 13:00,RPLL 081300Z 12007KT 080V160 9999 FEW025 30/23 Q1012 NOSIG RMK A2988
RPLL,2025-04-08 14:00,RPLL 081400Z 13006KT 090V170 9999 FEW025 29/24 Q1013 NOSIG RMK A2991
RPLL,2025-04-08 15:00,RPLL 081500Z 12007KT 070V150 9999 FEW025 29/23 Q1013 NOSIG RMK A2991
RPLL,2025-04-08 16:00,RPLL 081600Z 11006KT 070V140 9999 FEW025 BKN100 29/23 Q1012 NOSIG RMK A2988
RPLL,2025-04-08 17:00,RPLL 081700Z 12006KT 090V170 9999 FEW025 BKN100 29/23 Q1012 NOSIG RMK A2988
RPLL,2025-04-08 18:00,RPLL 081800Z 12006KT 080V160 9999 FEW025 BKN100 29/23 Q1011 NOSIG RMK A2985
RPLL,2025-04-08 19:00,RPLL 081900Z 12007KT 080V170 9999 FEW025 BKN100 29/24 Q1010 NOSIG RMK A2983
RPLL,2025-04-08 20:00,RPLL 082000Z 13006KT 080V160 9999 FEW025 SCT100 28/23 Q1010 NOSIG RMK A2983
RPLL,2025-04-08 21:00,RPLL 082100Z 13006KT 100V170 9999 FEW025 28/23 Q1011 NOSIG RMK A2985
RPLL,2025-04-08 22:00,RPLL 082200Z 13004KT 090V200 9999 FEW025 SCT100 28/23 Q1011 NOSIG RMK A2985
RPLL,2025-04-08 23:00,RPLL 082300Z 12004KT 080V210 9999 FEW025 29/23 Q1011 NOSIG RMK A2985
RPLL,2025-04-09 00:00,RPLL 090000Z 11005KT 060V210 9999 FEW025 30/23 Q1013 NOSIG RMK A2991
RPLL,2025-04-09 01:00,RPLL 090100Z 11005KT 020V190 9999 FEW025 31/23 Q1013 NOSIG RMK A2991
RPLL,2025-04-09 02:00,RPLL 090200Z 12005KT 070V180 9999 FEW025 33/23 Q1012 NOSIG RMK A2988
RPLL,2025-04-09 03:00,RPLL 090300Z VRB06KT 9999 FEW025 34/23 Q1012 NOSIG RMK A2988
RPLL,2025-04-09 04:00,RPLL 090400Z 16006KT 090V220 9999 FEW025 34/23 Q1011 NOSIG RMK A2985
RPLL,2025-04-09 05:00,RPLL 090500Z 14006KT 070V210 9999 FEW025 35/23 Q1010 NOSIG RMK A2983
RPLL,2025-04-09 06:00,RPLL 090600Z 16007KT 100V230 9999 FEW025 35/22 Q1009 NOSIG RMK A2980
RPLL,2025-04-09 07:00,RPLL 090700Z 13008KT 080V200 9999 FEW025 35/22 Q1008 NOSIG RMK A2977
RPLL,2025-04-09 08:00,RPLL 090800Z 13010KT 090V180 9999 FEW025 34/21 Q1008 NOSIG RMK A2977
RPLL,2025-04-09 09:00,RPLL 090900Z 13009KT 090V180 9999 FEW025 34/22 Q1008 NOSIG RMK A2977
RPLL,2025-04-09 10:00,RPLL 091000Z 13007G17KT 100V160 9999 FEW025 32/22 Q1009 NOSIG RMK A2980
RPLL,2025-04-09 11:00,RPLL 091100Z 12008KT 070V160 9999 FEW025 31/22 Q1010 NOSIG RMK A2983
RPLL,2025-04-09 12:00,RPLL 091200Z 12006KT 080V160 9999 FEW025 30/23 Q1010 NOSIG RMK A2983
RPLL,2025-04-09 13:00,RPLL 091300Z 12006KT 090V180 9999 FEW025 30/23 Q1011 NOSIG RMK A2985
RPLL,2025-04-09 14:00,RPLL 091400Z 13005KT 090V180 9999 FEW025 29/23 Q1011 NOSIG RMK A2985
RPLL,2025-04-09 15:00,RPLL 091500Z 14006KT 070V180 9999 FEW025 29/23 Q1011 NOSIG RMK A2985
RPLL,2025-04-09 16:00,RPLL 091600Z 12006KT 090V160 9999 FEW025 29/23 Q1011 NOSIG RMK A2985
RPLL,2025-04-09 17:00,RPLL 091700Z 15004KT 110V190 9999 FEW025 29/23 Q1010 NOSIG RMK A2983
RPLL,2025-04-09 18:00,RPLL 091800Z 15005KT 120V210 9999 FEW025 28/23 Q1009 NOSIG RMK A2980
RPLL,2025-04-09 19:00,RPLL 091900Z VRB02KT 9999 FEW025 28/22 Q1008 NOSIG RMK A2977
RPLL,2025-04-09 20:00,RPLL 092000Z VRB01KT 9999 FEW025 28/22 Q1008 NOSIG RMK A2977
RPLL,2025-04-09 21:00,RPLL 092100Z 15003KT 120V180 9999 FEW025 28/22 Q1009 NOSIG RMK A2980
RPLL,2025-04-09 22:00,RPLL 092200Z 14003KT 050V190 9999 FEW025 27/22 Q1009 NOSIG RMK A2980
RPLL,2025-04-09 23:00,RPLL 092300Z 13004KT 090V200 9999 FEW025 29/23 Q1010 NOSIG RMK A2983
RPLL,2025-04-10 00:00,RPLL 100000Z 14005KT 080V220 9999 FEW025 30/23 Q1011 NOSIG RMK A2985
RPLL,2025-04-10 01:00,RPLL 100100Z 16004KT 120V220 9999 FEW025 31/22 Q1011 NOSIG RMK A2985
RPLL,2025-04-10 02:00,RPLL 100200Z 12006KT 050V190 9999 FEW025 33/20 Q1010 NOSIG RMK A2983
RPLL,2025-04-10 03:00,RPLL 100300Z VRB05KT 9999 FEW025 34/20 Q1010 NOSIG RMK A2983
RPLL,2025-04-10 04:00,RPLL 100400Z 11006KT 050V190 9999 FEW025 34/20 Q1009 NOSIG RMK A2980
RPLL,2025-04-10 05:00,RPLL 100500Z 14007KT 070V220 9999 FEW025 35/21 Q1008 NOSIG RMK A2977
RPLL,2025-04-10 06:00,RPLL 100600Z 14006KT 070V180 9999 FEW025 36/21 Q1007 NOSIG RMK A2974
RPLL,2025-04-10 07:00,RPLL 100700Z VRB06KT 9999 FEW025 36/23 Q1006 NOSIG RMK A2971
RPLL,2025-04-10 08:00,RPLL 100800Z VRB05KT 9999 FEW025 36/24 Q1006 NOSIG RMK A2971
RPLL,2025-04-10 09:00,RPLL 100900Z 26011KT 9999 FEW025 32/24 Q1007 NOSIG RMK A2974
RPLL,2025-04-10 10:00,RPLL 101000Z 26010KT 9999 FEW025 31/25 Q1007 NOSIG RMK A2974
RPLL,2025-04-10 11:00,RPLL 101100Z 26009KT 220V280 9999 FEW025 30/25 Q1008 NOSIG RMK A2977
RPLL,2025-04-10 12:00,RPLL 101200Z 25011KT 9999 FEW025 30/26 Q1009 NOSIG RMK A2980
RPLL,2025-04-10 13:00,RPLL 101300Z 25007KT 9999 FEW025 BKN100 29/26 Q1010 NOSIG RMK A2983
RPLL,2025-04-10 14:00,RPLL 101400Z 28005KT 240V310 9999 FEW025 BKN100 29/26 Q1011 NOSIG RMK A2985
RPLL,2025-04-10 15:00,RPLL 101500Z 22005KT 9999 SCT025 30/25 Q1010 NOSIG RMK A2983
RPLL,2025-04-10 16:00,RPLL 101600Z 19004KT 160V220 9999 FEW025 BKN100 29/25 Q1010 NOSIG RMK A2983
RPLL,2025-04-10 17:00,RPLL 101700Z VRB02KT 9999 FEW025 BKN100 29/25 Q1009 NOSIG RMK A2980
RPLL,2025-04-10 18:00,RPLL 101800Z VRB01KT 9999 FEW025 BKN100 29/25 Q1009 NOSIG RMK A2980
RPLL,2025-04-10 19:00,RPLL 101900Z VRB02KT 9999 FEW025 BKN100 29/25 Q1008 NOSIG RMK A2977
RPLL,2025-04-10 20:00,RPLL 102000Z VRB02KT 9999 FEW025 SCT100 29/25 Q1008 NOSIG RMK A2977
RPLL,2025-04-10 21:00,RPLL 102100Z VRB01KT 9000 FEW025 29/25 Q1009 NOSIG RMK A2980
RPLL,2025-04-10 22:00,RPLL 102200Z 20003KT 170V240 9000 SCT025 29/25 Q1009 NOSIG RMK A2980
RPLL,2025-04-10 23:00,RPLL 102300Z 16003KT 120V200 9000 SCT025 BKN100 29/25 Q1010 NOSIG RMK A2983
RPLL,2025-04-11 00:00,RPLL 110000Z VRB02KT 9000 SCT025 BKN100 29/25 Q1011 NOSIG RMK A2985
RPLL,2025-04-11 01:00,RPLL 110100Z VRB02KT 9000 SCT025 BKN100 31/25 Q1011 NOSIG RMK A2985
RPLL,2025-04-11 02:00,RPLL 110200Z VRB03KT 9000 FEW025 SCT100 33/24 Q1011 NOSIG RMK A2985
RPLL,2025-04-11 03:00,RPLL 110300Z VRB06KT 9000 FEW025 34/24 Q1011 NOSIG RMK A2985
RPLL,2025-04-11 04:00,RPLL 110400Z 15007KT 080V200 9000 FEW025 35/24 Q1010 NOSIG RMK A2983
RPLL,2025-04-11 05:00,RPLL 110500Z 13009KT 070V190 9000 FEW025 35/24 Q1008 NOSIG RMK A2977
RPLL,2025-04-11 06:00,RPLL 110600Z 14010KT 100V190 9999 FEW025 35/23 Q1007 NOSIG RMK A2974
RPLL,2025-04-11 07:00,RPLL 110700Z 13010KT 090V180 9999 FEW025 35/23 Q1007 NOSIG RMK A2974
RPLL,2025-04-11 08:00,RPLL 110800Z 14010KT 100V180 9999 FEW025 35/23 Q1007 NOSIG RMK A2974
RPLL,2025-04-11 09:00,RPLL 110900Z 13009KT 090V170 9999 FEW025 34/24 Q1007 NOSIG RMK A2974
RPLL,2025-04-11 10:00,RPLL 111000Z 13007KT 090V160 9999 FEW025 33/25 Q1008 NOSIG RMK A2977
RPLL,2025-04-11 11:00,RPLL 111100Z 13006KT 090V190 9999 FEW025 32/25 Q1008 NOSIG RMK A2977
RPLL,2025-04-11 12:00,RPLL 111200Z 12007KT 070V160 9999 FEW025 31/25 Q1009 NOSIG RMK A2980
RPLL,2025-04-11 13:00,RPLL 111300Z 13008KT 090V200 9999 FEW025 30/24 Q1010 NOSIG RMK A2983
RPLL,2025-04-11 14:00,RPLL 111400Z 14006KT 100V180 9999 FEW025 30/23 Q1010 NOSIG RMK A2983
RPLL,2025-04-11 15:00,RPLL 111500Z 13007KT 090V190 9999 FEW025 30/24 Q1011 NOSIG RMK A2985
RPLL,2025-04-11 16:00,RPLL 111600Z 13008KT 090V170 9999 FEW025 29/24 Q1010 NOSIG RMK A2983
RPLL,2025-04-11 17:00,RPLL 111700Z 11007KT 050V170 9999 FEW025 29/23 Q1010 NOSIG RMK A2983
RPLL,2025-04-11 18:00,RPLL 111800Z 11004KT 080V140 9999 FEW025 29/23 Q1010 NOSIG RMK A2983
RPLL,2025-04-11 19:00,RPLL 111900Z VRB02KT 9999 FEW025 29/23 Q1009 NOSIG RMK A2980
RPLL,2025-04-11 20:00,RPLL 112000Z VRB02KT 9999 FEW025 28/22 Q1009 NOSIG RMK A2980
RPLL,2025-04-11 21:00,RPLL 112100Z 00000KT 9999 FEW025 28/23 Q1010 NOSIG RMK A2983
RPLL,2025-04-11 22:00,RPLL 112200Z 00000KT 9999 FEW025 28/23 Q1010 NOSIG RMK A2983
RPLL,2025-04-11 23:00,RPLL 112300Z VRB02KT 9999 FEW025 BKN100 29/23 Q1011 NOSIG RMK A2985
RPLL,2025-04-12 00:00,RPLL 120000Z 28003KT 240V340 9999 FEW025 BKN100 30/23 Q1012 NOSIG RMK A2988
RPLL,2025-04-12 01:00,RPLL 120100Z VRB05KT 9999 FEW025 33/23 Q1012 NOSIG RMK A2988
RPLL,2025-04-12 02:00,RPLL 120200Z 13007KT 070V220 9999 FEW025 33/24 Q1012 NOSIG RMK A2988
RPLL,2025-04-12 03:00,RPLL 120300Z 10009KT 060V150 9999 FEW025 33/23 Q1011 NOSIG RMK A2985
RPLL,2025-04-12 04:00,RPLL 120400Z 12008KT 050V200 9999 FEW025 35/23 Q1010 NOSIG RMK A2983
RPLL,2025-04-12 05:00,RPLL 120500Z VRB07KT 9999 FEW025 36/23 Q1009 NOSIG RMK A2980
RPLL,2025-04-12 06:00,RPLL 120600Z 12007KT 060V170 9999 FEW025 35/23 Q1008 NOSIG RMK A2977
RPLL,2025-04-12 07:00,RPLL 120700Z VRB07KT 9999 FEW025 36/23 Q1008 NOSIG RMK A2977
RPLL,2025-04-12 08:00,RPLL 120800Z 12007KT 070V200 9999 FEW025 36/23 Q1008 NOSIG RMK A2977
RPLL,2025-04-12 09:00,COR RPLL 120900Z 12007KT 090V160 9999 FEW023TCU 35/24 Q1008 NOSIG RMK A2977 TCU N
RPLL,2025-04-12 10:00,RPLL 121000Z 12008KT 090V160 9999 FEW025 33/25 Q1009 NOSIG RMK A2980
RPLL,2025-04-12 11:00,RPLL 121100Z 12009KT 090V170 9999 FEW025 32/25 Q1010 NOSIG RMK A2983
RPLL,2025-04-12 12:00,RPLL 121200Z 12008KT 090V170 9999 FEW025 31/25 Q1011 NOSIG RMK A2985
RPLL,2025-04-12 13:00,RPLL 121300Z 12007KT 070V180 9999 FEW025 30/25 Q1011 NOSIG RMK A2985
RPLL,2025-04-12 14:00,RPLL 121400Z 14008KT 090V180 9999 FEW025 30/25 Q1012 NOSIG RMK A2988
RPLL,2025-04-12 15:00,RPLL 121500Z 12006KT 070V150 9999 FEW025 30/25 Q1012 NOSIG RMK A2988
RPLL,2025-04-12 16:00,RPLL 121600Z 14006KT 080V170 9999 FEW025 30/25 Q1011 NOSIG RMK A2985
RPLL,2025-04-12 17:00,RPLL 121700Z 11006KT 070V170 9999 FEW025 30/25 Q1010 NOSIG RMK A2983
RPLL,2025-04-12 18:00,RPLL 121800Z 11004KT 070V140 9999 FEW025 29/25 Q1010 NOSIG RMK A2983
RPLL,2025-04-12 19:00,RPLL 121900Z 11005KT 060V130 9999 FEW025 29/25 Q1010 NOSIG RMK A2983
RPLL,2025-04-12 20:00,RPLL 122000Z 12003KT 090V150 9999 FEW025 29/25 Q1010 NOSIG RMK A2983
RPLL,2025-04-12 21:00,RPLL 122100Z 11004KT 080V160 9999 FEW025 29/25 Q1010 NOSIG RMK A2983
RPLL,2025-04-12 22:00,RPLL 122200Z 13004KT 080V170 9999 FEW025 SCT100 29/25 Q1011 NOSIG RMK A2985
RPLL,2025-04-12 23:00,RPLL 122300Z 11004KT 060V150 9999 FEW025 BKN100 30/25 Q1012 NOSIG RMK A2988
RPLL,2025-04-13 00:00,RPLL 130000Z 12005KT 070V150 9999 FEW025 31/25 Q1012 NOSIG RMK A2988
RPLL,2025-04-13 01:00,RPLL 130100Z 14005KT 090V200 9999 FEW025 32/25 Q1012 NOSIG RMK A2988
RPLL,2025-04-13 02:00,RPLL 130200Z VRB03KT 9999 SCT025 34/26 Q1012 NOSIG RMK A2988
RPLL,2025-04-13 03:00,RPLL 130300Z 31004KT 260V020 9999 SCT025 32/25 Q1011 NOSIG RMK A2985
RPLL,2025-04-13 04:00,RPLL 130400Z 29005KT 240V350 9000 SCT025 33/25 Q1011 NOSIG RMK A2985
RPLL,2025-04-13 05:00,RPLL 130500Z 29005KT 250V330 9000 SCT025 34/25 Q1009 NOSIG RMK A2980
RPLL,2025-04-13 06:00,RPLL 130600Z VRB03KT 9000 SCT025 35/25 Q1008 NOSIG RMK A2977
RPLL,2025-04-13 07:00,RPLL 130700Z VRB05KT 9000 FEW023CB SCT100 36/23 Q1008 NOSIG RMK A2977 CB N-NE
RPLL,2025-04-13 08:00,RPLL 130800Z 04018KT 9000 VCSH FEW023CB SCT025 BKN100 34/24 Q1008 TEMPO 7000 -TSRA RMK A2977 CB/VCSH N-NE
RPLL,2025-04-13 09:00,RPLL 130900Z 02006KT 9000 VCSH SCT023CB BKN100 31/24 Q1008 NOSIG RMK A2977 CB/VCSH NE
RPLL,2025-04-13 10:00,RPLL 131000Z 16004KT 090V210 9999 FEW023CB BKN100 32/24 Q1009 NOSIG RMK A2980 CB S-SW
RPLL,2025-04-13 11:00,RPLL 131100Z 15003KT 090V210 9999 FEW025 SCT100 30/25 Q1010 NOSIG RMK A2983
RPLL,2025-04-13 12:00,RPLL 131200Z VRB02KT 9999 FEW025 SCT100 31/24 Q1010 NOSIG RMK A2983
RPLL,2025-04-13 13:00,RPLL 131300Z 14003KT 080V210 9999 FEW025 SCT100 31/25 Q1011 NOSIG RMK A2985
RPLL,2025-04-13 14:00,RPLL 131400Z VRB02KT 9999 FEW025 BKN100 30/25 Q1011 NOSIG RMK A2985
RPLL,2025-04-13 15:00,RPLL 131500Z VRB01KT 9999 FEW025 SCT100 30/25 Q1011 NOSIG RMK A2985
RPLL,2025-04-13 16:00,RPLL 131600Z VRB02KT 9999 FEW025 SCT100 30/25 Q1010 NOSIG RMK A2983
RPLL,2025-04-13 17:00,RPLL 131700Z VRB02KT 9999 FEW025 SCT100 30/26 Q1010 NOSIG RMK A2983
RPLL,2025-04-13 18:00,RPLL 131800Z VRB02KT 9999 SCT025 BKN100 29/26 Q1009 NOSIG RMK A2980
RPLL,2025-04-13 19:00,RPLL 131900Z 12004KT 020V150 9999 SCT025 BKN100 29/26 Q1009 NOSIG RMK A2980
RPLL,2025-04-13 20:00,RPLL 132000Z 11003KT 070V140 9999 SCT025 BKN100 29/25 Q1009 NOSIG RMK A2980
RPLL,2025-04-13 21:00,RPLL 132100Z VRB01KT 9999 FEW025 BKN100 28/24 Q1009 NOSIG RMK A2980
RPLL,2025-04-13 22:00,RPLL 132200Z 21003KT 260V360 9999 FEW025 SCT100 29/24 Q1010 NOSIG RMK A2983
RPLL,2025-04-13 23:00,RPLL 132300Z 06003KT 320V090 9999 FEW025 29/24 Q1010 NOSIG RMK A2983
RPLL,2025-04-14 00:00,RPLL 140000Z VRB02KT 9000 FEW025 30/25 Q1012 NOSIG RMK A2988
RPLL,2025-04-14 01:00,RPLL 140100Z 26003KT 220V330 9000 FEW025 32/25 Q1012 NOSIG RMK A2988
RPLL,2025-04-14 02:00,RPLL 140200Z 31006KT 270V340 9000 SCT025 31/25 Q1012 NOSIG RMK A2988
RPLL,2025-04-14 03:00,RPLL 140300Z 29006KT 9000 SCT025 32/25 Q1012 NOSIG RMK A2988
RPLL,2025-04-14 04:00,RPLL 140400Z 30007KT 270V330 8000 SCT025 34/25 Q1010 NOSIG RMK A2983
RPLL,2025-04-14 05:00,RPLL 140500Z 30007KT 250V360 8000 SCT025 34/24 Q1009 NOSIG RMK A2980
RPLL,2025-04-14 06:00,RPLL 140600Z 28008KT 8000 FEW025 35/24 Q1008 NOSIG RMK A2977
RPLL,2025-04-14 07:00,RPLL 140700Z 27008KT 9000 FEW025 35/22 Q1007 NOSIG RMK A2974
RPLL,2025-04-14 08:00,RPLL 140800Z 28008KT 9000 FEW025 35/22 Q1007 NOSIG RMK A2974
RPLL,2025-04-14 09:00,RPLL 140900Z 27008KT 9000 FEW025 34/23 Q1007 NOSIG RMK A2974
RPLL,2025-04-14 10:00,RPLL 141000Z 25008KT 210V270 9000 FEW025 33/25 Q1007 NOSIG RMK A2974
RPLL,2025-04-14 11:00,RPLL 141100Z 22008KT 9999 FEW025 SCT100 31/24 Q1008 NOSIG RMK A2977
RPLL,2025-04-14 12:00,RPLL 141200Z 22004KT 170V250 9999 FEW025 SCT100 31/25 Q1009 NOSIG RMK A2980
RPLL,2025-04-14 13:00,RPLL 141300Z 24006KT 210V010 9999 FEW025 BKN100 30/25 Q1010 NOSIG RMK A2983
RPLL,2025-04-14 14:00,RPLL 141400Z 23004KT 190V260 9999 SCT025 BKN100 30/25 Q1011 NOSIG RMK A2985
RPLL,2025-04-14 15:00,RPLL 141500Z 20004KT 140V230 9000 FEW025 SCT100 31/25 Q1011 NOSIG RMK A2985
RPLL,2025-04-14 16:00,RPLL 141600Z VRB02KT 9000 FEW025 BKN100 30/25 Q1010 NOSIG RMK A2983
RPLL,2025-04-14 17:00,RPLL 141700Z VRB02KT 9000 FEW025 SCT100 30/25 Q1010 NOSIG RMK A2983
RPLL,2025-04-14 18:00,RPLL 141800Z 14004KT 100V180 9000 FEW025 30/26 Q1009 NOSIG RMK A2980
RPLL,2025-04-14 19:00,RPLL 141900Z 16003KT 070V210 9000 FEW025 29/26 Q1009 NOSIG RMK A2980
RPLL,2025-04-14 20:00,RPLL 142000Z 12003KT 080V170 9000 FEW025 29/26 Q1009 NOSIG RMK A2980
RPLL,2025-04-14 21:00,RPLL 142100Z VRB04KT 9999 SCT025 BKN100 29/24 Q1010 NOSIG RMK A2983
RPLL,2025-04-14 22:00,RPLL 142200Z 06005KT 9999 SCT025 BKN100 29/25 Q1010 NOSIG RMK A2983
RPLL,2025-04-14 23:00,RPLL 142300Z 11003KT 9000 FEW025 SCT100 30/25 Q1010 NOSIG RMK A2983
RPLL,2025-04-15 00:00,RPLL 150000Z VRB02KT 8000 FEW025 SCT100 31/25 Q1011 NOSIG RMK A2985
RPLL,2025-04-15 01:00,RPLL 150100Z 33005KT 220V010 8000 FEW025 SCT100 30/25 Q1011 NOSIG RMK A2985
RPLL,2025-04-15 02:00,RPLL 150200Z VRB04KT 7000 FEW025 BKN100 32/25 Q1011 NOSIG RMK A2985
RPLL,2025-04-15 03:00,RPLL 150300Z 31007KT 270V360 8000 SCT025 33/25 Q1011 NOSIG RMK A2985
RPLL,2025-04-15 04:00,RPLL 150400Z 29008KT 250V340 8000 SCT025 33/25 Q1010 NOSIG RMK A2983
RPLL,2025-04-15 05:00,RPLL 150500Z 28009KT 9000 FEW025 34/25 Q1009 NOSIG RMK A2980
RPLL,2025-04-15 06:00,RPLL 150600Z 30008KT 270V330 9000 FEW025 34/25 Q1008 NOSIG RMK A2977
RPLL,2025-04-15 07:00,RPLL 150700Z 30007KT 270V330 9000 FEW025 35/25 Q1007 NOSIG RMK A2974
RPLL,2025-04-15 08:00,RPLL 150800Z 27008KT 9000 FEW025 34/23 Q1007 NOSIG RMK A2974
RPLL,2025-04-15 09:00,RPLL 150900Z 27011KT 9000 FEW025 32/26 Q1007 NOSIG RMK A2974
RPLL,2025-04-15 10:00,RPLL 151000Z 25010KT 9000 SCT025 31/25 Q1008 NOSIG RMK A2977
RPLL,2025-04-15 10:18,RPLL 151018Z 24006KT 200V270 9000 -SHRA FEW023CB SCT025 SCT100 31/25 Q1009 NOSIG RMK A2980 CB SE MOV OHD
RPLL,2025-04-15 11:00,RPLL 151100Z 21003KT 160V260 9000 FEW025 BKN100 31/25 Q1009 NOSIG RMK A2980
RPLL,2025-04-15 12:00,RPLL 151200Z 13005KT 080V180 9000 FEW025 SCT100 31/25 Q1009 NOSIG RMK A2980
RPLL,2025-04-15 13:00,RPLL 151300Z 15005KT 090V190 9000 FEW025 BKN100 31/25 Q1010 NOSIG RMK A2983
RPLL,2025-04-15 14:00,RPLL 151400Z 15005KT 100V200 9000 FEW025 SCT100 31/25 Q1010 NOSIG RMK A2985
RPLL,2025-04-15 15:00,RPLL 151500Z 15004KT 060V200 9000 FEW025 BKN100 30/25 Q1011 NOSIG RMK A2985
RPLL,2025-04-15 16:00,RPLL 151600Z 13004KT 080V180 9000 FEW025 BKN100 30/25 Q1010 NOSIG RMK A2983
RPLL,2025-04-15 17:00,RPLL 151700Z 14005KT 090V190 9000 FEW025 BKN100 30/26 Q1010 NOSIG RMK A2983
RPLL,2025-04-15 18:00,RPLL 151800Z 13006KT 090V170 9000 FEW025 BKN100 30/26 Q1009 NOSIG RMK A2980
RPLL,2025-04-15 19:00,RPLL 151900Z 16005KT 110V200 9000 FEW025 BKN100 29/26 Q1009 NOSIG RMK A2980
RPLL,2025-04-15 20:00,RPLL 152000Z 14003KT 080V200 9000 FEW025 BKN100 29/25 Q1009 NOSIG RMK A2980
RPLL,2025-04-15 21:00,RPLL 152100Z 10004KT 070V160 9000 FEW025 SCT100 29/24 Q1009 NOSIG RMK A2980
RPLL,2025-04-15 22:00,RPLL 152200Z 13004KT 080V180 9999 FEW025TCU BKN100 29/24 Q1010 NOSIG RMK A2983 TCU S
RPLL,2025-04-15 23:00,RPLL 152300Z VRB04KT 9999 FEW025 30/25 Q1010 NOSIG RMK A2983
RPLL,2025-04-16 00:00,RPLL 160000Z 12006KT 080V170 9999 FEW025 31/24 Q1011 NOSIG RMK A2985
RPLL,2025-04-16 01:00,RPLL 160100Z 14005KT 070V220 9999 FEW025 32/24 Q1011 NOSIG RMK A2985
RPLL,2025-04-16 02:00,RPLL 160200Z 13006KT 060V200 9999 FEW025 33/24 Q1011 NOSIG RMK A2985
RPLL,2025-04-16 03:00,RPLL 160300Z 12006KT 060V210 9000 FEW025 34/23 Q1011 NOSIG RMK A2985
RPLL,2025-04-16 04:00,RPLL 160400Z 13007KT 040V190 9000 FEW025 35/23 Q1010 NOSIG RMK A2983
RPLL,2025-04-16 05:00,RPLL 160500Z 12008KT 080V210 9000 FEW025 35/21 Q1009 NOSIG RMK A2980
RPLL,2025-04-16 06:00,RPLL 160600Z 14008KT 080V200 9999 FEW025 36/21 Q1008 NOSIG RMK A2977
RPLL,2025-04-16 07:00,RPLL 160700Z 13007KT 020V180 9999 FEW025 37/20 Q1008 NOSIG RMK A2977
RPLL,2025-04-16 08:00,RPLL 160800Z 12009KT 080V180 9999 FEW025 36/23 Q1008 NOSIG RMK A2977
RPLL,2025-04-16 09:00,RPLL 160900Z 12009KT 080V170 9999 FEW025 34/23 Q1008 NOSIG RMK A2977
RPLL,2025-04-16 10:00,RPLL 161000Z 12007KT 080V170 9999 FEW025 33/21 Q1008 NOSIG RMK A2977
RPLL,2025-04-16 11:00,RPLL 161100Z 09007KT 070V150 9999 FEW025 SCT150 32/21 Q1010 NOSIG RMK A2983
RPLL,2025-04-16 12:00,RPLL 161200Z 11005KT 070V150 9999 FEW025 31/22 Q1010 NOSIG RMK A2983
RPLL,2025-04-16 13:00,RPLL 161300Z 11005KT 070V140 9999 FEW025 31/22 Q1011 NOSIG RMK A2985
RPLL,2025-04-16 14:00,RPLL 161400Z 12005KT 080V150 9999 FEW025 30/22 Q1011 NOSIG RMK A2985
RPLL,2025-04-16 15:00,RPLL 161500Z 12007KT 090V150 9999 FEW025 30/23 Q1011 NOSIG RMK A2985
RPLL,2025-04-16 16:00,RPLL 161600Z 13005KT 090V170 9999 FEW025 29/23 Q1011 NOSIG RMK A2985
RPLL,2025-04-16 17:00,RPLL 161700Z 12005KT 080V150 9999 FEW025 29/24 Q1010 NOSIG RMK A2983
RPLL,2025-04-16 18:00,RPLL 161800Z 12005KT 090V160 9999 FEW025 29/23 Q1010 NOSIG RMK A2983
RPLL,2025-04-16 19:00,RPLL 161900Z 11004KT 070V130 9999 FEW025 29/24 Q1009 NOSIG RMK A2980
RPLL,2025-04-16 20:00,RPLL 162000Z 07003KT 9999 FEW025 27/23 Q1009 NOSIG RMK A2980
RPLL,2025-04-16 21:00,RPLL 162100Z 07004KT 9999 FEW025 26/22 Q1010 NOSIG RMK A2983
RPLL,2025-04-16 22:00,RPLL 162200Z 07004KT 9999 FEW025 27/23 Q1010 NOSIG RMK A2983
RPLL,2025-04-16 23:00,RPLL 162300Z 07004KT 020V130 9999 FEW025 29/22 Q1011 NOSIG RMK A2985
RPLL,2025-04-17 00:00,RPLL 170000Z 07003KT 030V140 9999 FEW025 30/22 Q1012 NOSIG RMK A2988
RPLL,2025-04-17 01:00,RPLL 170100Z 10007KT 050V150 9999 FEW025 32/23 Q1012 NOSIG RMK A2988
RPLL,2025-04-17 02:00,RPLL 170200Z 13005KT 060V220 9999 FEW025 33/24 Q1012 NOSIG RMK A2988
RPLL,2025-04-17 03:00,RPLL 170300Z VRB06KT 9999 FEW025 34/23 Q1012 NOSIG RMK A2988
RPLL,2025-04-17 04:00,RPLL 170400Z 14008KT 090V200 9999 FEW025 35/23 Q1011 NOSIG RMK A2985
RPLL,2025-04-17 05:00,RPLL 170500Z 14006KT 070V200 9999 FEW025 36/21 Q1010 NOSIG RMK A2983
RPLL,2025-04-17 06:00,RPLL 170600Z 11007KT 070V160 9999 FEW025 36/20 Q1009 NOSIG RMK A2980
RPLL,2025-04-17 07:00,RPLL 170700Z VRB06KT 9999 FEW025 37/22 Q1008 NOSIG RMK A2977
RPLL,2025-04-17 08:00,RPLL 170800Z 12009KT 090V170 9999 FEW025 35/23 Q1008 NOSIG RMK A2977
RPLL,2025-04-17 09:00,RPLL 170900Z 13007KT 060V180 9999 FEW025 35/23 Q1008 NOSIG RMK A2977
RPLL,2025-04-17 10:00,RPLL 171000Z 12008KT 090V180 9999 FEW025 33/23 Q1009 NOSIG RMK A2980
RPLL,2025-04-17 11:00,RPLL 171100Z 12006KT 080V190 9999 FEW025 32/22 Q1009 NOSIG RMK A2980
RPLL,2025-04-17 12:00,RPLL 171200Z 12006KT 080V160 9999 FEW025 31/23 Q1010 NOSIG RMK A2983
RPLL,2025-04-17 13:00,RPLL 171300Z 12006KT 090V170 9999 FEW025 31/23 Q1011 NOSIG RMK A2985
RPLL,2025-04-17 14:00,RPLL 171400Z 14005KT 090V180 9999 FEW025 30/23 Q1011 NOSIG RMK A2985
RPLL,2025-04-17 15:00,RPLL 171500Z 13006KT 010V180 9999 FEW025 30/23 Q1011 NOSIG RMK A2985
RPLL,2025-04-17 16:00,RPLL 171600Z 13005KT 070V180 9999 FEW025 29/23 Q1010 NOSIG RMK A2983
RPLL,2025-04-17 17:00,RPLL 171700Z 10006KT 070V130 9999 FEW025 29/23 Q1010 NOSIG RMK A2983
RPLL,2025-04-17 18:00,RPLL 171800Z 10004KT 070V140 9999 FEW025 29/23 Q1009 NOSIG RMK A2980
RPLL,2025-04-17 19:00,RPLL 171900Z 14004KT 120V180 9999 FEW025 28/22 Q1009 NOSIG RMK A2980
RPLL,2025-04-17 20:00,RPLL 172000Z 13003KT 090V170 9999 FEW025 28/22 Q1009 NOSIG RMK A2980
RPLL,2025-04-17 21:00,RPLL 172100Z 07003KT 9999 FEW025 25/22 Q1010 NOSIG RMK A2983
RPLL,2025-04-17 22:00,RPLL 172200Z 07004KT 9999 FEW025 26/22 Q1010 NOSIG RMK A2983
RPLL,2025-04-17 23:00,RPLL 172300Z 12006KT 090V150 9999 FEW025 29/22 Q1011 NOSIG RMK A2985
RPLL,2025-04-18 00:00,RPLL 180000Z 09004KT 050V140 9999 FEW025 31/20 Q1012 NOSIG RMK A2988
RPLL,2025-04-18 01:00,RPLL 180100Z 09006KT 050V170 9999 FEW025 32/20 Q1012 NOSIG RMK A2988
RPLL,2025-04-18 02:00,RPLL 180200Z 11006KT 060V160 9999 FEW025 33/21 Q1012 NOSIG RMK A2988
RPLL,2025-04-18 03:00,RPLL 180300Z 33005KT 240V020 9999 FEW025 33/23 Q1011 NOSIG RMK A2985
RPLL,2025-04-18 04:00,RPLL 180400Z VRB05KT 9999 FEW025 35/24 Q1011 NOSIG RMK A2985
RPLL,2025-04-18 05:00,RPLL 180500Z 12007KT 050V220 9999 FEW025 36/23 Q1009 NOSIG RMK A2980
RPLL,2025-04-18 06:00,RPLL 180600Z 13008KT 070V200 9999 FEW025 36/23 Q1009 NOSIG RMK A2980
RPLL,2025-04-18 07:00,RPLL 180700Z 13008KT 090V170 9999 FEW025 36/24 Q1008 NOSIG RMK A2977
RPLL,2025-04-18 08:00,RPLL 180800Z 12008KT 080V160 9999 FEW025 35/23 Q1008 NOSIG RMK A2977
RPLL,2025-04-18 09:00,RPLL 180900Z 12009KT 090V170 9999 FEW025 35/23 Q1008 NOSIG RMK A2977
RPLL,2025-04-18 10:00,RPLL 181000Z 12008KT 080V160 9999 FEW025 33/24 Q1008 NOSIG RMK A2977
RPLL,2025-04-18 11:00,RPLL 181100Z 13008KT 090V170 9999 FEW025 32/25 Q1009 NOSIG RMK A2980
RPLL,2025-04-18 12:00,RPLL 181200Z 14008KT 090V190 9999 FEW025 31/25 Q1010 NOSIG RMK A2983
RPLL,2025-04-18 13:00,RPLL 181300Z 14007KT 110V170 9999 FEW025 SCT100 31/25 Q1010 NOSIG RMK A2983
RPLL,2025-04-18 14:00,RPLL 181400Z 14006KT 090V190 9999 FEW025 31/25 Q1010 NOSIG RMK A2983
RPLL,2025-04-18 15:00,RPLL 181500Z 12007KT 070V150 9999 FEW025 SCT100 31/24 Q1010 NOSIG RMK A2983
RPLL,2025-04-18 16:00,RPLL 181600Z 12004KT 090V160 9999 FEW025 BKN100 30/24 Q1010 NOSIG RMK A2983
RPLL,2025-04-18 17:00,RPLL 181700Z 13005KT 090V170 9999 FEW025 SCT100 30/24 Q1010 NOSIG RMK A2983
RPLL,2025-04-18 18:00,RPLL 181800Z 12005KT 090V160 9999 FEW025 SCT100 30/24 Q1009 NOSIG RMK A2980
RPLL,2025-04-18 19:00,RPLL 181900Z 12006KT 080V160 9999 FEW025 30/24 Q1009 NOSIG RMK A2980
RPLL,2025-04-18 20:00,RPLL 182000Z 11005KT 070V140 9999 FEW025 29/24 Q1009 NOSIG RMK A2980
RPLL,2025-04-18 21:00,RPLL 182100Z VRB02KT 9999 FEW025 29/24 Q1009 NOSIG RMK A2980
RPLL,2025-04-18 22:00,RPLL 182200Z VRB02KT 9999 FEW025 29/23 Q1010 NOSIG RMK A2983
RPLL,2025-04-18 23:00,RPLL 182300Z 12003KT 060V170 9999 FEW025 30/23 Q1010 NOSIG RMK A2983
RPLL,2025-04-19 00:00,RPLL 190000Z 10006KT 060V140 9999 FEW025 32/24 Q1011 NOSIG RMK A2985
RPLL,2025-04-19 01:00,RPLL 190100Z 12008KT 080V220 9999 FEW025 32/25 Q1011 NOSIG RMK A2985
RPLL,2025-04-19 02:00,RPLL 190200Z 14008KT 070V190 9999 FEW025 33/25 Q1011 NOSIG RMK A2985
RPLL,2025-04-19 03:00,RPLL 190300Z 14009KT 100V180 9999 FEW025 34/24 Q1011 NOSIG RMK A2985
RPLL,2025-04-19 04:00,RPLL 190400Z 13010KT 060V180 9999 FEW025 35/23 Q1010 NOSIG RMK A2983
RPLL,2025-04-19 05:00,RPLL 190500Z 12011KT 090V180 9999 FEW025 35/22 Q1010 NOSIG RMK A2983
RPLL,2025-04-19 06:00,RPLL 190600Z 13011KT 100V190 9999 FEW025 35/20 Q1009 NOSIG RMK A2980
RPLL,2025-04-19 07:00,RPLL 190700Z 15011KT 090V180 9999 FEW025 36/20 Q1008 NOSIG RMK A2977
RPLL,2025-04-19 08:00,RPLL 190800Z 14011KT 100V190 9999 FEW025 35/19 Q1008 NOSIG RMK A2977
RPLL,2025-04-19 09:00,RPLL 190900Z 12011KT 090V170 9999 FEW025 34/20 Q1008 NOSIG RMK A2977
RPLL,2025-04-19 10:00,RPLL 191000Z 11009KT 050V130 9999 FEW025 33/20 Q1008 NOSIG RMK A2977
RPLL,2025-04-19 11:00,RPLL 191100Z 10005KT 050V140 9999 FEW025 32/22 Q1009 NOSIG RMK A2980
RPLL,2025-04-19 12:00,RPLL 191200Z 12006KT 090V160 9999 FEW025 31/23 Q1010 NOSIG RMK A2983
RPLL,2025-04-19 13:00,RPLL 191300Z 12007KT 090V160 9999 FEW025 30/23 Q1010 NOSIG RMK A2983
RPLL,2025-04-19 14:00,RPLL 191400Z 13006KT 080V180 9999 FEW025 30/23 Q1010 NOSIG RMK A2983
RPLL,2025-04-19 15:00,RPLL 191500Z 12006KT 080V160 9999 FEW025 30/22 Q1011 NOSIG RMK A2985
RPLL,2025-04-19 16:00,RPLL 191600Z 12006KT 080V190 9999 FEW025 29/21 Q1011 NOSIG RMK A2985
RPLL,2025-04-19 17:00,RPLL 191700Z VRB05KT 9999 FEW025 29/21 Q1011 NOSIG RMK A2985
RPLL,2025-04-19 18:00,RPLL 191800Z 10003KT 040V180 9999 FEW025 29/21 Q1010 NOSIG RMK A2983
RPLL,2025-04-19 19:00,RPLL 191900Z 09005KT 070V130 9999 FEW025 29/20 Q1010 NOSIG RMK A2983
RPLL,2025-04-19 20:00,RPLL 192000Z 07004KT 9999 FEW025 27/21 Q1010 NOSIG RMK A2983
RPLL,2025-04-19 21:00,RPLL 192100Z 06005KT 9999 FEW025 27/20 Q1010 NOSIG RMK A2983
RPLL,2025-04-19 22:00,RPLL 192200Z 06004KT 020V100 9999 FEW025 28/20 Q1011 NOSIG RMK A2985
RPLL,2025-04-19 23:00,RPLL 192300Z 12003KT 070V140 9999 FEW025 30/19 Q1012 NOSIG RMK A2988
RPLL,2025-04-20 00:00,RPLL 200000Z VRB03KT 9999 FEW025 31/18 Q1012 NOSIG RMK A2988
RPLL,2025-04-20 01:00,RPLL 200100Z 09005KT 030V170 9999 FEW025 33/19 Q1012 NOSIG RMK A2988
RPLL,2025-04-20 02:00,RPLL 200200Z 09006KT 050V130 9999 FEW025 33/22 Q1012 NOSIG RMK A2988
RPLL,2025-04-20 03:00,RPLL 200300Z 12007KT 060V180 9999 FEW025 34/23 Q1012 NOSIG RMK A2988
RPLL,2025-04-20 04:00,RPLL 200400Z 11008KT 080V170 9999 SCT025 34/23 Q1011 NOSIG RMK A2985
RPLL,2025-04-20 05:00,RPLL 200500Z 13008KT 050V180 9999 SCT025 35/24 Q1010 NOSIG RMK A2983
RPLL,2025-04-20 06:00,RPLL 200600Z 12009KT 080V170 9999 SCT025 SCT100 35/23 Q1009 NOSIG RMK A2980
RPLL,2025-04-20 07:00,RPLL 200700Z 12008KT 080V160 9999 SCT025 BKN100 34/24 Q1009 NOSIG RMK A2980
RPLL,2025-04-20 08:00,RPLL 200800Z 12007KT 070V180 9999 FEW025 BKN100 35/25 Q1008 NOSIG RMK A2977
RPLL,2025-04-20 09:00,RPLL 200900Z 12007KT 080V150 9999 FEW025 BKN100 34/24 Q1009 NOSIG RMK A2980
RPLL,2025-04-20 10:00,RPLL 201000Z 12007KT 090V160 9999 FEW025 SCT100 33/25 Q1009 NOSIG RMK A2980
RPLL,2025-04-20 11:00,RPLL 201100Z 13006KT 090V200 9999 FEW025 SCT100 32/25 Q1010 NOSIG RMK A2983
RPLL,2025-04-20 12:00,RPLL 201200Z 12008KT 080V170 9999 FEW025 31/25 Q1010 NOSIG RMK A2983
RPLL,2025-04-20 13:00,RPLL 201300Z 12011KT 090V150 9999 FEW025 31/24 Q1011 NOSIG RMK A2985
RPLL,2025-04-20 14:00,RPLL 201400Z 13007KT 090V180 9999 FEW025 30/25 Q1012 NOSIG RMK A2988
RPLL,2025-04-20 15:00,RPLL 201500Z 11008KT 070V150 9999 FEW025 30/24 Q1012 NOSIG RMK A2988
RPLL,2025-04-20 16:00,RPLL 201600Z 10009KT 070V130 9999 FEW025 30/25 Q1012 NOSIG RMK A2988
RPLL,2025-04-20 17:00,RPLL 201700Z 10007KT 9999 FEW025 30/24 Q1011 NOSIG RMK A2985
RPLL,2025-04-20 18:00,RPLL 201800Z 12004KT 090V200 9999 FEW025 29/24 Q1011 NOSIG RMK A2985
RPLL,2025-04-20 19:00,RPLL 201900Z 11004KT 060V160 9999 FEW025 29/23 Q1010 NOSIG RMK A2983
RPLL,2025-04-20 20:00,RPLL 202000Z 11003KT 080V160 9999 FEW025 29/23 Q1011 NOSIG RMK A2985
RPLL,2025-04-20 21:00,RPLL 202100Z 11004KT 070V140 9999 FEW025 29/23 Q1011 NOSIG RMK A2985
RPLL,2025-04-20 22:00,RPLL 202200Z 07003KT 050V110 9999 FEW025 28/23 Q1011 NOSIG RMK A2985
RPLL,2025-04-20 23:00,RPLL 202300Z 08003KT 050V120 9999 FEW025 31/23 Q1012 NOSIG RMK A2988
RPLL,2025-04-21 00:00,RPLL 210000Z 09005KT 060V120 9999 FEW025 SCT100 31/23 Q1013 NOSIG RMK A2991
RPLL,2025-04-21 01:00,RPLL 210100Z 14006KT 100V200 9999 FEW025 BKN090 32/24 Q1013 NOSIG RMK A2991
RPLL,2025-04-21 02:00,RPLL 210200Z 12010KT 090V160 9999 SCT025 BKN090 31/24 Q1013 NOSIG RMK A2991
RPLL,2025-04-21 03:00,RPLL 210300Z 11007KT 040V210 9999 FEW025 SCT100 34/24 Q1012 NOSIG RMK A2988
RPLL,2025-04-21 04:00,RPLL 210400Z 13007KT 080V210 9999 SCT025 34/24 Q1011 NOSIG RMK A2985
RPLL,2025-04-21 05:00,RPLL 210500Z 12008KT 080V180 9999 SCT025 35/24 Q1010 NOSIG RMK A2983
RPLL,2025-04-21 06:00,RPLL 210600Z 14010KT 090V210 9999 FEW025 35/23 Q1009 NOSIG RMK A2980
RPLL,2025-04-21 07:00,RPLL 210700Z 14011KT 100V190 9999 FEW025 35/21 Q1009 NOSIG RMK A2980
RPLL,2025-04-21 08:00,RPLL 210800Z 12011KT 090V150 9999 FEW025 35/22 Q1009 NOSIG RMK A2980
RPLL,2025-04-21 09:00,RPLL 210900Z 12010KT 090V150 9999 FEW025 34/22 Q1009 NOSIG RMK A2980
RPLL,2025-04-21 10:00,RPLL 211000Z 14007KT 100V200 9999 FEW025 33/23 Q1010 NOSIG RMK A2983
RPLL,2025-04-21 11:00,RPLL 211100Z 14007KT 090V170 9999 FEW025 32/23 Q1010 NOSIG RMK A2983
RPLL,2025-04-21 12:00,RPLL 211200Z 15007KT 110V190 9999 FEW025 31/24 Q1010 NOSIG RMK A2983
RPLL,2025-04-21 13:00,RPLL 211300Z 15006KT 090V200 9999 FEW025 31/23 Q1011 NOSIG RMK A2985
RPLL,2025-04-21 14:00,RPLL 211400Z 13007KT 090V180 9999 FEW025 31/23 Q1012 NOSIG RMK A2988
RPLL,2025-04-21 15:00,RPLL 211500Z 13006KT 070V190 9999 FEW025 30/23 Q1012 NOSIG RMK A2988
RPLL,2025-04-21 16:00,RPLL 211600Z 13007KT 080V170 9999 FEW025 29/24 Q1012 NOSIG RMK A2988
RPLL,2025-04-21 17:00,RPLL 211700Z 13006KT 090V170 9999 FEW025 29/24 Q1012 NOSIG RMK A2988
RPLL,2025-04-21 18:00,RPLL 211800Z 12004KT 070V170 9999 FEW025 29/23 Q1011 NOSIG RMK A2985
RPLL,2025-04-21 19:00,RPLL 211900Z 11004KT 080V150 9999 FEW025 29/23 Q1011 NOSIG RMK A2985
RPLL,2025-04-21 20:00,RPLL 212000Z 13003KT 100V170 9999 FEW025 28/23 Q1012 NOSIG RMK A2988
RPLL,2025-04-21 21:00,RPLL 212100Z 11005KT 9999 FEW025 28/23 Q1011 NOSIG RMK A2985
RPLL,2025-04-21 22:00,RPLL 212200Z VRB02KT 9999 FEW025 28/23 Q1012 NOSIG RMK A2988
RPLL,2025-04-21 23:00,RPLL 212300Z 09004KT 050V140 9999 FEW025 29/23 Q1012 NOSIG RMK A2988
RPLL,2025-04-22 00:00,RPLL 220000Z 12004KT 040V170 9999 FEW025 31/22 Q1013 NOSIG RMK A2991
RPLL,2025-04-22 01:00,RPLL 220100Z 10005KT 020V170 9999 FEW025 32/22 Q1013 NOSIG RMK A2991
RPLL,2025-04-22 02:00,RPLL 220200Z VRB05KT 9999 FEW025 34/20 Q1013 NOSIG RMK A2991
RPLL,2025-04-22 03:00,RPLL 220300Z VRB05KT 9999 FEW025 35/20 Q1012 NOSIG RMK A2988
RPLL,2025-04-22 04:00,RPLL 220400Z 14007KT 080V190 9999 FEW025 35/22 Q1011 NOSIG RMK A2985
RPLL,2025-04-22 05:00,RPLL 220500Z 14006KT 070V190 9999 FEW025 36/21 Q1010 NOSIG RMK A2983
RPLL,2025-04-22 06:00,RPLL 220600Z 14008KT 100V200 9999 FEW025 36/22 Q1009 NOSIG RMK A2980
RPLL,2025-04-22 07:00,RPLL 220700Z 12007KT 070V170 9999 FEW025 36/22 Q1008 NOSIG RMK A2977
RPLL,2025-04-22 08:00,RPLL 220800Z 12008KT 090V170 9999 FEW025 36/22 Q1008 NOSIG RMK A2977
RPLL,2025-04-22 09:00,RPLL 220900Z VRB05KT 9999 FEW025 35/23 Q1008 NOSIG RMK A2977
RPLL,2025-04-22 10:00,RPLL 221000Z 13004KT 090V180 9999 FEW025 34/22 Q1008 NOSIG RMK A2977
RPLL,2025-04-22 11:00,RPLL 221100Z 12005KT 070V160 9999 FEW025 33/24 Q1009 NOSIG RMK A2980
RPLL,2025-04-22 12:00,RPLL 221200Z 15004KT 080V200 9999 FEW025 32/24 Q1010 NOSIG RMK A2983
RPLL,2025-04-22 13:00,RPLL 221300Z 15003KT 080V200 9999 FEW025 32/24 Q1010 NOSIG RMK A2983
RPLL,2025-04-22 14:00,RPLL 221400Z 18004KT 130V240 9999 FEW025 31/24 Q1011 NOSIG RMK A2985
RPLL,2025-04-22 15:00,RPLL 221500Z 17005KT 140V210 9999 FEW025 30/25 Q1011 NOSIG RMK A2985
RPLL,2025-04-22 16:00,RPLL 221600Z 19004KT 170V230 9999 FEW025 30/25 Q1011 NOSIG RMK A2985
RPLL,2025-04-22 17:00,RPLL 221700Z 15003KT 120V200 9999 FEW025 30/26 Q1010 NOSIG RMK A2983
RPLL,2025-04-22 18:00,RPLL 221800Z VRB02KT 9999 FEW025 30/26 Q1010 NOSIG RMK A2983
RPLL,2025-04-22 19:00,RPLL 221900Z 17003KT 120V220 9999 FEW025 29/26 Q1009 NOSIG RMK A2980
RPLL,2025-04-22 20:00,RPLL 222000Z 16003KT 110V210 9999 FEW025 29/26 Q1009 NOSIG RMK A2980
RPLL,2025-04-22 21:00,RPLL 222100Z VRB02KT 9999 FEW025 28/26 Q1010 NOSIG RMK A2983 METAR RPLB 222100Z 06003KT 9999 FEW020 SCT300 27/23 Q1010 NOSIG RMK A2983
RPLL,2025-04-22 22:00,RPLL 222200Z 17004KT 120V220 9999 FEW025 BKN100 28/26 Q1010 NOSIG RMK A2983
RPLL,2025-04-22 23:00,RPLL 222300Z 14003KT 050V220 9999 FEW025 SCT100 30/26 Q1011 NOSIG RMK A2985
RPLL,2025-04-23 00:00,RPLL 230000Z 14004KT 060V200 9999 FEW025 31/26 Q1012 NOSIG RMK A2988
RPLL,2025-04-23 01:00,RPLL 230100Z VRB03KT 9999 FEW025 32/25 Q1012 NOSIG RMK A2988
RPLL,2025-04-23 02:00,RPLL 230200Z VRB03KT 9999 FEW025 33/24 Q1012 NOSIG RMK A2988
RPLL,2025-04-23 03:00,COR RPLL 230300Z 27007KT 220V340 9999 SCT025 32/24 Q1011 NOSIG RMK A2985
RPLL,2025-04-23 04:00,RPLL 230400Z 28008KT 250V320 9999 FEW025 35/25 Q1010 NOSIG RMK A2983
RPLL,2025-04-23 05:00,RPLL 230500Z 27010KT 9999 FEW025 35/24 Q1009 NOSIG RMK A2980
RPLL,2025-04-23 06:00,RPLL 230600Z 28008KT 9999 FEW025 36/25 Q1008 NOSIG RMK A2977
RPLL,2025-04-23 07:00,RPLL 230700Z 28008KT 230V320 9999 FEW025 36/25 Q1007 NOSIG RMK A2974
RPLL,2025-04-23 08:00,COR RPLL 230800Z 29010KT 260V320 9999 FEW025 35/25 Q1007 NOSIG RMK A2974
RPLL,2025-04-23 09:00,RPLL 230900Z 26011KT 9999 FEW025 33/26 Q1007 NOSIG RMK A2974
RPLL,2025-04-23 10:00,COR RPLL 231000Z 27010KT 9999 FEW025 32/26 Q1007 NOSIG RMK A2974
RPLL,2025-04-23 11:00,RPLL 231100Z 23007KT 190V250 9999 FEW025 31/26 Q1008 NOSIG RMK A2977
RPLL,2025-04-23 12:00,RPLL 231200Z 23003KT 190V270 9999 FEW025 31/26 Q1009 NOSIG RMK A2980
RPLL,2025-04-23 13:00,RPLL 231300Z 14006KT 110V210 9999 FEW025 31/25 Q1010 NOSIG RMK A2983
RPLL,2025-04-23 14:00,RPLL 231400Z 15004KT 070V230 9999 FEW025 31/26 Q1010 NOSIG RMK A2983
RPLL,2025-04-23 15:00,RPLL 231500Z 17004KT 140V210 9999 FEW025 30/26 Q1010 NOSIG RMK A2983
RPLL,2025-04-23 16:00,RPLL 231600Z 16005KT 120V210 9999 FEW025 30/25 Q1010 NOSIG RMK A2983
RPLL,2025-04-23 17:00,RPLL 231700Z 14005KT 090V170 9999 FEW025 30/25 Q1010 NOSIG RMK A2983
RPLL,2025-04-23 18:00,RPLL 231800Z VRB02KT 9999 FEW025 30/25 Q1009 NOSIG RMK A2980
RPLL,2025-04-23 19:00,RPLL 231900Z 15003KT 100V190 9999 FEW025 SCT100 30/25 Q1009 NOSIG RMK A2980
RPLL,2025-04-23 20:00,RPLL 232000Z 13004KT 070V170 9999 FEW025 BKN100 29/25 Q1009 NOSIG RMK A2980
RPLL,2025-04-23 21:00,RPLL 232100Z 10003KT 060V140 9999 FEW025 SCT100 29/25 Q1009 NOSIG RMK A2980
RPLL,2025-04-23 22:00,RPLL 232200Z 12003KT 090V150 9999 FEW025 SCT100 29/24 Q1010 NOSIG RMK A2983
RPLL,2025-04-23 23:00,RPLL 232300Z VRB02KT 9999 FEW025 SCT100 30/24 Q1011 NOSIG RMK A2985
RPLL,2025-04-24 00:00,RPLL 240000Z VRB02KT 9999 FEW025 31/24 Q1012 NOSIG RMK A2988
RPLL,2025-04-24 01:00,RPLL 240100Z VRB02KT 9999 FEW025 31/25 Q1012 NOSIG RMK A2988
RPLL,2025-04-24 02:00,RPLL 240200Z VRB03KT 9999 FEW025 33/24 Q1012 NOSIG RMK A2988
RPLL,2025-04-24 03:00,RPLL 240300Z VRB06KT 9999 FEW025 34/21 Q1011 NOSIG RMK A2985
RPLL,2025-04-24 04:00,RPLL 240400Z 13005KT 070V210 9999 FEW025 36/22 Q1010 NOSIG RMK A2983
RPLL,2025-04-24 05:00,RPLL 240500Z 13007KT 070V190 9999 FEW025 36/20 Q1009 NOSIG RMK A2980
RPLL,2025-04-24 06:00,RPLL 240600Z 15006KT 080V190 9999 FEW025 36/20 Q1008 NOSIG RMK A2977
RPLL,2025-04-24 07:00,RPLL 240700Z 16008KT 110V270 9999 FEW025 36/20 Q1008 NOSIG RMK A2977
RPLL,2025-04-24 08:00,RPLL 240800Z 13008KT 080V170 9999 FEW025 35/21 Q1007 NOSIG RMK A2974
RPLL,2025-04-24 09:00,RPLL 240900Z 13007KT 090V190 9999 FEW025 34/23 Q1007 NOSIG RMK A2974
RPLL,2025-04-24 10:00,RPLL 241000Z 13008KT 090V160 9999 FEW025 33/23 Q1008 NOSIG RMK A2977
RPLL,2025-04-24 11:00,RPLL 241100Z 14006KT 070V170 9999 FEW025 32/23 Q1009 NOSIG RMK A2980
RPLL,2025-04-24 12:00,RPLL 241200Z 15007KT 100V190 9999 FEW025 31/24 Q1009 NOSIG RMK A2980
RPLL,2025-04-24 13:00,RPLL 241300Z 14004KT 100V190 9999 FEW025 31/23 Q1010 NOSIG RMK A2983
RPLL,2025-04-24 14:00,RPLL 241400Z 14006KT 100V190 9999 FEW025 30/24 Q1011 NOSIG RMK A2985
RPLL,2025-04-24 15:00,RPLL 241500Z 13007KT 080V230 9999 FEW025 30/24 Q1011 NOSIG RMK A2985
RPLL,2025-04-24 16:00,RPLL 241600Z 12003KT 080V170 9999 FEW025 30/24 Q1011 NOSIG RMK A2985
RPLL,2025-04-24 17:00,RPLL 241700Z 12004KT 070V150 9999 FEW025 29/24 Q1011 NOSIG RMK A2985
RPLL,2025-04-24 18:00,RPLL 241800Z 08004KT 060V170 9999 FEW025 28/23 Q1010 NOSIG RMK A2983
RPLL,2025-04-24 19:00,RPLL 241900Z VRB02KT 9999 FEW025 28/23 Q1010 NOSIG RMK A2983
RPLL,2025-04-24 20:00,RPLL 242000Z VRB02KT 9999 FEW025 28/23 Q1010 NOSIG RMK A2983
RPLL,2025-04-24 21:00,RPLL 242100Z VRB02KT 9999 FEW025 28/23 Q1011 NOSIG RMK A2985
RPLL,2025-04-24 22:00,RPLL 242200Z 01005KT 320V070 9999 FEW025 29/20 Q1011 NOSIG RMK A2985
RPLL,2025-04-24 23:00,RPLL 242300Z 11003KT 070V150 9999 FEW025 31/20 Q1012 NOSIG RMK A2988
RPLL,2025-04-25 00:00,RPLL 250000Z 09004KT 020V130 9999 FEW025 31/21 Q1012 NOSIG RMK A2988
RPLL,2025-04-25 01:00,RPLL 250100Z 11005KT 050V180 9999 FEW025 33/20 Q1012 NOSIG RMK A2988
RPLL,2025-04-25 02:00,RPLL 250200Z VRB05KT 9999 FEW025 33/21 Q1012 NOSIG RMK A2988
RPLL,2025-04-25 03:00,RPLL 250300Z VRB05KT 9999 FEW025 35/21 Q1012 NOSIG RMK A2988
RPLL,2025-04-25 04:00,RPLL 250400Z VRB06KT 9999 FEW025 35/22 Q1011 NOSIG RMK A2985
RPLL,2025-04-25 05:00,RPLL 250500Z 14007KT 080V210 9999 FEW023 36/22 Q1010 NOSIG RMK A2983
RPLL,2025-04-25 06:00,RPLL 250600Z 14007KT 090V200 9999 FEW025 37/22 Q1009 NOSIG RMK A2980
RPLL,2025-04-25 07:00,RPLL 250700Z 14006KT 070V230 9999 FEW025 36/22 Q1008 NOSIG RMK A2977
RPLL,2025-04-25 08:00,RPLL 250800Z 15007KT 100V210 9999 FEW025 36/22 Q1008 NOSIG RMK A2977
RPLL,2025-04-25 09:00,RPLL 250900Z 13007KT 090V190 9999 SCT025 35/22 Q1008 NOSIG RMK A2977
RPLL,2025-04-25 10:00,RPLL 251000Z 12007KT 090V160 9999 SCT025 34/23 Q1009 NOSIG RMK A2980
RPLL,2025-04-25 11:00,RPLL 251100Z 14007KT 100V180 9999 FEW025 32/25 Q1009 NOSIG RMK A2980
RPLL,2025-04-25 12:00,RPLL 251200Z 14007KT 100V190 9999 FEW025 31/25 Q1010 NOSIG RMK A2983
RPLL,2025-04-25 13:00,RPLL 251300Z 16003KT 070V220 9999 FEW025 31/25 Q1011 NOSIG RMK A2985
RPLL,2025-04-25 14:00,RPLL 251400Z 12005KT 080V170 9999 FEW025 30/24 Q1012 NOSIG RMK A2988
RPLL,2025-04-25 15:00,RPLL 251500Z 10005KT 050V140 9999 FEW025 30/23 Q1012 NOSIG RMK A2988
RPLL,2025-04-25 16:00,RPLL 251600Z 11004KT 090V150 9999 FEW025 30/21 Q1012 NOSIG RMK A2988
RPLL,2025-04-25 17:00,RPLL 251700Z 12005KT 080V150 9999 FEW025 30/23 Q1012 NOSIG RMK A2988
RPLL,2025-04-25 18:00,RPLL 251800Z 10004KT 9999 FEW025 29/23 Q1011 NOSIG RMK A2985
RPLL,2025-04-25 19:00,RPLL 251900Z 11007KT 070V140 9999 FEW025 29/24 Q1011 NOSIG RMK A2985
RPLL,2025-04-25 20:00,RPLL 252000Z 11005KT 070V150 9999 FEW025 29/24 Q1010 NOSIG RMK A2983
RPLL,2025-04-25 21:00,RPLL 252100Z 09005KT 060V120 9999 FEW025 29/23 Q1010 NOSIG RMK A2983
RPLL,2025-04-25 22:00,RPLL 252200Z 07005KT 9999 FEW025 27/22 Q1011 NOSIG RMK A2985
RPLL,2025-04-25 23:00,RPLL 252300Z VRB02KT 9999 FEW025 30/23 Q1012 NOSIG RMK A2988
RPLL,2025-04-26 00:00,RPLL 260000Z 08004KT 050V130 9999 FEW025 31/23 Q1013 NOSIG RMK A2991
RPLL,2025-04-26 01:00,RPLL 260100Z 11007KT 080V180 9999 FEW025 32/23 Q1013 NOSIG RMK A2991
RPLL,2025-04-26 02:00,RPLL 260200Z 13006KT 080V220 9999 FEW025 34/23 Q1013 NOSIG RMK A2991
RPLL,2025-04-26 03:00,RPLL 260300Z 15008KT 100V240 9999 SCT025 35/23 Q1012 NOSIG RMK A2988
RPLL,2025-04-26 04:00,RPLL 260400Z 12012KT 090V170 9999 FEW025 36/20 Q1011 NOSIG RMK A2985 FU MOV N
RPLL,2025-04-26 05:00,RPLL 260500Z 14011KT 100V190 9999 FEW025 36/22 Q1010 NOSIG RMK A2983
RPLL,2025-04-26 06:00,RPLL 260600Z 12011KT 070V150 9999 FEW025 37/19 Q1009 NOSIG RMK A2980
RPLL,2025-04-26 07:00,RPLL 260700Z 11011KT 070V150 9999 FEW025 36/20 Q1009 NOSIG RMK A2980
RPLL,2025-04-26 08:00,RPLL 260800Z 11012KT 080V160 9999 FEW025 35/19 Q1009 NOSIG RMK A2980
RPLL,2025-04-26 09:00,RPLL 260900Z 11009KT 070V150 9999 FEW025 34/20 Q1009 NOSIG RMK A2980
RPLL,2025-04-26 10:00,RPLL 261000Z 12009KT 080V140 9999 FEW025 33/18 Q1010 NOSIG RMK A2983
RPLL,2025-04-26 11:00,RPLL 261100Z 11008KT 080V150 9999 FEW025 32/20 Q1011 NOSIG RMK A2985
RPLL,2025-04-26 12:00,RPLL 261200Z 12008KT 090V150 9999 FEW025 31/22 Q1011 NOSIG RMK A2985
RPLL,2025-04-26 13:00,RPLL 261300Z 11009KT 070V140 9999 FEW025 30/22 Q1012 NOSIG RMK A2988
RPLL,2025-04-26 14:00,RPLL 261400Z 10008KT 070V150 9999 FEW025 30/22 Q1013 NOSIG RMK A2991
RPLL,2025-04-26 15:00,RPLL 261500Z 12007KT 090V150 9999 FEW025 29/22 Q1013 NOSIG RMK A2991
RPLL,2025-04-26 16:00,RPLL 261600Z 12006KT 090V160 9999 FEW025 29/22 Q1012 NOSIG RMK A2988
RPLL,2025-04-26 17:00,RPLL 261700Z 11006KT 080V160 9999 FEW025 29/22 Q1011 NOSIG RMK A2985
RPLL,2025-04-26 18:00,RPLL 261800Z 11005KT 080V140 9999 FEW025 28/23 Q1011 NOSIG RMK A2985
RPLL,2025-04-26 19:00,RPLL 261900Z 07006KT 9999 FEW025 27/21 Q1010 NOSIG RMK A2983
RPLL,2025-04-26 20:00,RPLL 262000Z 09003KT 9999 FEW025 28/20 Q1010 NOSIG RMK A2983
RPLL,2025-04-26 21:00,RPLL 262100Z 02004KT 340V040 9999 FEW025 28/20 Q1011 NOSIG RMK A2985
RPLL,2025-04-26 22:00,RPLL 262200Z 01005KT 340V040 9999 FEW025 28/20 Q1011 NOSIG RMK A2985
RPLL,2025-04-26 23:00,RPLL 262300Z 03006KT 360V060 9999 FEW025 30/21 Q1012 NOSIG RMK A2988
RPLL,2025-04-27 00:00,RPLL 270000Z 06007KT 010V100 9999 FEW025 31/21 Q1012 NOSIG RMK A2988
RPLL,2025-04-27 01:00,RPLL 270100Z 09006KT 050V170 9999 FEW025 32/21 Q1012 NOSIG RMK A2988
RPLL,2025-04-27 02:00,RPLL 270200Z 08007KT 030V180 9999 FEW025 34/21 Q1012 NOSIG RMK A2988
RPLL,2025-04-27 03:00,RPLL 270300Z VRB04KT 9999 FEW025 35/21 Q1012 NOSIG RMK A2988
RPLL,2025-04-27 04:00,RPLL 270400Z 14007KT 070V200 9999 FEW025 35/22 Q1011 NOSIG RMK A2985
RPLL,2025-04-27 05:00,RPLL 270500Z 14008KT 080V190 9999 FEW025 36/22 Q1009 NOSIG RMK A2980
RPLL,2025-04-27 06:00,RPLL 270600Z 13011KT 080V170 9999 FEW025 36/21 Q1008 NOSIG RMK A2977
RPLL,2025-04-27 07:00,RPLL 270700Z 13010G20KT 090V220 9999 FEW025 35/22 Q1008 NOSIG RMK A2977
RPLL,2025-04-27 08:00,RPLL 270800Z 13009KT 070V160 9999 FEW025 35/22 Q1007 NOSIG RMK A2974
RPLL,2025-04-27 09:00,RPLL 270900Z 11008KT 070V140 9999 FEW025 34/21 Q1007 NOSIG RMK A2974
RPLL,2025-04-27 10:00,RPLL 271000Z 11008KT 080V160 9999 FEW025 33/21 Q1008 NOSIG RMK A2977
RPLL,2025-04-27 11:00,RPLL 271100Z 11007KT 080V140 9999 FEW025 32/21 Q1009 NOSIG RMK A2980
RPLL,2025-04-27 12:00,RPLL 271200Z 12007KT 080V160 9999 FEW025 30/20 Q1010 NOSIG RMK A2983
RPLL,2025-04-27 13:00,RPLL 271300Z 12006KT 080V150 9999 FEW025 30/19 Q1010 NOSIG RMK A2983
RPLL,2025-04-27 14:00,RPLL 271400Z 11006KT 070V140 9999 FEW025 30/21 Q1011 NOSIG RMK A2985
RPLL,2025-04-27 15:00,RPLL 271500Z 13003KT 050V200 9999 FEW025 29/21 Q1011 NOSIG RMK A2985
RPLL,2025-04-27 16:00,RPLL 271600Z 10005KT 060V130 9999 FEW025 29/22 Q1011 NOSIG RMK A2985
RPLL,2025-04-27 17:00,RPLL 271700Z 06005KT 9999 FEW025 28/21 Q1010 NOSIG RMK A2983
RPLL,2025-04-27 18:00,RPLL 271800Z VRB02KT 9999 FEW025 28/20 Q1010 NOSIG RMK A2983
RPLL,2025-04-27 19:00,RPLL 271900Z 36003KT 320V040 9999 FEW025 29/20 Q1009 NOSIG RMK A2980
RPLL,2025-04-27 20:00,RPLL 272000Z 36004KT 9999 FEW025 28/21 Q1009 NOSIG RMK A2980
RPLL,2025-04-27 21:00,RPLL 272100Z VRB05KT 9000 FEW025 SCT100 28/21 Q1009 NOSIG RMK A2980
RPLL,2025-04-27 22:00,RPLL 272200Z 05006KT 9999 FEW025 BKN100 28/21 Q1010 NOSIG RMK A2983
RPLL,2025-04-27 23:00,RPLL 272300Z 10003KT 050V140 9999 FEW025 SCT100 29/24 Q1011 NOSIG RMK A2985
RPLL,2025-04-28 00:00,RPLL 280000Z VRB04KT 9999 FEW025 32/22 Q1011 NOSIG RMK A2985
RPLL,2025-04-28 01:00,RPLL 280100Z 12006KT 030V180 9999 FEW025 32/22 Q1011 NOSIG RMK A2985
RPLL,2025-04-28 02:00,RPLL 280200Z VRB07KT 9999 FEW025 32/24 Q1010 NOSIG RMK A2983
RPLL,2025-04-28 03:00,RPLL 280300Z 14007KT 080V190 9999 FEW025 34/24 Q1010 NOSIG RMK A2983
RPLL,2025-04-28 04:00,RPLL 280400Z 15009KT 120V200 9999 FEW025 35/24 Q1009 NOSIG RMK A2980
RPLL,2025-04-28 05:00,RPLL 280500Z 14008KT 070V190 9999 FEW025 36/24 Q1008 NOSIG RMK A2977
RPLL,2025-04-28 06:00,RPLL 280600Z 13009KT 080V190 9999 FEW025 35/24 Q1007 NOSIG RMK A2974
RPLL,2025-04-28 07:00,RPLL 280700Z 12007KT 060V190 9999 FEW023CB 36/23 Q1007 NOSIG RMK A2974 CB NE
RPLL,2025-04-28 08:00,RPLL 280800Z 05010KT 020V080 9999 FEW025CB 34/23 Q1007 NOSIG RMK A2974 CB NE
RPLL,2025-04-28 09:00,RPLL 280900Z 20004KT 090V260 9999 FEW025 SCT100 33/24 Q1007 NOSIG RMK A2974
RPLL,2025-04-28 10:00,RPLL 281000Z 11004KT 9999 FEW025 33/23 Q1007 NOSIG RMK A2974
RPLL,2025-04-28 11:00,RPLL 281100Z 17005KT 130V200 9999 FEW025 BKN100 31/25 Q1008 NOSIG RMK A2977
RPLL,2025-04-28 12:00,RPLL 281200Z 15004KT 080V220 9999 FEW025 31/25 Q1009 NOSIG RMK A2980
RPLL,2025-04-28 13:00,RPLL 281300Z 14005KT 090V180 9999 FEW025 31/25 Q1009 NOSIG RMK A2980
RPLL,2025-04-28 14:00,RPLL 281400Z 14005KT 090V180 9999 FEW025 30/24 Q1010 NOSIG RMK A2983
RPLL,2025-04-28 15:00,RPLL 281500Z 12006KT 090V160 9999 FEW025 30/25 Q1010 NOSIG RMK A2983
RPLL,2025-04-28 16:00,RPLL 281600Z 11004KT 070V190 9999 FEW025 29/24 Q1010 NOSIG RMK A2983
RPLL,2025-04-28 17:00,RPLL 281700Z 11003KT 060V160 9999 FEW025 30/24 Q1009 NOSIG RMK A2980
RPLL,2025-04-28 18:00,RPLL 281800Z 10004KT 060V140 9999 FEW025 30/24 Q1008 NOSIG RMK A2977
RPLL,2025-04-28 19:00,RPLL 281900Z 13004KT 090V150 9999 FEW025 29/23 Q1008 NOSIG RMK A2977
RPLL,2025-04-28 20:00,RPLL 282000Z 12004KT 070V150 9999 FEW025 29/24 Q1008 NOSIG RMK A2977
RPLL,2025-04-28 21:00,RPLL 282100Z 11004KT 060V140 9999 FEW025 29/23 Q1008 NOSIG RMK A2977
RPLL,2025-04-28 22:00,RPLL 282200Z 08003KT 050V120 9999 FEW025 SCT100 28/23 Q1009 NOSIG RMK A2980
RPLL,2025-04-28 23:00,RPLL 282300Z 14004KT 110V190 9999 FEW025 31/23 Q1009 NOSIG RMK A2980
RPLL,2025-04-29 00:00,RPLL 290000Z 08005KT 030V130 9999 FEW025 32/23 Q1010 NOSIG RMK A2983
RPLL,2025-04-29 01:00,RPLL 290100Z 16005KT 080V200 9999 FEW025 33/23 Q1010 NOSIG RMK A2983
RPLL,2025-04-29 02:00,RPLL 290200Z 12006KT 070V200 9999 FEW025 34/24 Q1010 NOSIG RMK A2983
RPLL,2025-04-29 03:00,RPLL 290300Z 14007KT 080V200 9999 FEW025 35/24 Q1009 NOSIG RMK A2980
RPLL,2025-04-29 04:00,RPLL 290400Z 12008KT 080V160 9999 FEW025 35/24 Q1009 NOSIG RMK A2980
RPLL,2025-04-29 05:00,RPLL 290500Z 13010KT 080V200 9999 FEW025 35/24 Q1008 NOSIG RMK A2977
RPLL,2025-04-29 06:00,RPLL 290600Z 13010KT 070V160 9999 FEW025 36/24 Q1007 NOSIG RMK A2974
RPLL,2025-04-29 07:00,RPLL 290700Z 13011KT 090V160 9999 FEW023CB 35/24 Q1007 NOSIG RMK A2974 CB N
RPLL,2025-04-29 08:00,RPLL 290800Z 11009KT 080V150 9999 FEW023CB 34/23 Q1007 NOSIG RMK A2974 CB N
RPLL,2025-04-29 09:00,RPLL 290900Z 04010KT 010V070 9999 FEW025 34/24 Q1007 NOSIG RMK A2974
RPLL,2025-04-29 10:00,COR RPLL 291000Z 11009KT 080V140 9999 FEW025 32/24 Q1008 NOSIG RMK A2977
RPLL,2025-04-29 11:00,RPLL 291100Z 13006KT 080V160 9999 FEW025 32/24 Q1009 NOSIG RMK A2980
RPLL,2025-04-29 12:00,RPLL 291200Z 12007KT 080V150 9999 FEW025 31/23 Q1010 NOSIG RMK A2983
RPLL,2025-04-29 13:00,RPLL 291300Z 12008KT 090V150 9999 FEW025 30/24 Q1010 NOSIG RMK A2983
RPLL,2025-04-29 14:00,RPLL 291400Z 11009KT 090V150 9999 FEW025 30/24 Q1011 NOSIG RMK A2985
RPLL,2025-04-29 15:00,RPLL 291500Z 12007KT 070V150 9999 FEW025 30/24 Q1011 NOSIG RMK A2985
RPLL,2025-04-29 16:00,RPLL 291600Z 11005KT 060V160 9999 FEW025 30/23 Q1011 NOSIG RMK A2985
RPLL,2025-04-29 17:00,RPLL 291700Z 11006KT 050V140 9999 FEW025 30/24 Q1010 NOSIG RMK A2983
RPLL,2025-04-29 18:00,RPLL 291800Z 10005KT 060V140 9999 FEW025 29/24 Q1010 NOSIG RMK A2983
RPLL,2025-04-29 19:00,RPLL 291900Z 10004KT 070V130 9999 FEW025 29/23 Q1010 NOSIG RMK A2983
RPLL,2025-04-29 20:00,RPLL 292000Z 11003KT 070V140 9999 FEW025 29/22 Q1010 NOSIG RMK A2983
RPLL,2025-04-29 21:00,RPLL 292100Z VRB02KT 9999 FEW025 28/22 Q1010 NOSIG RMK A2983
RPLL,2025-04-29 22:00,RPLL 292200Z VRB01KT 9999 FEW025 29/22 Q1010 NOSIG RMK A2983
RPLL,2025-04-29 23:00,RPLL 292300Z VRB02KT 9999 FEW025 SCT100 30/23 Q1010 NOSIG RMK A2983
RPLL,2025-04-30 00:00,RPLL 300000Z VRB03KT 9999 FEW025 32/23 Q1011 NOSIG RMK A2985
RPLL,2025-04-30 01:00,RPLL 300100Z VRB06KT 9999 FEW025 32/23 Q1011 NOSIG RMK A2985
RPLL,2025-04-30 02:00,RPLL 300200Z 09006KT 050V220 9999 FEW025 33/23 Q1011 NOSIG RMK A2985
RPLL,2025-04-30 03:00,RPLL 300300Z VRB07KT 9999 FEW025 35/24 Q1011 NOSIG RMK A2985
RPLL,2025-04-30 04:00,RPLL 300400Z 12008KT 080V190 9999 FEW025 35/24 Q1010 NOSIG RMK A2983
RPLL,2025-04-30 05:00,RPLL 300500Z 15009KT 100V200 9999 FEW025 36/24 Q1009 NOSIG RMK A2980
RPLL,2025-04-30 06:00,RPLL 300600Z 12009KT 080V160 9999 FEW025 35/24 Q1008 NOSIG RMK A2977
RPLL,2025-04-30 07:00,RPLL 300700Z 13012KT 090V170 9999 FEW025 35/24 Q1008 NOSIG RMK A2977
RPLL,2025-04-30 08:00,RPLL 300800Z 12009KT 080V180 9999 FEW025 35/24 Q1007 NOSIG RMK A2974
RPLL,2025-04-30 09:00,RPLL 300900Z 12009KT 080V180 9999 FEW025 34/24 Q1008 NOSIG RMK A2977
RPLL,2025-04-30 10:00,RPLL 301000Z 11010KT 9999 FEW025 32/24 Q1009 NOSIG RMK A2980
RPLL,2025-04-30 11:00,RPLL 301100Z 12009KT 070V150 9999 FEW025 31/24 Q1009 NOSIG RMK A2980
RPLL,2025-04-30 12:00,RPLL 301200Z 11008KT 090V150 9999 FEW025 31/24 Q1010 NOSIG RMK A2983
RPLL,2025-04-30 13:00,RPLL 301300Z 11008KT 080V150 9999 FEW025 31/24 Q1011 NOSIG RMK A2985
RPLL,2025-04-30 15:00,RPLL 301500Z 12008KT 080V150 9999 FEW025 30/24 Q1011 NOSIG RMK A2985
RPLL,2025-04-30 16:00,RPLL 301600Z 12009KT 070V150 9999 FEW025 30/23 Q1011 NOSIG RMK A2985
RPLL,2025-04-30 17:00,RPLL 301700Z 10006KT 070V130 9999 FEW025 29/24 Q1010 NOSIG RMK A2983
RPLL,2025-04-30 18:00,RPLL 301800Z 09005KT 060V150 9999 FEW025 29/23 Q1010 NOSIG RMK A2983
RPLL,2025-04-30 19:00,RPLL 301900Z 11004KT 070V140 9999 FEW025 29/23 Q1010 NOSIG RMK A2983
RPLL,2025-04-30 20:00,RPLL 302000Z VRB02KT 9999 FEW025 29/23 Q1010 NOSIG RMK A2983
RPLL,2025-04-30 21:00,RPLL 302100Z 08004KT 9999 FEW025 29/22 Q1010 NOSIG RMK A2983
RPLL,2025-04-30 22:00,RPLL 302200Z 08003KT 040V120 9999 FEW025 29/22 Q1011 NOSIG RMK A2985
RPLL,2025-04-30 23:00,RPLL 302300Z 10003KT 060V150 9999 FEW025 31/22 Q1011 NOSIG RMK A2985 METAR RPLB 302300Z 01003KT 9999 FEW020 SCT300 28/24 Q1012 NOSIG RMK A2988
RPLL,2025-05-01 00:00,RPLL 010000Z 09005KT 050V130 9999 FEW025 31/22 Q1012 NOSIG RMK A2988
RPLL,2025-05-01 01:00,RPLL 010100Z 10005KT 050V170 9999 FEW025 33/24 Q1012 NOSIG RMK A2988
RPLL,2025-05-01 02:00,RPLL 010200Z 12006KT 060V180 9999 FEW025 34/24 Q1012 NOSIG RMK A2988
RPLL,2025-05-01 03:00,RPLL 010300Z 13007KT 060V190 9999 FEW025 34/24 Q1011 NOSIG RMK A2985
RPLL,2025-05-01 04:00,RPLL 010400Z 13008KT 060V180 9999 FEW025 35/24 Q1011 NOSIG RMK A2985
RPLL,2025-05-01 05:00,RPLL 010500Z 13008KT 060V170 9999 FEW025 36/22 Q1009 NOSIG RMK A2980
RPLL,2025-05-01 06:00,RPLL 010600Z 12008KT 070V170 9999 FEW025 36/23 Q1008 NOSIG RMK A2977
RPLL,2025-05-01 07:00,RPLL 010700Z 13009KT 100V180 9999 FEW025 36/23 Q1008 NOSIG RMK A2977
RPLL,2025-05-01 08:00,RPLL 010800Z 15008KT 100V190 9999 FEW025 36/23 Q1007 NOSIG RMK A2974
RPLL,2025-05-01 09:00,RPLL 010900Z 13010KT 100V170 9999 FEW025 34/23 Q1007 NOSIG RMK A2974
RPLL,2025-05-01 10:00,RPLL 011000Z 12009KT 080V160 9999 FEW025 33/23 Q1009 NOSIG RMK A2980
RPLL,2025-05-01 11:00,RPLL 011100Z 14006KT 090V190 9999 FEW025 BKN100 32/25 Q1010 NOSIG RMK A2983
RPLL,2025-05-01 12:00,RPLL 011200Z 14008KT 090V180 9999 FEW025 BKN100 31/25 Q1011 NOSIG RMK A2985
RPLL,2025-05-01 13:00,RPLL 011300Z 13006KT 080V180 9999 FEW025 SCT100 31/25 Q1011 NOSIG RMK A2985
RPLL,2025-05-01 14:00,RPLL 011400Z 11005KT 070V150 9999 FEW025 SCT100 31/24 Q1012 NOSIG RMK A2988
RPLL,2025-05-01 15:00,RPLL 011500Z 12006KT 090V150 9999 FEW025 31/24 Q1011 NOSIG RMK A2985
RPLL,2025-05-01 16:00,RPLL 011600Z 12004KT 090V150 9999 FEW025 30/24 Q1011 NOSIG RMK A2985
RPLL,2025-05-01 17:00,RPLL 011700Z 10003KT 070V140 9999 FEW025 30/24 Q1010 NOSIG RMK A2983
RPLL,2025-05-01 18:00,RPLL 011800Z 13003KT 100V180 9999 FEW025 30/24 Q1010 NOSIG RMK A2983
RPLL,2025-05-01 19:00,RPLL 011900Z VRB02KT 9999 FEW025 30/24 Q1009 NOSIG RMK A2980
RPLL,2025-05-01 20:00,RPLL 012000Z VRB02KT 9999 FEW025 29/25 Q1009 NOSIG RMK A2980
RPLL,2025-05-01 21:00,RPLL 012100Z 16003KT 120V190 9999 FEW025 29/24 Q1009 NOSIG RMK A2980
RPLL,2025-05-01 22:00,RPLL 012200Z VRB02KT 9999 FEW025 29/24 Q1010 NOSIG RMK A2983
RPLL,2025-05-01 23:00,RPLL 012300Z 14005KT 110V180 9999 FEW025 31/24 Q1010 NOSIG RMK A2983
RPLL,2025-05-02 00:00,RPLL 020000Z 12005KT 070V170 9999 FEW025 32/24 Q1010 NOSIG RMK A2983
RPLL,2025-05-02 01:00,RPLL 020100Z 11005KT 060V200 9999 FEW025 32/24 Q1010 NOSIG RMK A2983
RPLL,2025-05-02 02:00,RPLL 020200Z VRB05KT 9999 FEW025 34/23 Q1010 NOSIG RMK A2983
RPLL,2025-05-02 03:00,RPLL 020300Z 13006KT 060V170 9999 FEW025 35/24 Q1010 NOSIG RMK A2983
RPLL,2025-05-02 04:00,RPLL 020400Z 12009KT 040V190 9999 FEW025 36/23 Q1009 NOSIG RMK A2980
RPLL,2025-05-02 05:00,RPLL 020500Z 13009KT 090V170 9999 SCT025 36/23 Q1008 NOSIG RMK A2977
RPLL,2025-05-02 06:00,RPLL 020600Z 15009KT 090V200 9999 SCT025 36/24 Q1007 NOSIG RMK A2974
RPLL,2025-05-02 07:00,RPLL 020700Z 15008KT 070V210 9999 SCT025 36/25 Q1007 NOSIG RMK A2974
RPLL,2025-05-02 08:00,RPLL 020800Z 14011KT 100V190 9999 SCT025 34/25 Q1006 NOSIG RMK A2971
RPLL,2025-05-02 09:00,RPLL 020900Z 13008KT 090V220 9999 FEW023CB SCT025 BKN100 34/25 Q1007 NOSIG RMK A2974 CB N
RPLL,2025-05-02 10:00,RPLL 021000Z 11011KT 080V140 9999 FEW025 BKN100 33/24 Q1008 NOSIG RMK A2977
RPLL,2025-05-02 11:00,RPLL 021100Z 12008KT 070V170 9999 FEW023CB BKN100 31/24 Q1009 NOSIG RMK A2980 CB/OCNL LTG W-NW
RPLL,2025-05-02 12:00,RPLL 021200Z 12007KT 090V150 9999 FEW025 31/24 Q1009 NOSIG RMK A2980
RPLL,2025-05-02 13:00,RPLL 021300Z 12006KT 080V150 9999 FEW025 31/24 Q1009 NOSIG RMK A2980
RPLL,2025-05-02 14:00,RPLL 021400Z 12008KT 9999 FEW025 31/23 Q1010 NOSIG RMK A2983
RPLL,2025-05-02 15:00,RPLL 021500Z 12007KT 080V150 9999 FEW025 30/24 Q1010 NOSIG RMK A2983
RPLL,2025-05-02 16:00,RPLL 021600Z 10006KT 070V130 9999 FEW025 30/24 Q1009 NOSIG RMK A2980
RPLL,2025-05-02 17:00,RPLL 021700Z 11007KT 080V140 9999 FEW025 30/23 Q1009 NOSIG RMK A2980
RPLL,2025-05-02 18:00,RPLL 021800Z 10003KT 080V150 9999 FEW025 30/23 Q1008 NOSIG RMK A2977
RPLL,2025-05-02 19:00,RPLL 021900Z 11003KT 070V150 9999 FEW025 30/23 Q1008 NOSIG RMK A2977
RPLL,2025-05-02 20:00,RPLL 022000Z VRB02KT 9999 FEW025 29/23 Q1008 NOSIG RMK A2977
RPLL,2025-05-02 21:00,RPLL 022100Z 10005KT 050V130 9999 FEW025 SCT100 29/24 Q1009 NOSIG RMK A2980
RPLL,2025-05-02 22:00,RPLL 022200Z 08004KT 050V130 9999 FEW025 BKN100 29/25 Q1009 NOSIG RMK A2980
RPLL,2025-05-02 23:00,RPLL 022300Z 11004KT 070V180 9999 FEW025 30/24 Q1010 NOSIG RMK A2983
RPLL,2025-05-03 00:00,RPLL 030000Z 13003KT 040V210 9999 FEW025 31/24 Q1010 NOSIG RMK A2983
RPLL,2025-05-03 01:00,RPLL 030100Z 12006KT 070V160 9999 FEW025 32/24 Q1010 NOSIG RMK A2983
RPLL,2025-05-03 02:00,RPLL 030200Z 12009KT 070V170 9999 FEW025 33/24 Q1010 NOSIG RMK A2983
RPLL,2025-05-03 03:00,RPLL 030300Z 10009KT 060V150 9999 FEW025 34/25 Q1010 NOSIG RMK A2983
RPLL,2025-05-03 04:00,RPLL 030400Z 12008KT 070V210 9999 FEW025 SCT100 35/24 Q1009 NOSIG RMK A2980
RPLL,2025-05-03 05:00,RPLL 030500Z 11009KT 080V160 9999 FEW025 SCT100 34/24 Q1008 NOSIG RMK A2977
RPLL,2025-05-03 06:00,RPLL 030600Z VRB08KT 9999 SCT025 SCT100 36/25 Q1007 NOSIG RMK A2974
RPLL,2025-05-03 07:00,RPLL 030700Z 13008KT 070V200 9999 SCT025 BKN100 35/24 Q1006 NOSIG RMK A2971
RPLL,2025-05-03 08:00,RPLL 030800Z 14009KT 100V190 9999 SCT025 BKN100 35/24 Q1006 NOSIG RMK A2971
RPLL,2025-05-03 09:00,RPLL 030900Z 13010KT 090V180 9999 SCT025 BKN100 33/23 Q1006 NOSIG RMK A2971
RPLL,2025-05-03 10:00,RPLL 031000Z 12008KT 090V190 9999 FEW025 SCT100 32/24 Q1007 NOSIG RMK A2974
RPLL,2025-05-03 11:00,RPLL 031100Z 12009KT 090V160 9999 SCT025 32/24 Q1008 NOSIG RMK A2977
RPLL,2025-05-03 12:00,RPLL 031200Z 13008KT 090V150 9999 FEW025 SCT100 31/24 Q1008 NOSIG RMK A2977
RPLL,2025-05-03 13:00,RPLL 031300Z 13007KT 080V150 9999 FEW025 31/24 Q1009 NOSIG RMK A2980
RPLL,2025-05-03 14:00,RPLL 031400Z 12006KT 080V180 9999 FEW025 31/24 Q1009 NOSIG RMK A2980
RPLL,2025-05-03 15:00,RPLL 031500Z 12008KT 090V170 9999 FEW025 30/24 Q1009 NOSIG RMK A2980
RPLL,2025-05-03 16:00,RPLL 031600Z 12006KT 080V170 9999 FEW025 SCT100 30/24 Q1009 NOSIG RMK A2980
RPLL,2025-05-03 17:00,RPLL 031700Z 10004KT 060V160 9999 FEW025 30/24 Q1009 NOSIG RMK A2980
RPLL,2025-05-03 18:00,RPLL 031800Z 11005KT 070V140 9999 FEW025 BKN100 30/24 Q1008 NOSIG RMK A2977
RPLL,2025-05-03 19:00,RPLL 031900Z 09004KT 060V120 9999 FEW025 BKN100 30/24 Q1008 NOSIG RMK A2977
RPLL,2025-05-03 20:00,RPLL 032000Z 09004KT 060V130 9999 FEW025 SCT100 30/24 Q1008 NOSIG RMK A2977
RPLL,2025-05-03 21:00,RPLL 032100Z 10004KT 060V150 9999 FEW025 SCT100 29/24 Q1007 NOSIG RMK A2974
RPLL,2025-05-03 22:00,RPLL 032200Z VRB02KT 9999 FEW025 BKN100 29/24 Q1007 NOSIG RMK A2974
RPLL,2025-05-03 23:00,RPLL 032300Z 10004KT 070V140 9999 FEW025 BKN100 30/24 Q1008 NOSIG RMK A2977
RPLL,2025-05-04 00:00,COR RPLL 040000Z 12006KT 070V160 9999 FEW025 BKN100 31/24 Q1008 NOSIG RMK A2977
RPLL,2025-05-04 01:00,RPLL 040100Z 12009KT 070V160 9999 FEW025 33/24 Q1008 NOSIG RMK A2977
RPLL,2025-05-04 02:00,RPLL 040200Z 11009KT 070V160 9999 FEW025 BKN100 33/25 Q1008 NOSIG RMK A2977
RPLL,2025-05-04 03:00,RPLL 040300Z 12010KT 090V160 9999 FEW025 BKN100 33/24 Q1008 NOSIG RMK A2977
RPLL,2025-05-04 04:00,RPLL 040400Z 12009KT 080V150 9999 FEW025 BKN100 33/24 Q1008 NOSIG RMK A2977
RPLL,2025-05-04 05:00,RPLL 040500Z 13009KT 090V190 9999 FEW025 BKN100 35/25 Q1007 NOSIG RMK A2974
RPLL,2025-05-04 06:00,RPLL 040600Z 10010KT 060V140 9999 FEW025 BKN100 35/24 Q1006 NOSIG RMK A2971
RPLL,2025-05-04 07:00,RPLL 040700Z 12009KT 080V220 9999 FEW025 SCT100 35/25 Q1006 NOSIG RMK A2971
RPLL,2025-05-04 08:00,COR RPLL 040800Z 17007KT 110V230 9999 FEW023CB SCT025 BKN100 32/25 Q1006 NOSIG RMK A2971 CB NW
RPLL,2025-05-04 09:00,RPLL 040900Z VRB03KT 9999 SCT025 BKN100 31/25 Q1006 NOSIG RMK A2971
RPLL,2025-05-04 10:00,RPLL 041000Z 10004KT 040V140 9999 SCT025 BKN100 31/26 Q1007 NOSIG RMK A2974
RPLL,2025-05-04 11:00,RPLL 041100Z 12006KT 070V150 9999 -RA SCT025 BKN100 30/26 Q1008 NOSIG RMK A2977
RPLL,2025-05-04 12:00,RPLL 041200Z 12005KT 080V150 9999 FEW025 BKN100 30/26 Q1009 NOSIG RMK A2980
RPLL,2025-05-04 13:00,RPLL 041300Z 10005KT 060V140 9999 FEW025 SCT100 30/26 Q1009 NOSIG RMK A2980
RPLL,2025-05-04 14:00,RPLL 041400Z 10004KT 060V150 9999 FEW025 BKN100 30/25 Q1010 NOSIG RMK A2983
RPLL,2025-05-04 15:00,RPLL 041500Z 11004KT 060V160 9999 FEW025 30/26 Q1010 NOSIG RMK A2983
RPLL,2025-05-04 16:00,RPLL 041600Z 11004KT 060V160 9999 FEW025 BKN100 30/26 Q1010 NOSIG RMK A2983
RPLL,2025-05-04 17:00,RPLL 041700Z 11003KT 050V160 9999 FEW025 29/26 Q1009 NOSIG RMK A2980
RPLL,2025-05-04 18:00,RPLL 041800Z 16003KT 120V190 9999 FEW025 29/26 Q1008 NOSIG RMK A2977
RPLL,2025-05-04 19:00,RPLL 041900Z 11003KT 060V150 9999 FEW025 29/26 Q1008 NOSIG RMK A2977
RPLL,2025-05-04 20:00,RPLL 042000Z VRB02KT 9999 FEW025 29/26 Q1008 NOSIG RMK A2977
RPLL,2025-05-04 21:00,RPLL 042100Z 15003KT 090V190 9999 FEW025 SCT100 29/26 Q1009 NOSIG RMK A2980
RPLL,2025-05-04 22:00,RPLL 042200Z VRB02KT 9999 FEW025 SCT100 29/26 Q1009 NOSIG RMK A2980
RPLL,2025-05-04 23:00,RPLL 042300Z 11005KT 070V160 9999 FEW025 SCT100 30/25 Q1009 NOSIG RMK A2980
RPLL,2025-05-05 00:00,RPLL 050000Z 11005KT 050V150 9999 FEW025 31/25 Q1009 NOSIG RMK A2980
RPLL,2025-05-05 01:00,RPLL 050100Z 14006KT 090V190 9999 FEW025 32/25 Q1009 NOSIG RMK A2980
RPLL,2025-05-05 02:00,RPLL 050200Z 11007KT 050V200 9999 FEW025 33/25 Q1009 NOSIG RMK A2980
RPLL,2025-05-05 03:00,RPLL 050300Z 14007KT 080V190 9999 FEW025 34/25 Q1009 NOSIG RMK A2980
RPLL,2025-05-05 04:00,RPLL 050400Z 13008KT 070V200 9999 FEW025 35/24 Q1008 NOSIG RMK A2977
RPLL,2025-05-05 05:00,RPLL 050500Z 12008KT 040V180 9999 FEW025 35/24 Q1007 NOSIG RMK A2974
RPLL,2025-05-05 06:00,RPLL 050600Z 12008KT 090V170 9999 FEW025 35/24 Q1006 NOSIG RMK A2971
RPLL,2025-05-05 07:00,RPLL 050700Z 26010KT 220V290 9999 FEW025 32/26 Q1005 NOSIG RMK A2968
RPLL,2025-05-05 08:00,RPLL 050800Z 27003KT 190V300 9999 FEW025 SCT100 33/25 Q1006 NOSIG RMK A2971
RPLL,2025-05-05 09:00,RPLL 050900Z 27011KT 9999 FEW025 BKN100 32/27 Q1006 NOSIG RMK A2971
RPLL,2025-05-05 10:00,RPLL 051000Z 24008KT 210V270 9999 FEW025 BKN100 31/25 Q1007 NOSIG RMK A2974
RPLL,2025-05-05 11:00,RPLL 051100Z 23008KT 190V250 9999 TS FEW023CB SCT025 BKN100 30/24 Q1008 NOSIG RMK A2974 CB/FRQ LTG N-E  OHD
RPLL,2025-05-05 12:00,RPLL 051200Z 08007KT 040V180 9999 TS FEW023CB SCT025 BKN100 28/26 Q1009 NOSIG RMK A2980 CB/OCNL LTG N-SE
RPLL,2025-05-05 13:00,RPLL 051300Z 07006KT 9999 FEW023CB SCT025 BKN100 28/24 Q1010 NOSIG RMK A2983 CB N
RPLL,2025-05-05 14:00,COR RPLL 051400Z 08007KT 060V120 9999 FEW022CB SCT025 BKN100 28/24 Q1010 NOSIG RMK A2983 CB NNW W/ OCNL LTNG
RPLL,2025-05-05 15:00,RPLL 051500Z 34006KT 300V030 9999 FEW025 BKN100 29/23 Q1010 Q1010 NOSIG RMK A2983
RPLL,2025-05-05 16:00,RPLL 051600Z 06003KT 360V090 9999 FEW025 SCT100 29/24 Q1009 NOSIG RMK A2980
RPLL,2025-05-05 17:00,RPLL 051700Z 06004KT 9999 FEW025 SCT100 28/24 Q1008 NOSIG RMK A2977
RPLL,2025-05-05 18:00,RPLL 051800Z 26004KT 180V310 9999 FEW025 SCT100 29/24 Q1008 NOSIG RMK A2977
RPLL,2025-05-05 19:00,RPLL 051900Z 31004KT 260V360 9999 FEW025 BKN100 28/25 Q1008 NOSIG RMK A2977
RPLL,2025-05-05 20:00,RPLL 052000Z 30003KT 270V340 9999 FEW025 BKN100 28/25 Q1008 NOSIG RMK A2977
RPLL,2025-05-05 21:00,RPLL 052100Z 31003KT 280V350 9999 FEW025 28/25 Q1008 NOSIG RMK A2977
RPLL,2025-05-05 22:00,RPLL 052200Z 02005KT 340V050 9999 FEW025 28/25 Q1008 NOSIG RMK A2977
RPLL,2025-05-05 23:00,RPLL 052300Z VRB02KT 9999 FEW025 28/25 Q1009 NOSIG RMK A2980
RPLL,2025-05-06 00:00,RPLL 060000Z VRB03KT 9000 FEW025 30/26 Q1010 NOSIG RMK A2983
RPLL,2025-05-06 01:00,RPLL 060100Z VRB03KT 9000 SCT023 30/25 Q1011 NOSIG RMK A2985
RPLL,2025-05-06 02:00,RPLL 060200Z VRB04KT 9000 SCT025 33/25 Q1010 NOSIG RMK A2983
RPLL,2025-05-06 03:00,RPLL 060300Z VRB06KT 9999 SCT025 34/24 Q1009 NOSIG RMK A2980
RPLL,2025-05-06 04:00,RPLL 060400Z 28011KT 9999 SCT025 32/26 Q1009 NOSIG RMK A2980
RPLL,2025-05-06 05:00,RPLL 060500Z 27009KT 9999 SCT025 34/26 Q1007 NOSIG RMK A2974
RPLL,2025-05-06 06:00,RPLL 060600Z 27012KT 9999 FEW023CB SCT025 BKN100 33/26 Q1006 NOSIG RMK A2971 CB N/SW
RPLL,2025-05-06 07:00,RPLL 060700Z 27010KT 9999 FEW023CB SCT025 33/26 Q1006 NOSIG RMK A2971 CB S
RPLL,2025-05-06 08:00,RPLL 060800Z 20010KT 9999 TS FEW022CB SCT023 BKN090 31/24 Q1006 TEMPO 9000 -TSRA RMK A2971 CB SE-S MOV OHD
RPLL,2025-05-06 08:31,COR RPLL 060831Z 18010KT 150V220 8000 -TSRA SCT023CB OVC090 28/25 Q1007 TEMPO 5000 TSRA RMK A2974 CB OHD/NE-S
RPLL,2025-05-06 09:00,RPLL 060900Z 25005KT 8000 -TSRA SCT020CB SCT022 OVC090 28/26 Q1007 TEMPO 5000 TSRA RMK A2974 CB OHD/NE-S
RPLL,2025-05-06 10:00,RPLL 061000Z 10005KT 060V120 8000 -TSRA FEW022CB SCT023 OVC090 28/26 Q1008 NOSIG RMK A2977 CB OHD/N
RPLL,2025-05-06 11:00,RPLL 061100Z 08006KT 8000 -TSRA FEW022CB SCT023 OVC090 28/26 Q1009 NOSIG RMK A2980 CB S-SW/N/OHD
RPLL,2025-05-06 12:00,RPLL 061200Z 15003KT 100V190 8000 TS FEW022CB SCT023 OVC090 28/26 Q1009 NOSIG RMK A2980 CB S-SW/OHD
RPLL,2025-05-06 12:40,RPLL 061240Z 25004KT 200V320 8000 -TSRA FEW022CB SCT023 OVC090 28/26 Q1010 NOSIG RMK A2983 CB/FRQ LTG S-NW/OHD
RPLL,2025-05-06 13:00,RPLL 061300Z 24006KT 8000 TS FEW022CB SCT023 OVC090 27/26 Q1010 NOSIG RMK A2983 CB/FRQ LTG S-NW/OHD
RPLL,2025-05-06 14:00,RPLL 061400Z 28003KT 260V320 9000 FEW023CB SCT025 OVC100 27/26 Q1010 RETS NOSIG RMK A2983 CB W
RPLL,2025-05-06 15:00,RPLL 061500Z 00000KT 9999 FEW025 SCT100 28/26 Q1010 NOSIG RMK A2983
RPLL,2025-05-06 16:00,RPLL 061600Z 24004KT 190V260 9999 FEW025 28/26 Q1009 NOSIG RMK A2980
RPLL,2025-05-06 17:00,RPLL 061700Z 22003KT 9999 FEW025 BKN100 28/26 Q1010 NOSIG RMK A2983
RPLL,2025-05-06 18:00,RPLL 061800Z VRB02KT 9999 FEW025 SCT100 28/26 Q1008 NOSIG RMK A2977
RPLL,2025-05-06 19:00,RPLL 061900Z VRB02KT 9999 FEW025 28/26 Q1007 NOSIG RMK A2974
RPLL,2025-05-06 20:00,RPLL 062000Z 00000KT 9999 FEW025 27/26 Q1007 NOSIG RMK A2974
RPLL,2025-05-06 21:00,RPLL 062100Z VRB02KT 9999 FEW025 28/26 Q1007 NOSIG RMK A2974
RPLL,2025-05-06 22:00,RPLL 062200Z VRB02KT 9999 FEW025 28/26 Q1008 NOSIG RMK A2977
RPLL,2025-05-06 23:00,RPLL 062300Z 19003KT 170V240 9999 FEW025 28/26 Q1008 NOSIG RMK A2977
RPLL,2025-05-07 00:00,RPLL 070000Z 13003KT 050V180 9999 FEW025 31/26 Q1009 NOSIG RMK A2980
RPLL,2025-05-07 01:00,RPLL 070100Z VRB04KT 9999 FEW025 32/25 Q1009 NOSIG RMK A2980
RPLL,2025-05-07 02:00,RPLL 070200Z VRB05KT 9999 FEW025 33/25 Q1009 NOSIG RMK A2980
RPLL,2025-05-07 03:00,RPLL 070300Z 15006KT 070V220 9999 FEW025 34/25 Q1009 NOSIG RMK A2980
RPLL,2025-05-07 04:00,RPLL 070400Z 12006KT 070V190 9999 FEW025 35/25 Q1008 NOSIG RMK A2977
RPLL,2025-05-07 05:00,RPLL 070500Z 12006KT 040V200 9999 FEW025 35/25 Q1007 NOSIG RMK A2974
RPLL,2025-05-07 06:00,RPLL 070600Z VRB05KT 9000 SCT025 BKN100 33/26 Q1006 NOSIG RMK A2971
RPLL,2025-05-07 07:00,RPLL 070700Z 24011KT 8000 -TSRA SCT020CB SCT023 OVC090 29/25 Q1006 NOSIG RMK A2971 CB OHD SW-N
RPLL,2025-05-07 08:00,RPLL 070800Z VRB04KT 9999 SCT023 BKN100 30/24 Q1006 RETS NOSIG RMK A2971
RPLL,2025-05-07 09:00,RPLL 070900Z VRB02KT 9000 FEW025 BKN100 30/24 Q1006 NOSIG RMK A2971
RPLL,2025-05-07 10:00,RPLL 071000Z 26005KT 230V290 9000 FEW025 BKN100 29/25 Q1007 NOSIG RMK A2974
RPLL,2025-05-07 11:00,RPLL 071100Z VRB02KT 9000 FEW025 SCT100 30/24 Q1008 NOSIG RMK A2977
RPLL,2025-05-07 12:00,RPLL 071200Z 13004KT 060V210 9000 FEW025 SCT100 31/25 Q1009 NOSIG RMK A2980
RPLL,2025-05-07 13:00,RPLL 071300Z 10005KT 060V130 9999 FEW025 30/25 Q1009 NOSIG RMK A2980
RPLL,2025-05-07 14:00,RPLL 071400Z 09004KT 9999 FEW025 30/26 Q1010 NOSIG RMK A2983
RPLL,2025-05-07 15:00,RPLL 071500Z VRB02KT 9999 FEW025 SCT100 30/25 Q1010 NOSIG RMK A2983
RPLL,2025-05-07 16:00,RPLL 071600Z 33004KT 280V030 9000 FEW023CB SCT025 BKN100 30/25 Q1009 NOSIG RMK A2980 CB/FRQ LTG NW
RPLL,2025-05-07 17:00,RPLL 071700Z 30003KT 270V340 9000 FEW025 BKN100 29/25 Q1008 NOSIG RMK A2977
RPLL,2025-05-07 18:00,RPLL 071800Z 09003KT 060V120 9999 FEW023 BKN100 29/25 Q1008 NOSIG RMK A2977
RPLL,2025-05-07 19:00,RPLL 071900Z 12004KT 080V170 9999 FEW025 BKN100 29/26 Q1008 NOSIG RMK A2977
RPLL,2025-05-07 20:00,RPLL 072000Z 14004KT 100V210 9999 -RA FEW025 BKN100 28/25 Q1007 NOSIG RMK A2974
RPLL,2025-05-07 21:00,RPLL 072100Z VRB02KT 9999 -RA FEW025 BKN100 28/26 Q1008 NOSIG RMK A2977
RPLL,2025-05-07 22:00,RPLL 072200Z 14003KT 090V220 9999 FEW025 BKN100 28/26 Q1008 NOSIG RMK A2977
RPLL,2025-05-07 23:00,RPLL 072300Z 10004KT 070V140 9999 FEW025 BKN100 29/25 Q1009 NOSIG RMK A2980
RPLL,2025-05-08 00:00,RPLL 080000Z 06005KT 9999 FEW025 BKN100 29/26 Q1010 NOSIG RMK A2983
RPLL,2025-05-08 01:00,RPLL 080100Z 07004KT 020V180 9999 FEW025 SCT100 31/24 Q1010 NOSIG RMK A2983
RPLL,2025-05-08 02:00,RPLL 080200Z 12006KT 050V170 9999 FEW025 SCT100 32/25 Q1009 NOSIG RMK A2980
RPLL,2025-05-08 03:00,RPLL 080300Z 13006KT 060V200 9999 FEW025 33/25 Q1009 NOSIG RMK A2980
RPLL,2025-05-08 04:00,RPLL 080400Z 12009KT 070V180 9999 SCT025 34/25 Q1008 NOSIG RMK A2977
RPLL,2025-05-08 05:00,RPLL 080500Z 10009KT 070V150 9999 FEW025 35/24 Q1007 NOSIG RMK A2974
RPLL,2025-05-08 06:00,RPLL 080600Z 13011KT 090V170 9999 FEW025 35/24 Q1006 NOSIG RMK A2971
RPLL,2025-05-08 07:00,RPLL 080700Z 12009KT 070V190 9999 FEW025 SCT100 34/24 Q1006 NOSIG RMK A2971
RPLL,2025-05-08 08:00,RPLL 080800Z 11009KT 080V150 9999 FEW025 SCT100 34/25 Q1006 NOSIG RMK A2971
RPLL,2025-05-08 09:00,RPLL 080900Z 14007KT 090V180 9999 FEW025 BKN100 33/25 Q1006 NOSIG RMK A2971
RPLL,2025-05-08 10:00,RPLL 081000Z 12006KT 080V160 9999 FEW025 BKN100 32/24 Q1008 NOSIG RMK A2977
RPLL,2025-05-08 11:00,RPLL 081100Z 13005KT 090V180 9999 FEW025 SCT100 31/24 Q1008 NOSIG RMK A2977
RPLL,2025-05-08 12:00,RPLL 081200Z 14005KT 080V210 9999 FEW025 SCT100 31/26 Q1009 NOSIG RMK A2980
RPLL,2025-05-08 13:00,RPLL 081300Z 11006KT 080V150 9999 -SHRA SCT023 BKN090 30/26 Q1010 NOSIG RMK A2983
RPLL,2025-05-08 14:00,RPLL 081400Z 11004KT 070V140 9999 -RA FEW023 BKN090 29/27 Q1010 NOSIG RMK A2983
RPLL,2025-05-08 15:00,RPLL 081500Z 12003KT 080V150 9999 FEW025 BKN100 29/26 Q1010 NOSIG RMK A2983
RPLL,2025-05-08 16:00,RPLL 081600Z 09003KT 9999 FEW025 BKN100 29/26 Q1009 NOSIG RMK A2980
RPLL,2025-05-08 17:00,RPLL 081700Z 10004KT 9999 FEW025 BKN100 29/26 Q1008 NOSIG RMK A2977
RPLL,2025-05-08 18:00,RPLL 081800Z VRB02KT 9999 FEW025 BKN100 29/26 Q1008 NOSIG RMK A2977
RPLL,2025-05-08 19:00,RPLL 081900Z 16003KT 100V210 9999 FEW025 29/26 Q1007 NOSIG RMK A2974
RPLL,2025-05-08 20:00,RPLL 082000Z 14003KT 090V200 9999 FEW025 29/26 Q1008 NOSIG RMK A2977
RPLL,2025-05-08 21:00,RPLL 082100Z 14003KT 090V190 9999 FEW025 28/27 Q1008 NOSIG RMK A2977
RPLL,2025-05-08 22:00,RPLL 082200Z 12003KT 090V160 9999 FEW025 29/26 Q1009 NOSIG RMK A2980
RPLL,2025-05-08 23:00,RPLL 082300Z 12004KT 080V180 9999 FEW025 30/26 Q1010 NOSIG RMK A2983
RPLL,2025-05-09 00:00,RPLL 090000Z 12007KT 080V170 9999 FEW025 31/26 Q1010 NOSIG RMK A2983
RPLL,2025-05-09 01:00,RPLL 090100Z 10007KT 070V140 9999 FEW025 32/26 Q1010 NOSIG RMK A2983
RPLL,2025-05-09 02:00,RPLL 090200Z 11008KT 060V160 9999 FEW025 34/25 Q1010 NOSIG RMK A2983
RPLL,2025-05-09 03:00,RPLL 090300Z 11006KT 050V160 9999 FEW025 34/26 Q1010 NOSIG RMK A2983
RPLL,2025-05-09 04:00,RPLL 090400Z 10006KT 060V180 9999 FEW025 35/25 Q1010 NOSIG RMK A2983
RPLL,2025-05-09 05:00,RPLL 090500Z 14006KT 070V210 9999 SCT025 36/24 Q1009 NOSIG RMK A2980
RPLL,2025-05-09 06:00,RPLL 090600Z 10006KT 040V160 9999 SCT025 36/23 Q1007 NOSIG RMK A2974
RPLL,2025-05-09 07:00,RPLL 090700Z 10007KT 060V170 9999 SCT025TCU 36/25 Q1007 NOSIG RMK A2974 TCU N/S
RPLL,2025-05-09 08:00,RPLL 090800Z 11005KT 070V170 9999 FEW023CB SCT025 SCT100 35/25 Q1007 NOSIG RMK A2974 CB N  TCU S
RPLL,2025-05-09 09:00,RPLL 090900Z VRB03KT 9999 SCT025 SCT100 34/25 Q1007 NOSIG RMK A2974
RPLL,2025-05-09 10:00,RPLL 091000Z 27008KT 9999 SCT025 31/26 Q1008 NOSIG RMK A2977
RPLL,2025-05-09 11:00,RPLL 091100Z 28004KT 240V340 9999 FEW025 31/26 Q1008 NOSIG RMK A2977
RPLL,2025-05-09 12:00,RPLL 091200Z 11004KT 050V150 9999 FEW025 32/25 Q1009 NOSIG RMK A2980
RPLL,2025-05-09 13:00,RPLL 091300Z 12005KT 080V170 9999 FEW025 31/25 Q1009 NOSIG RMK A2980
RPLL,2025-05-09 14:00,RPLL 091400Z 12004KT 9999 FEW025 31/25 Q1010 NOSIG RMK A2983
RPLL,2025-05-09 15:00,RPLL 091500Z 12004KT 080V170 9999 FEW025 31/24 Q1010 NOSIG RMK A2983
RPLL,2025-05-09 16:00,RPLL 091600Z 11004KT 080V160 9999 FEW025 30/24 Q1010 NOSIG RMK A2983
RPLL,2025-05-09 17:00,RPLL 091700Z 12003KT 080V140 9999 FEW025 30/24 Q1009 NOSIG RMK A2980
RPLL,2025-05-09 18:00,RPLL 091800Z VRB02KT 9999 FEW025 29/23 Q1009 NOSIG RMK A2980
RPLL,2025-05-09 19:00,RPLL 091900Z 11003KT 080V140 9999 FEW025 30/22 Q1008 NOSIG RMK A2977
RPLL,2025-05-09 20:00,RPLL 092000Z 10003KT 070V150 9999 FEW025 SCT100 29/22 Q1008 NOSIG RMK A2977
RPLL,2025-05-09 21:00,RPLL 092100Z 11003KT 080V150 9999 FEW025 BKN090 30/23 Q1009 NOSIG RMK A2980
RPLL,2025-05-09 22:00,RPLL 092200Z 10005KT 060V140 9999 -SHRA SCT025 BKN090 28/25 Q1009 NOSIG RMK A2980
RPLL,2025-05-09 23:00,RPLL 092300Z 07005KT 9999 FEW025 29/26 Q1010 NOSIG RMK A2983
RPLL,2025-05-10 00:00,RPLL 100000Z 09009KT 060V120 9999 FEW025 31/24 Q1010 NOSIG RMK A2983
RPLL,2025-05-10 01:00,RPLL 100100Z 10010KT 060V150 9999 FEW025 32/24 Q1010 NOSIG RMK A2983
RPLL,2025-05-10 02:00,RPLL 100200Z 12008KT 060V170 9999 FEW025 33/24 Q1010 NOSIG RMK A2983
RPLL,2025-05-10 03:00,RPLL 100300Z 11008KT 070V180 9999 FEW025 34/22 Q1009 NOSIG RMK A2980
RPLL,2025-05-10 04:00,RPLL 100400Z 12008KT 070V180 9999 FEW025 35/21 Q1009 NOSIG RMK A2980
RPLL,2025-05-10 05:00,RPLL 100500Z 11010KT 070V170 9999 FEW025 35/20 Q1008 NOSIG RMK A2977
RPLL,2025-05-10 06:00,RPLL 100600Z 11007KT 060V170 9999 FEW025 36/21 Q1007 NOSIG RMK A2974
RPLL,2025-05-10 07:00,RPLL 100700Z 09008KT 050V140 9999 FEW025 36/21 Q1006 NOSIG RMK A2971
RPLL,2025-05-10 08:00,RPLL 100800Z 11007KT 070V150 9999 FEW025 36/21 Q1006 NOSIG RMK A2971
RPLL,2025-05-10 09:00,RPLL 100900Z 12006KT 070V180 9999 FEW025 35/22 Q1006 NOSIG RMK A2971
RPLL,2025-05-10 10:00,RPLL 101000Z 13006KT 090V200 9999 FEW025 34/23 Q1006 NOSIG RMK A2971
RPLL,2025-05-10 11:00,RPLL 101100Z 12005KT 080V170 9999 FEW025 33/22 Q1007 NOSIG RMK A2974
RPLL,2025-05-10 12:00,RPLL 101200Z 14004KT 090V210 9999 FEW025 SCT100 32/24 Q1008 NOSIG RMK A2977
RPLL,2025-05-10 13:00,RPLL 101300Z 15004KT 100V220 9999 FEW025 32/24 Q1009 NOSIG RMK A2980
RPLL,2025-05-10 14:00,RPLL 101400Z 14005KT 080V180 9999 FEW025 31/24 Q1009 NOSIG RMK A2980
RPLL,2025-05-10 15:00,RPLL 101500Z 17003KT 120V210 9999 FEW025 30/25 Q1009 NOSIG RMK A2980
RPLL,2025-05-10 16:00,RPLL 101600Z 18006KT 9999 FEW025 30/26 Q1009 NOSIG RMK A2980
RPLL,2025-05-10 17:00,RPLL 101700Z 19004KT 140V220 9999 FEW025 SCT100 29/26 Q1009 NOSIG RMK A2980
RPLL,2025-05-10 18:00,RPLL 101800Z 17004KT 090V220 9999 FEW025 29/26 Q1008 NOSIG RMK A2977
RPLL,2025-05-10 19:00,RPLL 101900Z 18003KT 110V220 9999 FEW025 BKN100 29/26 Q1007 NOSIG RMK A2974
RPLL,2025-05-10 20:00,RPLL 102000Z 17004KT 120V200 9999 FEW025 29/26 Q1007 NOSIG RMK A2974
RPLL,2025-05-10 21:00,RPLL 102100Z VRB02KT 9999 FEW025 29/26 Q1007 NOSIG RMK A2974
RPLL,2025-05-10 22:00,RPLL 102200Z 08003KT 050V120 9999 FEW025 29/25 Q1007 NOSIG RMK A2974
RPLL,2025-05-10 23:00,RPLL 102300Z VRB02KT 9999 FEW025 31/23 Q1008 NOSIG RMK A2977
RPLL,2025-05-11 00:00,RPLL 110000Z 08003KT 020V140 9999 FEW025 32/24 Q1009 NOSIG RMK A2980
RPLL,2025-05-11 01:00,RPLL 110100Z VRB04KT 9999 SCT025 33/23 Q1009 NOSIG RMK A2980
RPLL,2025-05-11 02:00,RPLL 110200Z 08010KT 9999 SCT025 33/23 Q1009 NOSIG RMK A2980
RPLL,2025-05-11 03:00,RPLL 110300Z 11006KT 010V150 9999 FEW025 35/23 Q1009 NOSIG RMK A2980
RPLL,2025-05-11 04:00,RPLL 110400Z VRB05KT 9999 FEW025 35/23 Q1008 NOSIG RMK A2977
RPLL,2025-05-11 05:00,RPLL 110500Z 28010KT 9999 FEW025 34/25 Q1007 NOSIG RMK A2974
RPLL,2025-05-11 06:00,RPLL 110600Z 26012KT 9999 -TSRA FEW023CB SCT100 29/24 Q1006 NOSIG RMK A2971 CB OHD/SW
RPLL,2025-05-11 07:00,RPLL 110700Z 24006KT 9999 FEW023CB SCT100 32/24 Q1005 RETS NOSIG RMK A2968 CB S
RPLL,2025-05-11 08:00,RPLL 110800Z 22006KT 190V250 9999 FEW023CB SCT100 31/25 Q1005 NOSIG RMK A2968 CB S
RPLL,2025-05-11 09:00,RPLL 110900Z 20005KT 170V240 9000 FEW023 BKN100 31/25 Q1005 NOSIG RMK A2968
RPLL,2025-05-11 10:00,RPLL 111000Z 19003KT 160V240 9000 FEW025 32/26 Q1006 NOSIG RMK A2971
RPLL,2025-05-11 11:00,RPLL 111100Z 27004KT 9000 FEW025 31/26 Q1007 NOSIG RMK A2974
RPLL,2025-05-11 12:00,RPLL 111200Z 24005KT 200V280 9999 FEW025 BKN100 30/26 Q1007 NOSIG RMK A2974
RPLL,2025-05-11 13:00,RPLL 111300Z 24006KT 210V280 9999 FEW025 BKN100 30/26 Q1008 NOSIG RMK A2977
RPLL,2025-05-11 14:00,RPLL 111400Z 23004KT 200V260 9999 FEW023CB SCT100 30/26 Q1009 NOSIG RMK A2980 CB/OCNL LTG NE
RPLL,2025-05-11 15:00,RPLL 111500Z VRB02KT 9999 FEW025 BKN100 30/26 Q1009 NOSIG RMK A2980
RPLL,2025-05-11 16:00,RPLL 111600Z 20003KT 160V230 9999 FEW025 BKN100 30/26 Q1008 NOSIG RMK A2977
RPLL,2025-05-11 17:00,RPLL 111700Z VRB02KT 9999 FEW025 29/26 Q1008 NOSIG RMK A2977
RPLL,2025-05-11 18:00,RPLL 111800Z 19003KT 170V230 9999 FEW025 BKN100 29/26 Q1007 NOSIG RMK A2974
RPLL,2025-05-11 19:00,RPLL 111900Z VRB02KT 9999 FEW025 29/26 Q1007 NOSIG RMK A2974
RPLL,2025-05-11 20:00,RPLL 112000Z VRB01KT 9999 FEW025 SCT100 29/26 Q1007 NOSIG RMK A2974
RPLL,2025-05-11 21:00,RPLL 112100Z 00000KT 9999 FEW025 SCT100 29/26 Q1008 NOSIG RMK A2977
RPLL,2025-05-11 22:00,RPLL 112200Z VRB02KT 9999 FEW025 29/26 Q1008 NOSIG RMK A2977
RPLL,2025-05-11 23:00,RPLL 112300Z 22003KT 9999 FEW025 30/26 Q1008 NOSIG RMK A2977
RPLL,2025-05-12 00:00,RPLL 120000Z 25004KT 210V310 9999 FEW025 31/26 Q1009 NOSIG RMK A2980
RPLL,2025-05-12 01:00,RPLL 120100Z VRB02KT 9999 FEW025 SCT100 32/25 Q1009 NOSIG RMK A2980
RPLL,2025-05-12 02:00,RPLL 120200Z VRB04KT 9999 FEW025 33/25 Q1009 NOSIG RMK A2980
RPLL,2025-05-12 03:00,RPLL 120300Z 16006KT 090V210 9999 FEW025 34/25 Q1008 NOSIG RMK A2977
RPLL,2025-05-12 04:00,RPLL 120400Z 10006KT 050V150 9999 FEW025 35/24 Q1007 NOSIG RMK A2974
RPLL,2025-05-12 05:00,RPLL 120500Z 14006KT 090V210 9999 FEW025 36/23 Q1006 NOSIG RMK A2971
RPLL,2025-05-12 06:00,RPLL 120600Z 26007KT 210V300 9999 FEW025 35/26 Q1005 NOSIG RMK A2968
RPLL,2025-05-12 07:00,RPLL 120700Z 23013G23KT 180V250 9000 TS FEW023CB SCT025 BKN100 32/26 Q1005 TEMPO -TSRA RMK A2968 CB/OCNL LTG SE-W
RPLL,2025-05-12 08:00,RPLL 120800Z 22007KT 170V240 9999 FEW023CB SCT100 32/24 Q1005 NOSIG RMK A2968 CB S
RPLL,2025-05-12 09:00,RPLL 120900Z 21007KT 180V240 9999 FEW025 BKN100 32/23 Q1006 NOSIG RMK A2971
RPLL,2025-05-12 10:00,RPLL 121000Z 29003KT 260V320 9999 SCT025 BKN100 31/24 Q1007 NOSIG RMK A2974
RPLL,2025-05-12 11:00,RPLL 121100Z 04005KT 360V100 9000 FEW023CB SCT025 BKN090 29/27 Q1007 RERA NOSIG RMK A2974 CB OHD
RPLL,2025-05-12 12:00,RPLL 121200Z 19006KT 140V240 9000 -RA SCT025 BKN100 28/27 Q1008 NOSIG RMK A2977
RPLL,2025-05-12 13:00,RPLL 121300Z 32010KT 8000 -TSRA FEW023CB SCT025 OVC090 26/24 Q1010 NOSIG RMK A2983 CB/OCNL LTG OHD  S-W
RPLL,2025-05-12 14:00,RPLL 121400Z 04006KT 330V120 5000 +TSRA SCT022CB OVC070 24/24 Q1011 NOSIG RMK A2985 CB/OCNL LTG OHD  S-W
RPLL,2025-05-12 15:00,RPLL 121500Z 35006KT 320V020 8000 -TSRA FEW023CB SCT025 OVC090 25/25 Q1010 NOSIG RMK A2983 CB/OCNL LTG OHD  N  W-NW
RPLL,2025-05-12 16:00,RPLL 121600Z 08004KT 350V150 9999 -SHRA FEW023CB SCT025 BKN100 26/25 Q1010 RETS NOSIG RMK A2983 CB/OCNL LTG NW
RPLL,2025-05-12 17:00,RPLL 121700Z 35003KT 290V030 8000 -SHRA SCT023 OVC090 26/25 Q1010 NOSIG RMK A2983
RPLL,2025-05-12 18:00,RPLL 121800Z 03006KT 320V050 9999 FEW025 BKN100 27/24 Q1010 NOSIG RMK A2983
RPLL,2025-05-12 19:00,RPLL 121900Z VRB02KT 9999 FEW025 BKN100 27/25 Q1009 NOSIG RMK A2980
RPLL,2025-05-12 20:00,RPLL 122000Z VRB01KT 9999 FEW025 BKN100 26/25 Q1009 NOSIG RMK A2980
RPLL,2025-05-12 21:00,RPLL 122100Z VRB01KT 9999 FEW025 BKN100 27/25 Q1010 NOSIG RMK A2983
RPLL,2025-05-12 22:00,RPLL 122200Z VRB01KT 9999 FEW025 BKN100 27/26 Q1010 NOSIG RMK A2983
RPLL,2025-05-12 23:00,RPLL 122300Z VRB02KT 9999 FEW025 BKN100 28/25 Q1011 NOSIG RMK A2985
RPLL,2025-05-13 00:00,RPLL 130000Z VRB02KT 9999 FEW025 29/26 Q1011 NOSIG RMK A2985
RPLL,2025-05-13 01:00,RPLL 130100Z VRB05KT 9999 FEW025 32/25 Q1011 NOSIG RMK A2985
RPLL,2025-05-13 02:00,RPLL 130200Z 12006KT 060V190 9999 FEW025 32/25 Q1011 NOSIG RMK A2985
RPLL,2025-05-13 03:00,RPLL 130300Z 13007KT 060V190 9999 FEW025 33/25 Q1011 NOSIG RMK A2985
RPLL,2025-05-13 04:00,RPLL 130400Z 12006KT 060V200 9999 FEW025 34/25 Q1010 NOSIG RMK A2983
RPLL,2025-05-13 05:00,RPLL 130500Z 13006KT 060V230 9999 FEW025 35/23 Q1009 NOSIG RMK A2980
RPLL,2025-05-13 06:00,RPLL 130600Z 13006KT 070V180 9999 FEW025 36/24 Q1009 NOSIG RMK A2980
RPLL,2025-05-13 07:00,RPLL 130700Z 13005KT 070V200 9999 FEW025 35/24 Q1008 NOSIG RMK A2977
RPLL,2025-05-13 08:00,RPLL 130800Z VRB05KT 9999 FEW025 35/23 Q1008 NOSIG RMK A2977
RPLL,2025-05-13 09:00,RPLL 130900Z 14004KT 090V240 9999 FEW023CB SCT025 SCT100 34/24 Q1008 NOSIG RMK A2977 CB NE
RPLL,2025-05-13 09:44,RPLL 130944Z 02006G16KT 300V110 8000 -TSRA SCT022CB SCT023 OVC090 29/24 Q1009 TEMPO 5000 TSRA RMK A2980 CB OHD
RPLL,2025-05-13 10:00,RPLL 131000Z 34012KT 300V010 8000 -TSRA SCT022CB SCT023 OVC090 25/23 Q1010 TEMPO 5000 TSRA RMK A2983 CB OHD/N-E
RPLL,2025-05-13 10:10,RPLL 131010Z 30006KT 240V020 5000 TSRA SCT020CB SCT022 OVC080 25/24 Q1010 NOSIG RMK A2983 CB OHD/N
RPLL,2025-05-13 11:00,RPLL 131100Z 36010KT 9000 -TSRA SCT022CB SCT023 OVC090 26/24 Q1010 RESHRA NOSIG RMK A2983 CB/OCNL LTG OHD/N/S-NW
RPLL,2025-05-13 12:00,RPLL 131200Z 26008KT 230V290 9000 FEW023CB SCT025 BKN090 27/25 Q1012 RETS NOSIG RMK A2988 CB/OCNL LTG S-SW
RPLL,2025-05-13 13:00,RPLL 131300Z 23004KT 9000 -SHRA FEW023CB SCT025 BKN090 26/25 Q1012 TEMPO 5000 SHRA RMK A2988 CB/OCNL LTG NE
RPLL,2025-05-13 14:00,RPLL 131400Z VRB02KT 8000 -RA FEW023CB SCT025 OVC090 26/26 Q1012 NOSIG RMK A2988 CB NE
RPLL,2025-05-13 15:00,RPLL 131500Z VRB02KT 9000 -SHRA FEW023CB SCT025 OVC090 26/26 Q1012 NOSIG RMK A2988 CB NE
RPLL,2025-05-13 16:00,RPLL 131600Z VRB02KT 9999 SCT025 26/26 Q1011 NOSIG RMK A2985
RPLL,2025-05-13 17:00,RPLL 131700Z VRB02KT 9999 SCT025 26/26 Q1011 NOSIG RMK A2985
RPLL,2025-05-13 18:00,RPLL 131800Z VRB01KT 9999 SCT025 26/26 Q1010 NOSIG RMK A2983
RPLL,2025-05-13 19:00,RPLL 131900Z 26002KT 9999 FEW025 26/26 Q1009 NOSIG RMK A2980
RPLL,2025-05-13 20:00,RPLL 132000Z 10003KT 060V140 9999 FEW025 28/25 Q1009 NOSIG RMK A2980
RPLL,2025-05-13 21:00,RPLL 132100Z 10003KT 070V130 9999 FEW025 28/24 Q1009 NOSIG RMK A2980
RPLL,2025-05-13 22:00,RPLL 132200Z 08003KT 9999 FEW025 27/25 Q1010 NOSIG RMK A2983
RPLL,2025-05-13 23:00,RPLL 132300Z 07005KT 9999 FEW025 29/24 Q1011 NOSIG RMK A2985
RPLL,2025-05-14 00:00,RPLL 140000Z 07005KT 300V110 9999 FEW025 31/24 Q1012 NOSIG RMK A2988
RPLL,2025-05-14 01:00,RPLL 140100Z 05005KT 360V120 9999 FEW025 SCT100 31/23 Q1012 NOSIG RMK A2988
RPLL,2025-05-14 02:00,RPLL 140200Z 06005KT 010V090 9999 FEW025 33/24 Q1012 NOSIG RMK A2988
RPLL,2025-05-14 03:00,RPLL 140300Z VRB04KT 9999 FEW025 SCT100 33/25 Q1012 NOSIG RMK A2988
RPLL,2025-05-14 04:00,RPLL 140400Z 17005KT 070V230 9999 FEW025 BKN100 34/24 Q1011 NOSIG RMK A2985
RPLL,2025-05-14 05:00,RPLL 140500Z VRB06KT 9999 FEW025 BKN100 35/24 Q1010 NOSIG RMK A2983
RPLL,2025-05-14 06:00,RPLL 140600Z 13009KT 090V170 9999 FEW023CB FEW025 SCT100 35/24 Q1010 NOSIG RMK A2983 CB NE
RPLL,2025-05-14 07:00,RPLL 140700Z 13008KT 080V190 9999 FEW025 35/24 Q1009 NOSIG RMK A2980
RPLL,2025-05-14 08:00,RPLL 140800Z 13009KT 090V190 9999 FEW023CB 34/25 Q1008 NOSIG RMK A2977 CB N
RPLL,2025-05-14 09:00,RPLL 140900Z 08007KT 340V150 9999 FEW023CB SCT025 BKN100 32/25 Q1009 NOSIG RMK A2980 CB N
RPLL,2025-05-14 10:00,RPLL 141000Z 06008KT 9999 -SHRA FEW025 BKN100 30/25 Q1009 NOSIG RMK A2980
RPLL,2025-05-14 11:00,RPLL 141100Z 08004KT 060V120 9999 FEW025 SCT100 31/25 Q1010 NOSIG RMK A2983
RPLL,2025-05-14 12:00,RPLL 141200Z 11003KT 070V150 9999 FEW025 31/25 Q1011 NOSIG RMK A2985
RPLL,2025-05-14 13:00,RPLL 141300Z 13005KT 090V170 9999 FEW025 31/25 Q1011 NOSIG RMK A2985
RPLL,2025-05-14 14:00,RPLL 141400Z 12006KT 090V170 9999 FEW025 30/24 Q1011 NOSIG RMK A2985
RPLL,2025-05-14 15:00,RPLL 141500Z 11007KT 080V140 9999 FEW025 SCT100 30/24 Q1011 NOSIG RMK A2985
RPLL,2025-05-14 16:00,RPLL 141600Z 11007KT 070V140 9999 FEW025 SCT100 30/24 Q1011 NOSIG RMK A2985
RPLL,2025-05-14 17:00,RPLL 141700Z 10006KT 9999 FEW025 30/24 Q1011 NOSIG RMK A2985
RPLL,2025-05-14 18:00,RPLL 141800Z 10004KT 9999 FEW025 29/24 Q1010 NOSIG RMK A2983
RPLL,2025-05-14 19:00,RPLL 141900Z 10003KT 060V130 9999 FEW025 29/23 Q1009 NOSIG RMK A2980
RPLL,2025-05-14 20:00,RPLL 142000Z 07002KT 9999 FEW025 28/23 Q1009 NOSIG RMK A2980
RPLL,2025-05-14 21:00,RPLL 142100Z 07002KT 9999 FEW025 28/23 Q1010 NOSIG RMK A2983
RPLL,2025-05-14 22:00,RPLL 142200Z VRB02KT 9999 FEW025 28/24 Q1010 NOSIG RMK A2983
RPLL,2025-05-14 23:00,RPLL 142300Z VRB02KT 9999 FEW025 30/25 Q1011 NOSIG RMK A2985
RPLL,2025-05-15 00:00,COR RPLL 150000Z VRB03KT 9999 FEW025 SCT100 32/24 Q1011 NOSIG RMK A2985
RPLL,2025-05-15 01:00,RPLL 150100Z 10006KT 040V160 9999 FEW025 SCT100 32/25 Q1012 NOSIG RMK A2988
RPLL,2025-05-15 02:00,RPLL 150200Z 10008KT 060V140 9999 FEW025 SCT100 33/25 Q1011 NOSIG RMK A2985
RPLL,2025-05-15 03:00,RPLL 150300Z 11009KT 070V150 9999 FEW025 SCT100 34/25 Q1011 NOSIG RMK A2985
RPLL,2025-05-15 04:00,RPLL 150400Z 10010KT 060V140 9999 FEW025 34/24 Q1011 NOSIG RMK A2985
RPLL,2025-05-15 05:00,RPLL 150500Z 11009KT 060V180 9999 FEW025 34/24 Q1010 NOSIG RMK A2983
RPLL,2025-05-15 06:00,RPLL 150600Z 10008KT 070V140 9999 FEW025 35/23 Q1009 NOSIG RMK A2980
RPLL,2025-05-15 07:00,RPLL 150700Z 12008KT 030V170 9999 FEW025 35/25 Q1008 NOSIG RMK A2977
RPLL,2025-05-15 08:00,RPLL 150800Z 12008KT 070V170 9999 FEW025 35/24 Q1009 NOSIG RMK A2980
RPLL,2025-05-15 09:00,RPLL 150900Z 12009KT 080V160 9999 FEW025 34/24 Q1009 NOSIG RMK A2980
RPLL,2025-05-15 10:00,RPLL 151000Z 12008KT 070V160 9999 FEW025 33/23 Q1009 NOSIG RMK A2980
RPLL,2025-05-15 11:00,RPLL 151100Z 12007KT 090V150 9999 FEW025 32/24 Q1010 NOSIG RMK A2983
RPLL,2025-05-15 12:00,RPLL 151200Z 10007KT 060V130 9999 FEW025 31/24 Q1010 NOSIG RMK A2983
RPLL,2025-05-15 13:00,RPLL 151300Z 09005KT 060V130 9999 FEW025 31/23 Q1011 NOSIG RMK A2985
RPLL,2025-05-15 14:00,RPLL 151400Z 11004KT 070V130 9999 FEW025 31/23 Q1011 NOSIG RMK A2985
RPLL,2025-05-15 15:00,RPLL 151500Z 13003KT 070V170 9999 FEW025 30/23 Q1012 NOSIG RMK A2988
RPLL,2025-05-15 16:00,RPLL 151600Z 11004KT 070V170 9999 FEW025 SCT100 30/24 Q1011 NOSIG RMK A2985
RPLL,2025-05-15 17:00,RPLL 151700Z 10004KT 070V130 9999 FEW025 SCT100 30/23 Q1011 NOSIG RMK A2985
RPLL,2025-05-15 18:00,RPLL 151800Z 11003KT 080V150 9999 FEW025 BKN100 30/23 Q1011 NOSIG RMK A2985
RPLL,2025-05-15 19:00,RPLL 151900Z VRB02KT 9999 FEW025 BKN130 30/23 Q1011 NOSIG RMK A2985
RPLL,2025-05-15 20:00,RPLL 152000Z 11003KT 070V150 9999 FEW025 SCT130 30/23 Q1011 NOSIG RMK A2985
RPLL,2025-05-15 21:00,RPLL 152100Z 07004KT 040V140 9999 FEW025 29/24 Q1011 NOSIG RMK A2985
RPLL,2025-05-15 22:00,RPLL 152200Z 07003KT 360V130 9999 FEW025 29/24 Q1011 NOSIG RMK A2985
RPLL,2025-05-15 23:00,RPLL 152300Z 08004KT 040V120 9999 FEW025 30/24 Q1012 NOSIG RMK A2988
RPLL,2025-05-16 00:00,RPLL 160000Z 11005KT 070V150 9999 FEW025 32/24 Q1012 NOSIG RMK A2988
RPLL,2025-05-16 01:00,RPLL 160100Z 13006KT 050V200 9999 FEW025 33/24 Q1012 NOSIG RMK A2988
RPLL,2025-05-16 02:00,RPLL 160200Z 13007KT 050V200 9999 FEW025 33/25 Q1011 NOSIG RMK A2985
RPLL,2025-05-16 03:00,RPLL 160300Z 11011KT 070V170 9999 FEW025 34/24 Q1011 NOSIG RMK A2985
RPLL,2025-05-16 04:00,RPLL 160400Z 12010KT 080V160 9999 FEW025 35/24 Q1010 NOSIG RMK A2983
RPLL,2025-05-16 05:00,RPLL 160500Z 12011KT 080V170 9999 FEW025 35/24 Q1009 NOSIG RMK A2980
RPLL,2025-05-16 06:00,RPLL 160600Z 12009KT 080V170 9999 FEW025 35/24 Q1008 NOSIG RMK A2977
RPLL,2025-05-16 07:00,RPLL 160700Z 12010KT 070V150 9999 FEW025 35/23 Q1008 NOSIG RMK A2977
RPLL,2025-05-16 08:00,COR RPLL 160800Z 12009KT 090V170 9999 FEW025 35/23 Q1008 NOSIG RMK A2977
RPLL,2025-05-16 09:00,RPLL 160900Z 11011KT 080V150 9999 FEW025 34/22 Q1008 NOSIG RMK A2977
RPLL,2025-05-16 10:00,RPLL 161000Z 10008KT 060V140 9999 FEW025 33/22 Q1009 NOSIG RMK A2980
RPLL,2025-05-16 11:00,RPLL 161100Z 10006KT 070V130 9999 FEW025 SCT100 32/23 Q1009 NOSIG RMK A2980
RPLL,2025-05-16 12:00,RPLL 161200Z 10006KT 070V150 9999 FEW025 BKN100 32/23 Q1010 NOSIG RMK A2983
RPLL,2025-05-16 13:00,RPLL 161300Z 12005KT 070V150 9999 FEW025 SCT100 32/23 Q1010 NOSIG RMK A2983
RPLL,2025-05-16 14:00,RPLL 161400Z 12009KT 080V150 9999 FEW025 SCT100 30/25 Q1011 NOSIG RMK A2985
RPLL,2025-05-16 15:00,RPLL 161500Z 12007G19KT 070V160 9999 FEW025 SCT100 29/24 Q1012 NOSIG RMK A2988
RPLL,2025-05-16 16:00,RPLL 161600Z 10008KT 070V130 9999 FEW025 BKN100 28/24 Q1011 NOSIG RMK A2985
RPLL,2025-05-16 17:00,RPLL 161700Z 10004KT 070V150 9999 FEW025 SCT100 28/23 Q1011 NOSIG RMK A2985
RPLL,2025-05-16 18:00,RPLL 161800Z 11005KT 070V150 9999 FEW025 SCT100 29/23 Q1010 NOSIG RMK A2983
RPLL,2025-05-16 19:00,RPLL 161900Z 08003KT 050V120 9999 FEW025 BKN100 28/25 Q1010 NOSIG RMK A2983
RPLL,2025-05-16 20:00,COR RPLL 162000Z 11003KT 9999 FEW025 SCT150 29/25 Q1010 NOSIG RMK A2983
RPLL,2025-05-16 21:00,RPLL 162100Z 12003KT 080V170 9999 FEW025 SCT150 29/25 Q1010 NOSIG RMK A2983
RPLL,2025-05-16 22:00,RPLL 162200Z 17003KT 120V240 9999 FEW025 28/26 Q1010 NOSIG RMK A2983
RPLL,2025-05-16 23:00,RPLL 162300Z 17004KT 130V230 9999 FEW025 29/25 Q1011 NOSIG RMK A2985
RPLL,2025-05-17 00:00,RPLL 170000Z VRB04KT 9999 FEW025 31/25 Q1012 NOSIG RMK A2988
RPLL,2025-05-17 01:00,RPLL 170100Z 12007KT 060V170 9999 FEW025 32/25 Q1012 NOSIG RMK A2988
RPLL,2025-05-17 02:00,RPLL 170200Z 12009KT 060V160 9999 FEW025 33/25 Q1012 NOSIG RMK A2988
RPLL,2025-05-17 03:00,RPLL 170300Z 11011KT 080V160 9999 FEW025 33/24 Q1011 NOSIG RMK A2985
RPLL,2025-05-17 04:00,RPLL 170400Z 12009KT 080V160 9999 FEW025 34/24 Q1011 NOSIG RMK A2985
RPLL,2025-05-17 05:00,RPLL 170500Z 12011KT 090V180 9999 SCT025 33/24 Q1010 NOSIG RMK A2983
RPLL,2025-05-17 06:00,RPLL 170600Z 12011KT 090V180 9999 FEW025 35/23 Q1009 NOSIG RMK A2980
RPLL,2025-05-17 07:00,RPLL 170700Z 12010KT 080V150 9999 SCT025 35/24 Q1008 NOSIG RMK A2977
RPLL,2025-05-17 08:00,RPLL 170800Z 12009KT 070V170 9999 SCT025 35/24 Q1008 NOSIG RMK A2977
RPLL,2025-05-17 09:00,RPLL 170900Z 11010KT 070V150 9999 FEW025 34/24 Q1008 NOSIG RMK A2977
RPLL,2025-05-17 10:00,RPLL 171000Z 12008KT 090V190 9999 FEW025 33/23 Q1009 NOSIG RMK A2980
RPLL,2025-05-17 11:00,RPLL 171100Z 11008KT 070V150 9999 FEW023CB 32/24 Q1010 NOSIG RMK A2983 CB/OCNL LTG NW
RPLL,2025-05-17 12:00,RPLL 171200Z 11004KT 060V140 9999 FEW025 31/24 Q1011 NOSIG RMK A2985
RPLL,2025-05-17 13:00,RPLL 171300Z 13005KT 080V160 9999 FEW025 31/24 Q1011 NOSIG RMK A2985
RPLL,2025-05-17 14:00,RPLL 171400Z 12005KT 080V160 9999 FEW025 30/23 Q1011 NOSIG RMK A2985
RPLL,2025-05-17 15:00,RPLL 171500Z 11005KT 9999 FEW025 30/23 Q1011 NOSIG RMK A2985
RPLL,2025-05-17 16:00,RPLL 171600Z 08003KT 050V130 9999 FEW025 29/22 Q1011 NOSIG RMK A2985
RPLL,2025-05-17 17:00,RPLL 171700Z 07003KT 9999 FEW025 29/22 Q1011 NOSIG RMK A2985
RPLL,2025-05-17 18:00,RPLL 171800Z VRB01KT 9999 FEW025 29/22 Q1010 NOSIG RMK A2983
RPLL,2025-05-17 19:00,RPLL 171900Z VRB01KT 9999 FEW025 29/22 Q1010 NOSIG RMK A2983
RPLL,2025-05-17 20:00,RPLL 172000Z 09003KT 060V120 9999 FEW025 29/22 Q1010 NOSIG RMK A2983
RPLL,2025-05-17 21:00,RPLL 172100Z VRB02KT 9999 FEW025 29/22 Q1010 NOSIG RMK A2983
RPLL,2025-05-17 22:00,RPLL 172200Z 00000KT 9999 FEW025 29/22 Q1011 NOSIG RMK A2985
RPLL,2025-05-17 23:00,RPLL 172300Z 10004KT 050V140 9999 FEW025 31/24 Q1011 NOSIG RMK A2985
RPLL,2025-05-18 00:00,RPLL 180000Z 11006KT 050V150 9999 FEW025 31/24 Q1012 NOSIG RMK A2988
RPLL,2025-05-18 01:00,RPLL 180100Z 11006KT 070V170 9999 FEW025 33/24 Q1011 NOSIG RMK A2985
RPLL,2025-05-18 02:00,RPLL 180200Z 12007KT 070V190 9999 FEW025 33/24 Q1011 NOSIG RMK A2985
RPLL,2025-05-18 03:00,RPLL 180300Z 09009KT 060V140 9999 FEW025 34/24 Q1011 NOSIG RMK A2985
RPLL,2025-05-18 04:00,RPLL 180400Z 13010KT 090V160 9999 FEW025 35/23 Q1010 NOSIG RMK A2983
RPLL,2025-05-18 05:00,RPLL 180500Z 11009KT 070V160 9999 FEW025 36/24 Q1009 NOSIG RMK A2980
RPLL,2025-05-18 06:00,RPLL 180600Z 12011KT 090V170 9999 FEW025 35/23 Q1009 NOSIG RMK A2980
RPLL,2025-05-18 07:00,RPLL 180700Z 15009KT 090V200 9999 FEW025 35/25 Q1008 NOSIG RMK A2977
RPLL,2025-05-18 08:00,RPLL 180800Z 13010KT 070V170 9999 FEW025 34/23 Q1008 NOSIG RMK A2977
RPLL,2025-05-18 09:00,RPLL 180900Z 13008KT 070V170 9999 FEW025 34/24 Q1008 NOSIG RMK A2977
RPLL,2025-05-18 10:00,RPLL 181000Z 13009KT 090V180 9999 FEW025 33/24 Q1008 NOSIG RMK A2977
RPLL,2025-05-18 11:00,RPLL 181100Z 10009KT 070V140 9999 FEW025 32/23 Q1009 NOSIG RMK A2980
RPLL,2025-05-18 12:00,RPLL 181200Z 12008KT 090V150 9999 FEW025 31/23 Q1010 NOSIG RMK A2983
RPLL,2025-05-18 13:00,RPLL 181300Z 11007KT 080V170 9999 FEW025 31/23 Q1010 NOSIG RMK A2983
RPLL,2025-05-18 14:00,RPLL 181400Z 12007KT 070V150 9999 FEW025 31/23 Q1011 NOSIG RMK A2985
RPLL,2025-05-18 15:00,RPLL 181500Z 11006KT 070V140 9999 FEW025 31/23 Q1011 NOSIG RMK A2985
RPLL,2025-05-18 16:00,RPLL 181600Z 10005KT 070V130 9999 FEW025 30/23 Q1010 NOSIG RMK A2983
RPLL,2025-05-18 17:00,RPLL 181700Z 08004KT 040V120 9999 FEW025 30/24 Q1010 NOSIG RMK A2983
RPLL,2025-05-18 18:00,RPLL 181800Z VRB02KT 9999 FEW025 30/23 Q1009 NOSIG RMK A2980
RPLL,2025-05-18 19:00,RPLL 181900Z 12003KT 060V160 9999 FEW025 SCT130 30/23 Q1010 NOSIG RMK A2983
RPLL,2025-05-18 20:00,RPLL 182000Z 07003KT 9999 FEW025 29/23 Q1010 NOSIG RMK A2983
RPLL,2025-05-18 21:00,RPLL 182100Z 10003KT 9999 FEW025 29/22 Q1010 NOSIG RMK A2983
RPLL,2025-05-18 22:00,RPLL 182200Z 11003KT 080V150 9999 FEW025 29/23 Q1010 NOSIG RMK A2983
RPLL,2025-05-18 23:00,RPLL 182300Z 11007KT 070V140 9999 FEW025 31/23 Q1010 NOSIG RMK A2983
RPLL,2025-05-19 00:00,RPLL 190000Z 10008KT 060V140 9999 FEW025 31/23 Q1011 NOSIG RMK A2985
RPLL,2025-05-19 01:00,RPLL 190100Z 11007KT 060V160 9999 FEW025 33/24 Q1011 NOSIG RMK A2985
RPLL,2025-05-19 02:00,RPLL 190200Z 11011KT 060V150 9999 FEW025 33/24 Q1010 NOSIG RMK A2983
RPLL,2025-05-19 03:00,RPLL 190300Z 12011KT 070V150 9999 FEW025 34/24 Q1010 NOSIG RMK A2983
RPLL,2025-05-19 04:00,RPLL 190400Z 11012KT 070V140 9999 FEW025 34/24 Q1009 NOSIG RMK A2980
RPLL,2025-05-19 05:00,RPLL 190500Z 11012KT 080V150 9999 FEW025 35/23 Q1008 NOSIG RMK A2977
RPLL,2025-05-19 06:00,RPLL 190600Z 10011KT 070V150 9999 FEW025 35/24 Q1007 NOSIG RMK A2974
RPLL,2025-05-19 07:00,RPLL 190700Z 12009KT 070V160 9999 FEW025 35/24 Q1007 NOSIG RMK A2974
RPLL,2025-05-19 08:00,RPLL 190800Z 11010KT 070V160 9999 FEW025 35/24 Q1006 NOSIG RMK A2971
RPLL,2025-05-19 09:00,RPLL 190900Z 11008KT 070V150 9999 FEW025 34/25 Q1007 NOSIG RMK A2974
RPLL,2025-05-19 10:00,RPLL 191000Z 12007KT 080V170 9999 FEW025 34/25 Q1007 NOSIG RMK A2974
RPLL,2025-05-19 11:00,RPLL 191100Z 13009KT 100V170 9999 FEW025 32/24 Q1008 NOSIG RMK A2977
RPLL,2025-05-19 12:00,RPLL 191200Z 12009KT 090V160 9999 FEW025 32/24 Q1009 NOSIG RMK A2980
RPLL,2025-05-19 13:00,RPLL 191300Z 12008KT 070V150 9999 FEW023CB 31/24 Q1009 NOSIG RMK A2980 CB/OCNL LTG SE
RPLL,2025-05-19 14:00,RPLL 191400Z 12006KT 080V150 9999 FEW025 31/25 Q1010 NOSIG RMK A2983
RPLL,2025-05-19 15:00,RPLL 191500Z 13013G24KT 090V160 9999 FEW023CB 29/24 Q1011 NOSIG RMK A2985 CB/OCNL LTG SE
RPLL,2025-05-19 16:00,RPLL 191600Z 11008KT 080V160 9999 FEW023CB SCT090 28/24 Q1011 NOSIG RMK A2985 CB/OCNL LTG E
RPLL,2025-05-19 17:00,RPLL 191700Z 12006KT 080V170 9999 -SHRA SCT023 BKN090 27/24 Q1010 NOSIG RMK A2983
RPLL,2025-05-19 18:00,RPLL 191800Z 13003KT 080V190 9999 FEW025 BKN100 27/25 Q1010 NOSIG RMK A2983
RPLL,2025-05-19 19:00,RPLL 191900Z 11003KT 070V140 9999 FEW025 BKN100 28/25 Q1009 NOSIG RMK A2980
RPLL,2025-05-19 20:00,RPLL 192000Z 11004KT 080V150 9999 FEW025 BKN100 28/24 Q1009 NOSIG RMK A2980
RPLL,2025-05-19 21:00,RPLL 192100Z 08003KT 040V120 9999 FEW025 BKN100 28/25 Q1010 NOSIG RMK A2983
RPLL,2025-05-19 22:00,RPLL 192200Z VRB02KT 9999 FEW025 BKN100 29/25 Q1010 NOSIG RMK A2983
RPLL,2025-05-19 23:00,RPLL 192300Z 13005KT 060V160 9999 FEW025 SCT100 30/25 Q1010 NOSIG RMK A2983
RPLL,2025-05-20 00:00,RPLL 200000Z 10006KT 070V150 9999 FEW025 31/25 Q1010 NOSIG RMK A2983
RPLL,2025-05-20 01:00,RPLL 200100Z 12007KT 070V200 9999 FEW025 32/25 Q1011 NOSIG RMK A2985
RPLL,2025-05-20 02:00,RPLL 200200Z 12009KT 070V170 9999 FEW025 33/25 Q1010 NOSIG RMK A2983
RPLL,2025-05-20 03:00,RPLL 200300Z 12010KT 090V180 9999 FEW025 34/25 Q1010 NOSIG RMK A2983
RPLL,2025-05-20 04:00,RPLL 200400Z 12011KT 090V170 9999 FEW025 34/25 Q1009 NOSIG RMK A2980
RPLL,2025-05-20 05:00,RPLL 200500Z 12010KT 080V180 9999 FEW025 34/23 Q1009 NOSIG RMK A2980
RPLL,2025-05-20 06:00,RPLL 200600Z 12012KT 090V170 9999 FEW025 35/23 Q1008 NOSIG RMK A2977
RPLL,2025-05-20 07:00,RPLL 200700Z 11010KT 070V170 9999 FEW025 35/21 Q1008 NOSIG RMK A2977
RPLL,2025-05-20 08:00,RPLL 200800Z 11009KT 080V160 9999 FEW025 35/22 Q1007 NOSIG RMK A2974
RPLL,2025-05-20 09:00,RPLL 200900Z 11008KT 070V160 9999 FEW025 34/21 Q1007 NOSIG RMK A2974
RPLL,2025-05-20 10:00,RPLL 201000Z 12006KT 080V190 9999 FEW025 33/24 Q1008 NOSIG RMK A2977
RPLL,2025-05-20 11:00,RPLL 201100Z 11007KT 080V150 9999 FEW025 32/24 Q1009 NOSIG RMK A2980
RPLL,2025-05-20 12:00,RPLL 201200Z 10005KT 060V150 9999 FEW025 31/24 Q1010 NOSIG RMK A2983
RPLL,2025-05-20 13:00,RPLL 201300Z 10006KT 060V120 9999 FEW023CB 31/24 Q1010 NOSIG RMK A2983 CB/OCNL LTG SE
RPLL,2025-05-20 14:00,RPLL 201400Z 11003KT 060V160 9999 FEW023CB 31/23 Q1011 NOSIG RMK A2985 CB/OCNL LTG SE
RPLL,2025-05-20 15:00,RPLL 201500Z 11009KT 070V150 9999 FEW025 30/24 Q1011 NOSIG RMK A2985
RPLL,2025-05-20 16:00,RPLL 201600Z 13004KT 090V190 9999 FEW025 30/26 Q1010 NOSIG RMK A2983
RPLL,2025-05-20 17:00,RPLL 201700Z 16006KT 120V210 9999 FEW025 29/25 Q1010 NOSIG RMK A2983
RPLL,2025-05-20 18:00,RPLL 201800Z 15005KT 100V210 9999 FEW025 SCT100 29/26 Q1010 NOSIG RMK A2983
RPLL,2025-05-20 19:00,RPLL 201900Z 11008KT 080V140 9999 FEW025 SCT100 29/24 Q1009 NOSIG RMK A2980
RPLL,2025-05-20 20:00,RPLL 202000Z 10005KT 070V130 9999 FEW025 BKN100 29/23 Q1009 NOSIG RMK A2980
RPLL,2025-05-20 21:00,RPLL 202100Z 11006KT 070V140 9999 FEW025 BKN100 29/24 Q1010 NOSIG RMK A2983
RPLL,2025-05-20 22:00,RPLL 202200Z 09004KT 070V130 9999 SCT025 BKN100 29/24 Q1010 NOSIG RMK A2983
RPLL,2025-05-20 23:00,RPLL 202300Z 10005KT 060V150 9999 FEW025 SCT100 30/24 Q1011 NOSIG RMK A2985
RPLL,2025-05-21 00:00,RPLL 210000Z 12007KT 080V170 9999 FEW025 SCT100 31/24 Q1011 NOSIG RMK A2985
RPLL,2025-05-21 01:00,RPLL 210100Z 11008KT 070V140 9999 FEW025 32/25 Q1012 NOSIG RMK A2988
RPLL,2025-05-21 02:00,RPLL 210200Z 13009KT 100V180 9999 FEW025 33/25 Q1011 NOSIG RMK A2985
RPLL,2025-05-21 03:00,RPLL 210300Z 14007KT 090V190 9999 FEW025 34/25 Q1011 NOSIG RMK A2985
RPLL,2025-05-21 04:00,RPLL 210400Z 12007KT 070V190 9999 FEW025 34/24 Q1010 NOSIG RMK A2983
RPLL,2025-05-21 05:00,RPLL 210500Z 12008KT 070V180 9999 FEW025 35/24 Q1009 NOSIG RMK A2980
RPLL,2025-05-21 06:00,RPLL 210600Z 13007KT 090V210 9999 FEW025 35/23 Q1008 NOSIG RMK A2977
RPLL,2025-05-21 07:00,RPLL 210700Z 13009KT 200V190 9999 FEW025 34/22 Q1007 NOSIG RMK A2974
RPLL,2025-05-21 08:00,RPLL 210800Z 13008KT 080V180 9999 FEW025 35/22 Q1007 NOSIG RMK A2974
RPLL,2025-05-21 09:00,RPLL 210900Z 13008KT 080V170 9999 FEW025 34/22 Q1007 NOSIG RMK A2974
RPLL,2025-05-21 10:00,RPLL 211000Z 13008KT 100V160 9999 FEW025 33/22 Q1008 NOSIG RMK A2977
RPLL,2025-05-21 11:00,RPLL 211100Z 12006KT 090V180 9999 FEW025 BKN100 32/23 Q1008 NOSIG RMK A2977
RPLL,2025-05-21 12:00,RPLL 211200Z 13006KT 080V180 9999 FEW025 BKN100 31/23 Q1009 NOSIG RMK A2980
RPLL,2025-05-21 13:00,RPLL 211300Z VRB07KT 9999 FEW025 BKN100 31/23 Q1010 NOSIG RMK A2983
RPLL,2025-05-21 14:00,RPLL 211400Z 13005KT 090V170 9999 FEW025 31/24 Q1010 NOSIG RMK A2983
RPLL,2025-05-21 15:00,RPLL 211500Z 12006KT 090V180 9999 FEW025 30/23 Q1010 NOSIG RMK A2983
RPLL,2025-05-21 16:00,RPLL 211600Z 12006KT 070V180 9999 FEW025 SCT100 30/23 Q1009 NOSIG RMK A2980
RPLL,2025-05-21 17:00,RPLL 211700Z 12006KT 090V160 9999 FEW025 30/23 Q1009 NOSIG RMK A2980
RPLL,2025-05-21 18:00,RPLL 211800Z 10003KT 9999 FEW025 30/23 Q1008 NOSIG RMK A2977
RPLL,2025-05-21 19:00,RPLL 211900Z 12003KT 090V170 9999 FEW025 29/23 Q1008 NOSIG RMK A2977
RPLL,2025-05-21 20:00,RPLL 212000Z VRB02KT 9999 FEW025 29/23 Q1008 NOSIG RMK A2977
RPLL,2025-05-21 21:00,RPLL 212100Z VRB01KT 9999 FEW025 29/23 Q1008 NOSIG RMK A2977
RPLL,2025-05-21 22:00,RPLL 212200Z 10003KT 060V140 9999 FEW025 29/24 Q1009 NOSIG RMK A2980
RPLL,2025-05-21 23:00,RPLL 212300Z 09005KT 060V120 9999 FEW025 31/23 Q1009 NOSIG RMK A2980
RPLL,2025-05-22 00:00,RPLL 220000Z 08008KT 9999 FEW025 31/23 Q1009 NOSIG RMK A2980
RPLL,2025-05-22 01:00,RPLL 220100Z 09008KT 060V140 9999 FEW025 32/24 Q1009 NOSIG RMK A2980 NOSIG RMK A2980
RPLL,2025-05-22 02:00,RPLL 220200Z VRB08KT 9999 FEW025 33/25 Q1009 NOSIG RMK A2980
RPLL,2025-05-22 03:00,RPLL 220300Z 13009KT 090V220 9999 FEW025 34/24 Q1008 NOSIG RMK A2977
RPLL,2025-05-22 04:00,RPLL 220400Z 13010KT 080V180 9999 FEW025 35/23 Q1007 NOSIG RMK A2974
RPLL,2025-05-22 05:00,RPLL 220500Z 14009KT 090V190 9999 FEW025 35/24 Q1006 NOSIG RMK A2971
RPLL,2025-05-22 06:00,RPLL 220600Z 14008KT 090V180 9999 FEW025 36/24 Q1005 NOSIG RMK A2968
RPLL,2025-05-22 07:00,RPLL 220700Z 13010KT 090V160 9999 FEW025 35/24 Q1005 NOSIG RMK A2968
RPLL,2025-05-22 08:00,RPLL 220800Z 12010KT 080V170 9999 FEW025 35/24 Q1004 NOSIG RMK A2965
RPLL,2025-05-22 09:00,RPLL 220900Z 14007KT 090V220 9999 SCT025 34/23 Q1005 NOSIG RMK A2968
RPLL,2025-05-22 10:00,RPLL 221000Z 13006KT 090V180 9999 SCT025 34/24 Q1005 NOSIG RMK A2968
RPLL,2025-05-22 11:00,RPLL 221100Z 14008KT 080V180 9999 SCT025 33/25 Q1006 NOSIG RMK A2971
RPLL,2025-05-22 12:00,RPLL 221200Z 15008KT 110V190 9999 SCT025 SCT100 32/25 Q1007 NOSIG RMK A2974
RPLL,2025-05-22 13:00,RPLL 221300Z 15006KT 090V200 9999 FEW025 BKN100 31/25 Q1008 NOSIG RMK A2977
RPLL,2025-05-22 14:00,RPLL 221400Z 12007KT 070V160 9999 FEW025 BKN100 31/24 Q1008 NOSIG RMK A2977
RPLL,2025-05-22 15:00,RPLL 221500Z 13008KT 090V190 9999 FEW025 31/24 Q1008 NOSIG RMK A2977
RPLL,2025-05-22 16:00,RPLL 221600Z 12006KT 070V160 9999 FEW025 30/23 Q1008 NOSIG RMK A2977
RPLL,2025-05-22 17:00,RPLL 221700Z 12006KT 090V160 9999 FEW025 30/24 Q1007 NOSIG RMK A2974
RPLL,2025-05-22 18:00,RPLL 221800Z 12005KT 090V160 9999 FEW025 30/23 Q1007 NOSIG RMK A2974
RPLL,2025-05-22 19:00,RPLL 221900Z 12006KT 9999 FEW025 30/23 Q1007 NOSIG RMK A2974
RPLL,2025-05-22 20:00,RPLL 222000Z 13005KT 070V160 9999 FEW025 30/24 Q1007 NOSIG RMK A2974
RPLL,2025-05-22 21:00,RPLL 222100Z 11004KT 080V160 9999 FEW025 29/24 Q1007 NOSIG RMK A2974
RPLL,2025-05-22 22:00,RPLL 222200Z 12006KT 080V150 9999 FEW025 30/24 Q1007 NOSIG RMK A2974
RPLL,2025-05-22 23:00,RPLL 222300Z 11006KT 080V150 9999 FEW025 31/24 Q1008 NOSIG RMK A2977
RPLL,2025-05-23 00:00,RPLL 230000Z 10007KT 060V230 9999 FEW025 31/24 Q1008 NOSIG RMK A2977
RPLL,2025-05-23 01:00,RPLL 230100Z 13007KT 070V170 9999 FEW025 33/24 Q1008 NOSIG RMK A2977
RPLL,2025-05-23 02:00,RPLL 230200Z 12009KT 070V160 9999 FEW025 33/24 Q1008 NOSIG RMK A2977
RPLL,2025-05-23 03:00,RPLL 230300Z VRB08KT 9999 FEW025 34/24 Q1007 NOSIG RMK A2974
RPLL,2025-05-23 04:00,RPLL 230400Z 13008KT 090V180 9999 FEW025 35/23 Q1006 NOSIG RMK A2971
RPLL,2025-05-23 05:00,RPLL 230500Z 13009KT 090V220 9999 FEW025 35/23 Q1006 NOSIG RMK A2971
RPLL,2025-05-23 06:00,RPLL 230600Z 12011KT 080V160 9999 FEW025 36/21 Q1005 NOSIG RMK A2968
RPLL,2025-05-23 07:00,RPLL 230700Z 13009KT 060V180 9999 FEW025 36/21 Q1005 NOSIG RMK A2968
RPLL,2025-05-23 08:00,RPLL 230800Z 12008KT 070V160 9999 FEW025 36/19 Q1004 NOSIG RMK A2965
RPLL,2025-05-23 09:00,RPLL 230900Z 12009KT 070V150 9999 FEW025 35/21 Q1005 NOSIG RMK A2968
RPLL,2025-05-23 10:00,RPLL 231000Z 12008KT 090V160 9999 FEW025 34/21 Q1006 NOSIG RMK A2971
RPLL,2025-05-23 11:00,RPLL 231100Z 11008KT 080V190 9999 FEW025 33/22 Q1007 NOSIG RMK A2974
RPLL,2025-05-23 12:00,RPLL 231200Z 13007KT 080V160 9999 FEW025 32/21 Q1007 NOSIG RMK A2974
RPLL,2025-05-23 13:00,RPLL 231300Z 13005KT 070V160 9999 FEW025 31/22 Q1008 NOSIG RMK A2977
RPLL,2025-05-23 14:00,RPLL 231400Z 14006KT 100V190 9999 FEW025 31/24 Q1009 NOSIG RMK A2980
RPLL,2025-05-23 15:00,RPLL 231500Z 14005KT 080V170 9999 FEW025 30/24 Q1009 NOSIG RMK A2980
RPLL,2025-05-23 16:00,RPLL 231600Z 14003KT 100V170 9999 FEW025 30/24 Q1008 NOSIG RMK A2977
RPLL,2025-05-23 17:00,RPLL 231700Z VRB02KT 9999 FEW025 30/24 Q1008 NOSIG RMK A2977
RPLL,2025-05-23 18:00,RPLL 231800Z VRB02KT 9999 FEW025 30/23 Q1008 NOSIG RMK A2977
RPLL,2025-05-23 19:00,RPLL 231900Z 13003KT 050V180 9999 FEW025 30/23 Q1008 NOSIG RMK A2977
RPLL,2025-05-23 20:00,RPLL 232000Z VRB02KT 9999 FEW025 29/23 Q1008 NOSIG RMK A2977
RPLL,2025-05-23 21:00,RPLL 232100Z 13003KT 090V150 9999 FEW025 29/23 Q1008 NOSIG RMK A2977
RPLL,2025-05-23 22:00,RPLL 232200Z 10003KT 060V130 9999 FEW025 29/24 Q1008 NOSIG RMK A2977
RPLL,2025-05-23 23:00,RPLL 232300Z 10006KT 070V140 9999 FEW025 30/24 Q1009 NOSIG RMK A2980
RPLL,2025-05-24 00:00,RPLL 240000Z 12006KT 090V180 9999 FEW025 32/24 Q1009 NOSIG RMK A2980
RPLL,2025-05-24 01:00,RPLL 240100Z 12007KT 070V160 9999 FEW025 33/24 Q1009 NOSIG RMK A2980
RPLL,2025-05-24 02:00,RPLL 240200Z 13006KT 070V190 9999 FEW025 34/24 Q1009 NOSIG RMK A2980
RPLL,2025-05-24 03:00,RPLL 240300Z 13007KT 070V210 9999 FEW025 35/24 Q1008 NOSIG RMK A2977
RPLL,2025-05-24 04:00,RPLL 240400Z 15009KT 080V200 9999 FEW025 35/24 Q1008 NOSIG RMK A2977
RPLL,2025-05-24 05:00,RPLL 240500Z 13010KT 080V170 9999 FEW025 35/23 Q1007 NOSIG RMK A2974
RPLL,2025-05-24 06:00,RPLL 240600Z 11011KT 090V150 9999 FEW025 35/23 Q1006 NOSIG RMK A2971 FU SE
RPLL,2025-05-24 07:00,RPLL 240700Z 13009KT 090V170 9999 FEW025 36/23 Q1006 NOSIG RMK A2971
RPLL,2025-05-24 08:00,RPLL 240800Z 13010KT 090V170 9999 FEW025 35/24 Q1006 NOSIG RMK A2971
RPLL,2025-05-24 09:00,RPLL 240900Z 13009KT 090V210 9999 SCT025 34/24 Q1006 NOSIG RMK A2971
RPLL,2025-05-24 10:00,RPLL 241000Z 13010KT 090V170 9999 SCT025 33/25 Q1007 NOSIG RMK A2974
RPLL,2025-05-24 11:00,RPLL 241100Z 13007KT 070V180 9999 FEW025 32/25 Q1008 NOSIG RMK A2977
RPLL,2025-05-24 12:00,RPLL 241200Z 13007KT 090V190 9999 FEW025 32/24 Q1009 NOSIG RMK A2980
RPLL,2025-05-24 13:00,RPLL 241300Z 12008KT 090V160 9999 FEW025 31/24 Q1010 NOSIG RMK A2983
RPLL,2025-05-24 14:00,RPLL 241400Z 12008KT 080V160 9999 FEW025 31/24 Q1010 NOSIG RMK A2983
RPLL,2025-05-24 15:00,RPLL 241500Z 11006KT 070V130 9999 FEW025 30/24 Q1011 NOSIG RMK A2985
RPLL,2025-05-24 16:00,RPLL 241600Z 10004KT 040V140 9999 FEW025 30/23 Q1011 NOSIG RMK A2985
RPLL,2025-05-24 17:00,RPLL 241700Z 11004KT 060V150 9999 FEW023CB 30/23 Q1010 NOSIG RMK A2983 CB/OCNL LTG SW-W
RPLL,2025-05-24 18:00,RPLL 241800Z VRB02KT 9999 FEW025 30/23 Q1010 NOSIG RMK A2983
RPLL,2025-05-24 19:00,RPLL 241900Z 08004KT 060V120 9999 FEW025 29/22 Q1009 NOSIG RMK A2980
RPLL,2025-05-24 20:00,RPLL 242000Z 07004KT 040V100 9999 FEW025 28/23 Q1009 NOSIG RMK A2980
RPLL,2025-05-24 21:00,RPLL 242100Z 08004KT 050V110 9999 FEW025 28/23 Q1009 NOSIG RMK A2980
RPLL,2025-05-24 22:00,RPLL 242200Z VRB02KT 9999 FEW025 29/23 Q1010 NOSIG RMK A2983
RPLL,2025-05-24 23:00,RPLL 242300Z 08004KT 050V120 9999 FEW025 SCT100 30/23 Q1010 NOSIG RMK A2983
RPLL,2025-05-25 00:00,RPLL 250000Z 10006KT 060V150 9999 FEW025 32/23 Q1011 NOSIG RMK A2985
RPLL,2025-05-25 01:00,RPLL 250100Z 12006KT 070V190 9999 FEW025 33/24 Q1011 NOSIG RMK A2985
RPLL,2025-05-25 02:00,RPLL 250200Z VRB06KT 9999 FEW025 34/25 Q1011 NOSIG RMK A2985
RPLL,2025-05-25 03:00,RPLL 250300Z 16006KT 050V210 9999 FEW025 34/25 Q1011 NOSIG RMK A2985
RPLL,2025-05-25 04:00,RPLL 250400Z 14006KT 070V220 9999 FEW025 35/24 Q1010 NOSIG RMK A2983
RPLL,2025-05-25 05:00,RPLL 250500Z VRB04KT 9999 FEW025 36/24 Q1009 NOSIG RMK A2980
RPLL,2025-05-25 06:00,RPLL 250600Z 14008KT 090V210 9999 FEW025 36/24 Q1008 NOSIG RMK A2977
RPLL,2025-05-25 07:00,RPLL 250700Z 14010KT 090V180 9999 SCT025 36/24 Q1007 NOSIG RMK A2974
RPLL,2025-05-25 08:00,RPLL 250800Z 14010KT 090V200 9999 SCT025TCU 35/25 Q1008 NOSIG RMK A2977 TCU N-NE
RPLL,2025-05-25 09:00,RPLL 250900Z 13010KT 090V170 9999 SCT025 SCT150 33/24 Q1008 NOSIG RMK A2977
RPLL,2025-05-25 10:00,RPLL 251000Z 14009KT 080V170 9999 FEW025 SCT150 33/24 Q1009 NOSIG RMK A2980
RPLL,2025-05-25 11:00,RPLL 251100Z 12009KT 090V170 9999 FEW025 32/23 Q1009 NOSIG RMK A2980
RPLL,2025-05-25 12:00,RPLL 251200Z 12007KT 070V160 9999 FEW025 32/24 Q1010 NOSIG RMK A2983
RPLL,2025-05-25 13:00,RPLL 251300Z 12008KT 090V150 9999 FEW025 31/25 Q1010 NOSIG RMK A2983
RPLL,2025-05-25 14:00,RPLL 251400Z 12009KT 090V160 9999 FEW025 31/24 Q1011 NOSIG RMK A2985
RPLL,2025-05-25 15:00,RPLL 251500Z 11008KT 080V150 9999 FEW025 31/23 Q1011 NOSIG RMK A2985
RPLL,2025-05-25 16:00,RPLL 251600Z 09008KT 060V120 9999 FEW025 30/23 Q1010 NOSIG RMK A2983
RPLL,2025-05-25 17:00,RPLL 251700Z 10003KT 070V140 9999 FEW025 30/22 Q1010 NOSIG RMK A2983
RPLL,2025-05-25 18:00,RPLL 251800Z 11005KT 070V140 9999 FEW025 30/24 Q1009 NOSIG RMK A2980
RPLL,2025-05-25 19:00,RPLL 251900Z 12005KT 080V160 9999 FEW025 30/24 Q1009 NOSIG RMK A2980
RPLL,2025-05-25 20:00,RPLL 252000Z 11006KT 070V140 9999 FEW025 SCT100 30/24 Q1009 NOSIG RMK A2980
RPLL,2025-05-25 21:00,RPLL 252100Z 10005KT 070V140 9999 FEW025 29/24 Q1009 NOSIG RMK A2980
RPLL,2025-05-25 22:00,RPLL 252200Z 11006KT 070V140 9999 FEW025 30/25 Q1009 NOSIG RMK A2980
RPLL,2025-05-25 23:00,RPLL 252300Z 11006KT 070V160 9999 FEW025 31/25 Q1010 NOSIG RMK A2983
RPLL,2025-05-26 00:00,RPLL 260000Z 10008KT 070V140 9999 FEW025 31/25 Q1010 NOSIG RMK A2983
RPLL,2025-05-26 01:00,RPLL 260100Z 09008KT 060V130 9999 FEW025 33/25 Q1010 NOSIG RMK A2983
RPLL,2025-05-26 02:00,RPLL 260200Z 11008KT 050V170 9999 FEW025 SCT100 33/25 Q1011 NOSIG RMK A2985
RPLL,2025-05-26 03:00,RPLL 260300Z 08012KT 050V170 9999 FEW025 33/24 Q1010 NOSIG RMK A2983
RPLL,2025-05-26 04:00,RPLL 260400Z 12007KT 080V150 9999 FEW025 35/25 Q1010 NOSIG RMK A2983
RPLL,2025-05-26 05:00,RPLL 260500Z 12009KT 090V170 9999 FEW025 35/24 Q1009 NOSIG RMK A2980
RPLL,2025-05-26 06:00,RPLL 260600Z 11008KT 070V160 9999 FEW025 36/24 Q1008 NOSIG RMK A2977
RPLL,2025-05-26 07:00,RPLL 260700Z 12010KT 080V150 9999 SCT025 35/22 Q1008 NOSIG RMK A2977
RPLL,2025-05-26 08:00,RPLL 260800Z 12010KT 090V160 9999 FEW025 34/23 Q1008 NOSIG RMK A2977
RPLL,2025-05-26 09:00,RPLL 260900Z 12009KT 080V200 9999 FEW025 34/24 Q1008 NOSIG RMK A2977
RPLL,2025-05-26 10:00,RPLL 261000Z 12008KT 080V160 9999 FEW025 SCT100 33/24 Q1008 NOSIG RMK A2977
RPLL,2025-05-26 11:00,RPLL 261100Z 11008KT 070V150 9999 FEW025 SCT100 32/24 Q1009 NOSIG RMK A2980
RPLL,2025-05-26 12:00,RPLL 261200Z 12007KT 080V160 9999 FEW025 SCT100 31/24 Q1010 NOSIG RMK A2983
RPLL,2025-05-26 13:00,RPLL 261300Z 10005KT 070V130 9999 FEW025 SCT100 31/24 Q1011 NOSIG RMK A2985
RPLL,2025-05-26 14:00,RPLL 261400Z 11006KT 070V150 9999 FEW025 SCT100 31/23 Q1011 NOSIG RMK A2985
RPLL,2025-05-26 15:00,RPLL 261500Z 10006KT 060V130 9999 FEW023CB SCT100 31/24 Q1011 NOSIG RMK A2985 CB/OCNL LTG S
RPLL,2025-05-26 16:00,RPLL 261600Z 10004KT 050V140 9999 FEW025 31/23 Q1011 NOSIG RMK A2985
RPLL,2025-05-26 17:00,RPLL 261700Z 11007KT 080V140 9999 FEW025 SCT100 30/23 Q1010 NOSIG RMK A2983
RPLL,2025-05-26 18:00,RPLL 261800Z 10006KT 060V130 9999 FEW025 SCT100 30/23 Q1009 NOSIG RMK A2980
RPLL,2025-05-26 19:00,RPLL 261900Z 10007KT 060V130 9999 FEW025 SCT100 30/23 Q1009 NOSIG RMK A2980
RPLL,2025-05-26 20:00,RPLL 262000Z 12004KT 090V160 9999 FEW025 29/23 Q1009 NOSIG RMK A2980
RPLL,2025-05-26 21:00,RPLL 262100Z 11006KT 080V150 9999 FEW025 SCT100 29/24 Q1009 NOSIG RMK A2980
RPLL,2025-05-26 22:00,RPLL 262200Z 11006KT 080V140 9999 FEW025 30/24 Q1009 NOSIG RMK A2980
RPLL,2025-05-26 23:00,RPLL 262300Z 10008KT 070V130 9999 FEW025 31/24 Q1010 NOSIG RMK A2983
RPLL,2025-05-27 00:00,RPLL 270000Z 10008KT 060V130 9999 FEW025 31/24 Q1010 NOSIG RMK A2983
RPLL,2025-05-27 01:00,RPLL 270100Z 09010KT 060V140 9999 FEW025 31/24 Q1010 NOSIG RMK A2983
RPLL,2025-05-27 02:00,RPLL 270200Z 10010KT 070V140 9999 FEW025 33/24 Q1010 NOSIG RMK A2983
RPLL,2025-05-27 03:00,RPLL 270300Z 10010KT 060V130 9999 FEW025 33/25 Q1010 NOSIG RMK A2983
RPLL,2025-05-27 04:00,RPLL 270400Z 12009KT 070V190 9999 FEW025 34/24 Q1009 NOSIG RMK A2980
RPLL,2025-05-27 05:00,RPLL 270500Z 11010KT 060V170 9999 FEW025 35/24 Q1009 NOSIG RMK A2980
RPLL,2025-05-27 06:00,RPLL 270600Z 12010KT 080V180 9999 FEW025 34/24 Q1008 NOSIG RMK A2977
RPLL,2025-05-27 07:00,RPLL 270700Z 11010KT 060V150 9999 FEW025 BKN100 34/24 Q1008 NOSIG RMK A2977
RPLL,2025-05-27 08:00,RPLL 270800Z 11009KT 070V140 9999 FEW025 34/24 Q1007 NOSIG RMK A2974
RPLL,2025-05-27 09:00,RPLL 270900Z 12008KT 080V160 9999 FEW025 33/24 Q1008 NOSIG RMK A2977
RPLL,2025-05-27 10:00,RPLL 271000Z 11007KT 080V150 9999 FEW025 32/24 Q1008 NOSIG RMK A2977
RPLL,2025-05-27 11:00,RPLL 271100Z 10007KT 070V130 9999 SCT025 32/23 Q1009 NOSIG RMK A2980 DSNT LTG E
RPLL,2025-05-27 12:00,RPLL 271200Z 12005KT 080V180 9999 FEW025 31/24 Q1010 NOSIG RMK A2983 DSNT LTG W
RPLL,2025-05-27 13:00,RPLL 271300Z 12006KT 090V150 9999 FEW025 31/25 Q1010 NOSIG RMK A2983 DISTNT LTG W
RPLL,2025-05-27 14:00,RPLL 271400Z 12003KT 080V180 9999 FEW025 30/25 Q1010 NOSIG RMK A2983 DISTNT LTG W
RPLL,2025-05-27 15:00,RPLL 271500Z 14003KT 090V180 9999 FEW025 31/25 Q1010 NOSIG RMK A2983 DISTNT LTG SE
RPLL,2025-05-27 16:00,RPLL 271600Z 12005KT 080V170 9999 FEW025 30/24 Q1010 NOSIG RMK A2983
RPLL,2025-05-27 17:00,RPLL 271700Z 12006KT 080V160 9999 FEW025 SCT100 30/25 Q1010 NOSIG RMK A2983 DISTNT LTG E
RPLL,2025-05-27 18:00,RPLL 271800Z 14006KT 090V230 9999 FEW025 BKN100 29/26 Q1010 NOSIG RMK A2983
RPLL,2025-05-27 19:00,RPLL 271900Z 15005KT 090V200 9000 -RA SCT023 OVC090 26/25 Q1010 NOSIG RMK A2983
RPLL,2025-05-27 20:00,RPLL 272000Z VRB01KT 9999 FEW025 BKN100 26/25 Q1009 NOSIG RMK A2980
RPLL,2025-05-27 21:00,RPLL 272100Z 12004KT 080V180 9999 FEW025 BKN100 27/25 Q1009 NOSIG RMK A2980
RPLL,2025-05-27 22:00,RPLL 272200Z 15003KT 100V190 9999 FEW025 SCT100 27/25 Q1010 NOSIG RMK A2983
RPLL,2025-05-27 23:00,RPLL 272300Z VRB02KT 9999 FEW025 SCT100 28/26 Q1010 NOSIG RMK A2983
RPLL,2025-05-28 00:00,RPLL 280000Z 15003KT 080V210 9999 FEW025 BKN100 29/26 Q1011 NOSIG RMK A2985
RPLL,2025-05-28 01:00,RPLL 280100Z 11004KT 020V170 9999 FEW025 BKN100 30/26 Q1011 NOSIG RMK A2985
RPLL,2025-05-28 02:00,RPLL 280200Z 11007KT 040V140 9999 FEW025 BKN100 31/25 Q1011 NOSIG RMK A2985
RPLL,2025-05-28 03:00,RPLL 280300Z VRB07KT 9999 FEW025 BKN100 32/26 Q1010 NOSIG RMK A2983
RPLL,2025-05-28 04:00,RPLL 280400Z 12008KT 060V230 9999 FEW025 BKN100 32/25 Q1010 NOSIG RMK A2983
RPLL,2025-05-28 05:00,RPLL 280500Z 12007KT 070V160 9999 FEW025 SCT100 33/25 Q1008 NOSIG RMK A2977
RPLL,2025-05-28 06:00,RPLL 280600Z 13009KT 080V180 9999 FEW025 SCT100 33/24 Q1008 NOSIG RMK A2977
RPLL,2025-05-28 07:00,RPLL 280700Z 13008KT 080V190 9999 FEW025 32/24 Q1007 NOSIG RMK A2974
RPLL,2025-05-28 08:00,RPLL 280800Z 13006KT 070V210 9999 FEW025 32/25 Q1007 NOSIG RMK A2974
RPLL,2025-05-28 09:00,RPLL 280900Z 14007KT 090V180 9999 FEW025 SCT100 32/25 Q1007 NOSIG RMK A2974
RPLL,2025-05-28 10:00,RPLL 281000Z 12007KT 090V160 9999 FEW025 31/25 Q1009 NOSIG RMK A2977
RPLL,2025-05-28 11:00,RPLL 281100Z 12007KT 080V160 9999 FEW023CB SCT100 31/25 Q1009 NOSIG RMK A2980 CB/OCNL LTG W
RPLL,2025-05-28 12:00,RPLL 281200Z 13005KT 090V160 9999 FEW023CB SCT100 30/25 Q1010 NOSIG RMK A2983 CB/OCNL LTG NW
RPLL,2025-05-28 13:00,RPLL 281300Z 13003KT 090V180 9999 FEW025 SCT100 30/25 Q1011 NOSIG RMK A2985
RPLL,2025-05-28 14:00,RPLL 281400Z 16003KT 120V200 9999 FEW025 SCT150 30/25 Q1011 NOSIG RMK A2985
RPLL,2025-05-28 15:00,RPLL 281500Z VRB03KT 9999 FEW025 BKN100 30/26 Q1011 NOSIG RMK A2985
RPLL,2025-05-28 16:00,RPLL 281600Z 15005KT 090V180 9999 FEW025 BKN100 30/25 Q1011 NOSIG RMK A2985
RPLL,2025-05-28 17:00,RPLL 281700Z VRB02KT 9999 FEW025 BKN100 29/26 Q1011 NOSIG RMK A2985
RPLL,2025-05-28 18:00,RPLL 281800Z VRB02KT 9999 FEW025 BKN150 29/25 Q1010 NOSIG RMK A2983
RPLL,2025-05-28 19:00,RPLL 281900Z VRB02KT 9999 FEW025 29/25 Q1010 NOSIG RMK A2983
RPLL,2025-05-28 20:00,RPLL 282000Z VRB01KT 9999 FEW025 29/24 Q1010 NOSIG RMK A2983
RPLL,2025-05-28 21:00,RPLL 282100Z VRB02KT 9999 FEW025 SCT130 28/25 Q1010 NOSIG RMK A2983
RPLL,2025-05-28 22:00,RPLL 282200Z VRB02KT 9999 FEW025 SCT130 28/25 Q1010 NOSIG RMK A2983
RPLL,2025-05-28 23:00,RPLL 282300Z VRB02KT 9999 FEW025 SCT100 29/26 Q1011 NOSIG RMK A2985
RPLL,2025-05-29 00:00,RPLL 290000Z 27003KT 210V330 9999 FEW025 SCT100 30/25 Q1011 NOSIG RMK A2985
RPLL,2025-05-29 01:00,RPLL 290100Z 28005KT 220V330 9999 FEW025 SCT100 31/25 Q1012 NOSIG RMK A2988
RPLL,2025-05-29 02:00,RPLL 290200Z 28007KT 240V310 9999 FEW025 31/24 Q1012 NOSIG RMK A2988
RPLL,2025-05-29 03:00,RPLL 290300Z 28007KT 250V310 9999 FEW025 32/25 Q1012 NOSIG RMK A2988
RPLL,2025-05-29 04:00,RPLL 290400Z 26005KT 210V300 9999 FEW023CB BKN100 31/25 Q1012 NOSIG RMK A2988 CB S
RPLL,2025-05-29 04:34,RPLL 290434Z 18004KT 150V230 9999 -SHRA SCT023 BKN100 29/24 Q1011 NOSIG RMK A2985
RPLL,2025-05-29 05:00,RPLL 290500Z 27004KT 210V330 9999 -SHRA SCT023 BKN100 30/25 Q1010 NOSIG RMK A2983
RPLL,2025-05-29 06:00,RPLL 290600Z 26004KT 180V320 9999 FEW025 BKN100 32/25 Q1009 NOSIG RMK A2980
RPLL,2025-05-29 07:00,RPLL 290700Z 29009KT 9999 FEW025 BKN100 30/25 Q1009 NOSIG RMK A2980
RPLL,2025-05-29 08:00,RPLL 290800Z 28006KT 260V330 9999 FEW025 BKN100 31/27 Q1009 NOSIG RMK A2980
RPLL,2025-05-29 09:00,RPLL 290900Z 26007KT 220V310 9999 FEW025 BKN100 32/24 Q1009 NOSIG RMK A2980
RPLL,2025-05-29 10:00,RPLL 291000Z 27007KT 9999 FEW025 BKN100 30/24 Q1009 NOSIG RMK A2980
RPLL,2025-05-29 11:00,RPLL 291100Z 25007KT 9999 FEW025 BKN100 29/25 Q1010 NOSIG RMK A2983
RPLL,2025-05-29 12:00,RPLL 291200Z 26010KT 9999 FEW025 BKN100 29/26 Q1011 NOSIG RMK A2985
RPLL,2025-05-29 13:00,RPLL 291300Z 26007KT 9999 FEW025 BKN150 29/25 Q1011 NOSIG RMK A2985
RPLL,2025-05-29 14:00,RPLL 291400Z 26007KT 9999 FEW025 SCT100 29/26 Q1011 NOSIG RMK A2985
RPLL,2025-05-29 15:00,RPLL 291500Z 26005KT 9999 FEW025 29/25 Q1011 NOSIG RMK A2985
RPLL,2025-05-29 16:00,RPLL 291600Z VRB02KT 9999 FEW025 BKN150 29/25 Q1010 NOSIG RMK A2983
RPLL,2025-05-29 17:00,RPLL 291700Z VRB02KT 9999 FEW025 BKN130 29/25 Q1010 NOSIG RMK A2983
RPLL,2025-05-29 18:00,RPLL 291800Z VRB02KT 9999 FEW025 BKN100 29/26 Q1009 NOSIG RMK A980
RPLL,2025-05-29 19:00,RPLL 291900Z VRB01KT 9999 FEW025 BKN100 29/26 Q1009 NOSIG RMK A2980
RPLL,2025-05-29 20:00,RPLL 292000Z VRB01KT 9999 FEW025 BKN100 29/25 Q1010 NOSIG RMK A2983
RPLL,2025-05-29 21:00,RPLL 292100Z VRB02KT 9999 FEW025 BKN100 29/25 Q1010 NOSIG RMK A2983
RPLL,2025-05-29 22:00,RPLL 292200Z 24003KT 200V260 9999 FEW025 BKN100 28/24 Q1011 NOSIG RMK A2985
RPLL,2025-05-29 23:00,RPLL 292300Z VRB02KT 9999 FEW025 BKN090 29/24 Q1011 NOSIG RMK A2985
RPLL,2025-05-30 00:00,RPLL 300000Z VRB02KT 9999 FEW025 BKN090 30/25 Q1011 NOSIG RMK A2985
RPLL,2025-05-30 01:00,RPLL 300100Z 23004KT 190V280 9999 FEW025 BKN100 31/24 Q1011 NOSIG RMK A2985
RPLL,2025-05-30 02:00,RPLL 300200Z 28005KT 230V320 9999 FEW025 BKN100 31/25 Q1011 NOSIG RMK A2985
RPLL,2025-05-30 03:00,RPLL 300300Z 28006KT 9999 FEW025 BKN100 32/26 Q1011 NOSIG RMK A2985
RPLL,2025-05-30 04:00,RPLL 300400Z 29009KT 260V320 9999 FEW025 BKN100 32/26 Q1011 NOSIG RMK A2985
RPLL,2025-05-30 05:00,RPLL 300500Z 29011KT 9999 FEW025 BKN100 32/26 Q1010 NOSIG RMK A2983
RPLL,2025-05-30 06:00,RPLL 300600Z 27015KT 9999 FEW025 BKN100 32/26 Q1010 NOSIG RMK A2983
RPLL,2025-05-30 07:00,RPLL 300700Z 27012KT 9999 FEW025 BKN100 31/26 Q1009 NOSIG RMK A2980
RPLL,2025-05-30 08:00,RPLL 300800Z 27010KT 9999 FEW025 BKN100 31/25 Q1010 NOSIG RMK A2983
RPLL,2025-05-30 09:00,RPLL 300900Z 26019KT 9000 -SHRA SCT022 OVC080 27/26 Q1011 TEMPO 6000 SHRA RMK A2985
RPLL,2025-05-30 10:00,RPLL 301000Z 28010KT 9000 -RA SCT022 OVC080 26/25 Q1012 NOSIG RMK A2988
RPLL,2025-05-30 11:00,RPLL 301100Z 31005KT 270V330 9000 -RA SCT023 OVC080 26/25 Q1012 NOSIG RMK A2988
RPLL,2025-05-30 12:00,RPLL 301200Z VRB04G16KT 9999 -RA FEW023 OVC100 27/24 Q1012 NOSIG RMK A2988
RPLL,2025-05-30 13:00,RPLL 301300Z 29005KT 180V320 9999 FEW023 OVC100 28/24 Q1012 NOSIG RMK A2988
RPLL,2025-05-30 14:00,RPLL 301400Z VRB02KT 9999 FEW023 OVC100 27/25 Q1012 NOSIG RMK A2988
RPLL,2025-05-30 15:00,RPLL 301500Z VRB02KT 9999 FEW023 OVC100 28/25 Q1012 NOSIG RMK A2988
RPLL,2025-05-30 16:00,RPLL 301600Z VRB02KT 9999 -SHRA FEW023 OVC100 27/26 Q1012 NOSIG RMK A2988
RPLL,2025-05-30 17:00,RPLL 301700Z VRB02KT 9999 -RA FEW023 OVC090 27/25 Q1012 NOISG RMK A2988
RPLL,2025-05-30 18:00,RPLL 301800Z VRB02KT 9999 -RA FEW023 OVC100 27/24 Q1011 NOSIG RMK A2985
RPLL,2025-05-30 19:00,RPLL 301900Z VRB01KT 9999 FEW023 OVC100 27/24 Q1011 NOSIG RMK A2985
RPLL,2025-05-30 20:00,RPLL 302000Z VRB01KT 9999 -RA FEW023 OVC100 27/25 Q1011 NOSIG RMK A2985
RPLL,2025-05-30 21:00,RPLL 302100Z VRB01KT 9999 -RA FEW023 BKN100 27/25 Q1010 NOSIG RMK A2983
RPLL,2025-05-30 22:00,RPLL 302200Z VRB02KT 9999 FEW025 BKN100 27/25 Q1010 NOSIG RMK A2983
RPLL,2025-05-30 23:00,RPLL 302300Z 12004KT 070V160 9999 FEW025 BKN100 28/25 Q1010 NOSIG RMK A2983
RPLL,2025-05-31 00:00,RPLL 310000Z 12003KT 080V190 9999 FEW025 BKN100 29/26 Q1011 NOSIG RMK A2985
RPLL,2025-05-31 01:00,RPLL 310100Z 27006KT 230V300 9999 FEW025 BKN100 30/25 Q1011 NOSIG RMK A2985
RPLL,2025-05-31 02:00,RPLL 310200Z 28007KT 9999 FEW025 BKN100 30/26 Q1011 NOSIG RMK A2985
RPLL,2025-05-31 03:00,RPLL 310300Z 27007KT 230V310 9999 FEW025 BKN100 30/26 Q1011 NOSIG RMK A2985
RPLL,2025-05-31 04:00,RPLL 310400Z 29008KT 250V320 9999 FEW025 BKN100 32/26 Q1010 NOSIG RMK A2983
RPLL,2025-05-31 05:00,RPLL 310500Z 30009KT 230V330 9999 FEW025 BKN100 32/26 Q1010 NOSIG RMK A2983
RPLL,2025-05-31 06:00,RPLL 310600Z 30009KT 9999 FEW025 BKN100 32/26 Q1009 NOSIG RMK A2980
RPLL,2025-05-31 07:00,RPLL 310700Z 27013KT 9999 SCT025 BKN100 32/26 Q1009 NOSIG RMK A2980
RPLL,2025-05-31 08:00,RPLL 310800Z 26015KT 9999 SCT025 BKN100 31/26 Q1008 NOSIG RMK A2977
RPLL,2025-05-31 09:00,RPLL 310900Z 27011KT 9999 SCT025 BKN100 30/26 Q1009 NOSIG RMK A2980
RPLL,2025-05-31 10:00,RPLL 311000Z 27010KT 9999 FEW025 BKN100 30/27 Q1010 NOSIG RMK A2983
RPLL,2025-05-31 10:14,COR RPLL 311014Z 27023KT 7000 -RA FEW020CB BKN022 OVC090 26/25 Q1011 TEMPO 4000 TSRA RMK A2985 CB SE
RPLL,2025-05-31 10:35,RPLL 311035Z 27021KT 5000 +RA BKN020 OVC080 25/25 Q1011 TEMPO 3000 RMK A2985
RPLL,2025-05-31 11:00,RPLL 311100Z 23012KT 210V270 5000 RA BKN020 OVC080 25/24 Q1012 RERA TEMPO 7000 -RA RMK A2988
RPLL,2025-05-31 12:00,RPLL 311200Z 27005KT 240V300 9000 -RA SCT023 OVC090 25/25 Q1012 RERA NOSIG RMK A2988
RPLL,2025-05-31 13:00,RPLL 311300Z VRB01KT 9999 FEW023 OVC100 26/25 Q1012 NOSIG RMK A2988
RPLL,2025-05-31 14:00,RPLL 311400Z 02003KT 320V080 9999 FEW023 OVC100 27/25 Q1011 NOSIG RMK A2985
RPLL,2025-05-31 15:00,RPLL 311500Z VRB02KT 9999 FEW023 OVC100 26/26 Q1011 NOSIG RMK A2985
RPLL,2025-05-31 16:00,RPLL 311600Z 16003KT 130V200 9999 -SHRA FEW023 OVC090 26/26 Q1011 NOSIG RMK A2985
RPLL,2025-05-31 17:00,RPLL 311700Z VRB02KT 9999 -RA FEW023 OVC090 27/26 Q1011 NOSIG RMK A2985
RPLL,2025-05-31 18:00,RPLL 311800Z 09002KT 9999 FEW023 OVC100 27/25 Q1010 NOSIG RMK A2983
RPLL,2025-05-31 19:00,RPLL 311900Z VRB02KT 9999 FEW025 OVC100 27/26 Q1010 NOSIG RMK A2983
RPLL,2025-05-31 20:00,RPLL 312000Z 16003KT 130V190 9999 FEW025 OVC100 27/26 Q1010 NOSIG RMK A2983
RPLL,2025-05-31 21:00,RPLL 312100Z VRB02KT 9999 FEW025 OVC100 27/26 Q1010 NOSIG RMK A2983
RPLL,2025-05-31 22:00,RPLL 312200Z VRB02KT 9999 FEW025 BKN100 27/26 Q1010 NOSIG RMK A2983
RPLL,2025-05-31 23:00,RPLL 312300Z VRB03KT 9999 FEW025 BKN100 28/26 Q1010 NOSIG RMK A2983
RPLL,2025-06-01 00:00,RPLL 010000Z VRB02KT 9999 FEW025 BKN100 29/26 Q1011 NOSIG RMK A2985
RPLL,2025-06-01 01:00,RPLL 010100Z VRB03KT 9999 FEW025 BKN100 30/25 Q1011 NOSIG RMK A2985
RPLL,2025-06-01 02:00,RPLL 010200Z 25010KT 9999 FEW025 BKN100 30/25 Q1011 NOSIG RMK A2985
RPLL,2025-06-01 03:00,RPLL 010300Z 28005KT 250V310 9999 FEW025 BKN100 31/26 Q1010 NOSIG RMK A2983
RPLL,2025-06-01 04:00,RPLL 010400Z 23008KT 180V270 9999 FEW025 BKN100 33/25 Q1010 NOSIG RMK A2983
RPLL,2025-06-01 05:00,RPLL 010500Z 27012KT 9999 FEW025 BKN100 32/26 Q1009 NOSIG RMK A2980
RPLL,2025-06-01 06:00,RPLL 010600Z 27010KT 240V300 9999 FEW025 BKN100 32/25 Q1009 NOSIG RMK A2980
RPLL,2025-06-01 07:00,RPLL 010700Z 29010KT 9999 FEW025 BKN100 31/27 Q1008 NOSIG RMK A2977
RPLL,2025-06-01 08:00,RPLL 010800Z 28013KT 9999 FEW025 BKN100 32/26 Q1008 NOSIG RMK A2977
RPLL,2025-06-01 09:00,RPLL 010900Z 26013KT 9999 FEW025 33/24 Q1008 NOSIG RMK A2977
RPLL,2025-06-01 10:00,RPLL 011000Z 24008KT 9999 FEW025 32/24 Q1008 NOSIG RMK A2977
RPLL,2025-06-01 11:00,RPLL 011100Z 24007KT 210V270 9999 FEW025 SCT100 31/25 Q1009 NOSIG RMK A2980
RPLL,2025-06-01 12:00,RPLL 011200Z 23007KT 190V250 9999 FEW025 BKN100 30/25 Q1010 NOSIG RMK A2983
RPLL,2025-06-01 13:00,RPLL 011300Z 21005KT 150V240 9999 FEW025 BKN100 30/25 Q1010 NOSIG RMK A2983
RPLL,2025-06-01 14:00,RPLL 011400Z 23006KT 9999 FEW025 BKN100 30/25 Q1010 NOSIG RMK A2983
RPLL,2025-06-01 15:00,RPLL 011500Z 23005KT 9999 FEW025 BKN100 30/25 Q1010 NOSIG RMK A2983
RPLL,2025-06-01 16:00,RPLL 011600Z 23005KT 9999 FEW025 BKN100 29/26 Q1010 NOSIG RMK A2983
RPLL,2025-06-01 17:00,RPLL 011700Z 23007KT 190V250 9999 FEW025 BKN100 29/26 Q1009 NOSIG RMK A2980
RPLL,2025-06-01 18:00,RPLL 011800Z 23006KT 9999 FEW025 29/26 Q1008 NOSIG RMK A2977
RPLL,2025-06-01 19:00,RPLL 011900Z 26004KT 9999 FEW025 SCT130 28/26 Q1008 NOSIG RMK A2977
RPLL,2025-06-01 20:00,RPLL 012000Z 23003KT 200V260 9999 FEW025 28/27 Q1008 NOSIG RMK A2977
RPLL,2025-06-01 21:00,RPLL 012100Z VRB02KT 9999 FEW025 28/26 Q1008 NOSIG RMK A2977
RPLL,2025-06-01 22:00,RPLL 012200Z VRB01KT 9999 VCSH SCT023 SCT100 28/26 Q1009 NOSIG RMK A2980 VCSH NW-N
RPLL,2025-06-01 23:00,RPLL 012300Z 19003KT 120V250 9999 FEW025 SCT100 30/26 Q1009 NOSIG RMK A2980
RPLL,2025-06-02 00:00,RPLL 020000Z 23008KT 190V260 9999 FEW025 31/25 Q1009 NOSIG RMK A2980
RPLL,2025-06-02 01:00,RPLL 020100Z 21009KT 170V260 9999 FEW025 32/25 Q1009 NOSIG RMK A2980
RPLL,2025-06-02 02:00,RPLL 020200Z 23009KT 190V250 9999 SCT025 33/24 Q1009 NOSIG RMK A2980
RPLL,2025-06-02 03:00,RPLL 020300Z 26012KT 9999 FEW025 SCT100 32/26 Q1008 NOSIG RMK A2977
RPLL,2025-06-02 04:00,RPLL 020400Z 27019KT 9999 FEW025 BKN100 31/27 Q1008 NOSIG RMK A2977
RPLL,2025-06-02 05:00,RPLL 020500Z 27015KT 9999 FEW025 BKN100 32/25 Q1007 NOSIG RMK A2974
RPLL,2025-06-02 06:00,RPLL 020600Z 26014KT 9999 FEW025 BKN100 32/24 Q1007 NOSIG RMK A2974
RPLL,2025-06-02 07:00,RPLL 020700Z 26022KT 9999 FEW025 BKN100 30/26 Q1007 NOSIG RMK A2974
RPLL,2025-06-02 08:00,RPLL 020800Z 27012KT 9999 FEW025 SCT100 31/26 Q1007 NOSIG RMK A2974
RPLL,2025-06-02 09:00,RPLL 020900Z 25012KT 9999 FEW025 BKN100 32/24 Q1007 NOSIG RMK A2974
RPLL,2025-06-02 10:00,RPLL 021000Z 27017KT 9999 VCSH FEW025 BKN100 28/26 Q1008 NOSIG RMK A2977 VCSH N
RPLL,2025-06-02 11:00,RPLL 021100Z 27007KT 9999 FEW025 SCT100 28/26 Q1008 NOSIG RMK A2977
RPLL,2025-06-02 12:00,RPLL 021200Z 28014KT 8000 -SHRA SCT023 OVC090 27/26 Q1009 NOSIG RMK A2980
RPLL,2025-06-02 13:00,RPLL 021300Z 27012KT 8000 -RA SCT023 OVC090 27/27 Q1010 NOSIG RMK A2983
RPLL,2025-06-02 14:00,RPLL 021400Z VRB03KT 9999 SCT023 27/26 Q1010 NOSIG RMK A2983
RPLL,2025-06-02 15:00,RPLL 021500Z VRB02KT 9999 BKN022 OVC090 28/27 Q1010 NOSIG RMK A2983
RPLL,2025-06-02 16:00,RPLL 021600Z VRB02KT 9999 FEW023 27/26 Q1009 NOSIG RMK A2980
RPLL,2025-06-02 17:00,RPLL 021700Z 12003KT 070V180 9999 FEW023 BKN100 27/26 Q1008 NOSIG RMK A2977
RPLL,2025-06-02 18:00,RPLL 021800Z VRB02KT 9999 SCT023 OVC100 27/26 Q1008 NOSIG RMK A2977
RPLL,2025-06-02 18:12,RPLL 021812Z 02003KT 320V060 8000 -SHRA FEW023 OVC090 27/26 Q1008 NOSIG RMK A2977
RPLL,2025-06-02 19:00,RPLL 021900Z VRB02KT 9999 SCT023 BKN090 27/26 Q1008 NOSIG RMK A2977
RPLL,2025-06-02 20:00,RPLL 022000Z VRB02KT 9999 FEW025 28/26 Q1007 NOSIG RMK A2974
RPLL,2025-06-02 21:00,RPLL 022100Z VRB01KT 9999 FEW025 SCT100 28/26 Q1007 NOSIG RMK A2974
RPLL,2025-06-02 22:00,RPLL 022200Z VRB01KT 9999 FEW025 SCT100 28/26 Q1007 NOSIG RMK A2974
RPLL,2025-06-02 23:00,RPLL 022300Z VRB03KT 9999 FEW025 SCT100 29/26 Q1008 NOSIG RMK A2977
RPLL,2025-06-03 00:00,RPLL 030000Z 23009KT 190V260 9999 FEW025 31/25 Q1008 NOSIG RMK A2977
RPLL,2025-06-03 01:00,RPLL 030100Z 23010KT 9999 FEW025 32/25 Q1009 NOSIG RMK A2980
RPLL,2025-06-03 02:00,RPLL 030200Z 28011KT 9999 FEW025 32/27 Q1008 NOSIG RMK A2977
RPLL,2025-06-03 03:00,RPLL 030300Z 27012KT 9999 FEW025 32/26 Q1008 NOSIG RMK A2977
RPLL,2025-06-03 04:00,RPLL 030400Z 27013KT 9999 FEW025 33/27 Q1007 NOSIG RMK A2974
RPLL,2025-06-03 05:00,RPLL 030500Z 27016KT 9999 FEW025 33/26 Q1007 NOSIG RMK A2974
RPLL,2025-06-03 06:00,RPLL 030600Z 27016KT 9999 FEW025 33/27 Q1006 NOSIG RMK A2971
RPLL,2025-06-03 07:00,RPLL 030700Z 26017KT 9999 FEW025 33/27 Q1006 NOSIG RMK A2971
RPLL,2025-06-03 08:00,RPLL 030800Z 26015KT 9999 FEW025 32/26 Q1006 NOSIG RMK A2971
RPLL,2025-06-03 09:00,RPLL 030900Z 26017KT 9999 FEW025 SCT100 31/26 Q1007 NOSIG RMK A2974
RPLL,2025-06-03 10:00,RPLL 031000Z 26013KT 9999 FEW025 30/27 Q1007 NOSIG RMK A2974
RPLL,2025-06-03 11:00,RPLL 031100Z 26009KT 230V300 9999 FEW023CB SCT025 BKN100 30/27 Q1008 NOSIG RMK A2977 CB SW-W
RPLL,2025-06-03 12:00,RPLL 031200Z 22007KT 180V240 9999 FEW025 SCT100 30/26 Q1008 NOSIG RMK A2977
RPLL,2025-06-03 13:00,RPLL 031300Z 22006KT 170V250 9999 SCT025 BKN100 29/26 Q1009 NOSIG RMK A2980
RPLL,2025-06-03 14:00,RPLL 031400Z 27005KT 240V300 9000 -RA SCT025 BKN100 29/27 Q1010 NOSIG RMK A2983
RPLL,2025-06-03 15:00,RPLL 031500Z 24003KT 200V260 9999 FEW025 SCT100 29/26 Q1010 NOSIG RMK A2983
RPLL,2025-06-03 16:00,RPLL 031600Z 19004KT 160V230 9000 FEW025 29/27 Q1010 NOSIG RMK A2983
RPLL,2025-06-03 17:00,RPLL 031700Z 21003KT 150V260 9999 FEW025 29/27 Q1009 NOSIG RMK A2980
RPLL,2025-06-03 18:00,RPLL 031800Z 22003KT 160V250 9999 FEW025 29/27 Q1008 NOSIG RMK A2977
RPLL,2025-06-03 19:00,RPLL 031900Z VRB02KT 9999 FEW025 29/27 Q1008 NOSIG RMK A2977
RPLL,2025-06-03 20:00,RPLL 032000Z VRB02KT 9999 FEW025 29/27 Q1008 NOSIG RMK A2977
RPLL,2025-06-03 21:00,RPLL 032100Z VRB02KT 9999 FEW025 28/27 Q1008 NOSIG RMK A2977
RPLL,2025-06-03 22:00,RPLL 032200Z VRB02KT 9999 FEW025 SCT100 29/27 Q1008 NOSIG RMK A2977
RPLL,2025-06-03 23:00,RPLL 032300Z 16003KT 110V200 9999 FEW025 30/27 Q1008 NOSIG RMK A2977
RPLL,2025-06-04 00:00,RPLL 040000Z 20005KT 170V250 9999 FEW025 31/26 Q1009 NOSIG RMK A2980
RPLL,2025-06-04 01:00,RPLL 040100Z 23006KT 180V260 9999 FEW025 32/25 Q1009 NOSIG RMK A2980
RPLL,2025-06-04 02:00,RPLL 040200Z 29008KT 210V320 9999 FEW025 32/27 Q1009 NOSIG RMK A2980
RPLL,2025-06-04 03:00,RPLL 040300Z 29008KT 9999 FEW025 32/27 Q1009 NOSIG RMK A2980
RPLL,2025-06-04 04:00,RPLL 040400Z 29012KT 250V320 9999 FEW025 34/27 Q1008 NOSIG RMK A2977
RPLL,2025-06-04 05:00,RPLL 040500Z 27015KT 9999 FEW025 33/27 Q1008 NOSIG RMK A2977
RPLL,2025-06-04 06:00,RPLL 040600Z 26019KT 9999 FEW025 33/27 Q1007 NOSIG RMK A2974
RPLL,2025-06-04 07:00,RPLL 040700Z 27019KT 9999 FEW025 32/28 Q1007 NOSIG RMK A2974 TCU SE
RPLL,2025-06-04 08:00,RPLL 040800Z 27016KT 9999 FEW023CB SCT100 31/27 Q1007 TEMPO 5000 TSRA RMK A2974 CB SE/S
RPLL,2025-06-04 09:00,RPLL 040900Z 26013KT 9999 FEW023CB SCT025 BKN100 31/26 Q1008 NOSIG RMK A2977 CB E-SE
RPLL,2025-06-04 10:00,RPLL 041000Z 26010KT 9999 -RA FEW023 BKN100 31/26 Q1009 NOSIG RMK A2980
RPLL,2025-06-04 11:00,RPLL 041100Z 23006KT 200V270 9999 FEW023 SCT100 31/27 Q1009 NOSIG RMK A2980
RPLL,2025-06-04 12:00,RPLL 041200Z 24007KT 220V280 9999 SCT023 30/26 Q1010 NOSIG RMK A2983
RPLL,2025-06-04 13:00,RPLL 041300Z 25006KT 210V270 9999 SCT025 30/26 Q1011 NOSIG RMK A2985
RPLL,2025-06-04 14:00,RPLL 041400Z 23005KT 9999 FEW025 30/26 Q1011 NOSIG RMK A2985
RPLL,2025-06-04 15:00,RPLL 041500Z 24006KT 210V270 9999 FEW025 SCT100 29/26 Q1012 NOSIG RMK A2988
RPLL,2025-06-04 16:00,RPLL 041600Z 25006KT 9999 FEW025 SCT100 29/26 Q1011 NOSIG RMK A2985
RPLL,2025-06-04 17:00,RPLL 041700Z 28007KT 9999 FEW025 SCT100 29/27 Q1011 NOSIG RMK A2985
RPLL,2025-06-04 18:00,RPLL 041800Z 28007KT 9999 FEW025 SCT100 29/27 Q1011 NOSIG RMK A2985
RPLL,2025-06-04 19:00,RPLL 041900Z 02005KT 350V070 9999 FEW025 28/26 Q1009 NOSIG RMK A2980
RPLL,2025-06-04 20:00,RPLL 042000Z 08003KT 9999 FEW025 27/26 Q1009 NOSIG RMK A2980
RPLL,2025-06-04 21:00,RPLL 042100Z VRB02KT 9999 FEW025 28/26 Q1009 NOSIG RMK A2980
RPLL,2025-06-04 22:00,RPLL 042200Z VRB01KT 9999 FEW025 28/26 Q1009 NOSIG RMK A2980
RPLL,2025-06-04 23:00,RPLL 042300Z 13004KT 090V180 9999 FEW025 30/26 Q1009 NOSIG RMK A2980
RPLL,2025-06-05 00:00,RPLL 050000Z VRB03KT 9999 FEW025 31/27 Q1009 NOSIG RMK A2980
RPLL,2025-06-05 01:00,RPLL 050100Z VRB02KT 9999 FEW025 32/26 Q1009 NOSIG RMK A2980
RPLL,2025-06-05 02:00,RPLL 050200Z 27007KT 210V310 9999 FEW025 32/26 Q1009 NOSIG RMK A2980
RPLL,2025-06-05 03:00,RPLL 050300Z 28011KT 9999 FEW025 32/26 Q1010 NOSIG RMK A2983
RPLL,2025-06-05 04:00,RPLL 050400Z 28011KT 9999 FEW025 32/26 Q1009 NOSIG RMK A2980
RPLL,2025-06-05 05:00,RPLL 050500Z 28010KT 9999 FEW025 32/26 Q1009 NOSIG RMK A2980
RPLL,2025-06-05 06:00,RPLL 050600Z 28010KT 250V330 9999 FEW025 32/28 Q1008 NOSIG RMK A2977
RPLL,2025-06-05 07:00,RPLL 050700Z 26012KT 9999 FEW025 SCT100 31/26 Q1007 NOSIG RMK A2974
RPLL,2025-06-05 08:00,RPLL 050800Z 26011KT 9999 FEW023CB SCT025 BKN100 31/26 Q1007 NOSIG RMK A2974 CB NE
RPLL,2025-06-05 09:00,RPLL 050900Z 27009KT 9999 FEW023CB SCT025 BKN100 31/27 Q1008 NOSIG RMK A2977 CB E
RPLL,2025-06-05 10:00,RPLL 051000Z 24008KT 200V260 9999 FEW023CB SCT025 BKN100 31/26 Q1008 NOSIG RMK A2977 CB N
RPLL,2025-06-05 11:00,RPLL 051100Z 26008KT 9000 -SHRA FEW022CB SCT023 BKN100 30/27 Q1009 NOSIG RMK A2980 CB/OCNL LTG N/NW
RPLL,2025-06-05 12:00,RPLL 051200Z 24010KT 7000 RA FEW020CB SCT023 OVC080 27/27 Q1010 TEMPO -TSRA RMK A2983 CB SE
RPLL,2025-06-05 13:00,RPLL 051300Z VRB01KT 9999 SCT023 BKN100 28/27 Q1010 RERA RMK A2983
RPLL,2025-06-05 14:00,RPLL 051400Z VRB02KT 9999 FEW025 BKN100 29/27 Q1010 NOSIG RMK A2983
RPLL,2025-06-05 15:00,RPLL 051500Z VRB02KT 9999 FEW025 BKN100 29/27 Q1010 NOSIG RMK A2983
RPLL,2025-06-05 16:00,RPLL 051600Z VRB02KT 9999 FEW025 29/28 Q1010 NOSIG RMK A2983
RPLL,2025-06-05 17:00,RPLL 051700Z 00000KT 9999 FEW025 BKN100 29/28 Q1009 NOSIG RMK A2980
RPLL,2025-06-05 18:00,RPLL 051800Z 00000KT 9000 FEW023 BKN100 29/28 Q1008 NOSIG RMK A2977
RPLL,2025-06-05 19:00,RPLL 051900Z 00000KT 9000 FEW023 29/28 Q1008 NOSIG RMK A2977
RPLL,2025-06-05 20:00,RPLL 052000Z 21003KT 180V250 9000 FEW025 29/27 Q1008 NOSIG RMK A2977
RPLL,2025-06-05 21:00,RPLL 052100Z VRB01KT 9000 FEW025 28/27 Q1008 NOSIG RMK A2977
RPLL,2025-06-05 22:00,RPLL 052200Z VRB02KT 9000 FEW025TCU 28/27 Q1009 NOSIG RMK A2980 TCU E
RPLL,2025-06-05 23:00,RPLL 052300Z VRB02KT 9000 FEW025 SCT100 30/27 Q1009 NOSIG RMK A2980
RPLL,2025-06-06 00:00,RPLL 060000Z 27007KT 220V300 9000 FEW025 BKN100 30/27 Q1009 NOSIG RMK A2980
RPLL,2025-06-06 01:00,RPLL 060100Z 28006KT 250V310 9000 FEW025 BKN100 31/27 Q1009 NOSIG RMK A2980
RPLL,2025-06-06 02:00,RPLL 060200Z 29006KT 250V340 9000 SCT025 31/27 Q1009 NOSIG RMK A2980
RPLL,2025-06-06 03:00,RPLL 060300Z 28006KT 230V320 9000 SCT025 32/27 Q1009 NOSIG RMK A2980
RPLL,2025-06-06 04:00,RPLL 060400Z 28009KT 9999 SCT025 32/28 Q1008 NOSIG RMK A2977
RPLL,2025-06-06 05:00,RPLL 060500Z 28011KT 9999 SCT025 32/27 Q1007 NOSIG RMK A2974
RPLL,2025-06-06 06:00,RPLL 060600Z 26013KT 9999 SCT025 32/27 Q1006 NOSIG RMK A2971
RPLL,2025-06-06 06:15,RPLL 060615Z 26012KT 9000 VCTS FEW022CB SCT023 SCT100 32/26 Q1006 TEMPO 5000 -TSRA SCT022CB OVC090 RMK A2971 CB NE-E
RPLL,2025-06-06 06:40,RPLL 060640Z 26009KT 240V300 7000 -TSRA SCT022CB OVC090 31/26 Q1006 TEMPO 4000 TSRA RMK A2971 CB OHD/N-SE
RPLL,2025-06-06 07:00,RPLL 060700Z VRB03KT 5000 TSRA SCT020CB OVC070 29/25 Q1007 TEMPO 1000 +TSRA RMK A2974 CB OHD/E-SE
RPLL,2025-06-06 08:00,COR RPLL 060800Z 11005KT 070V170 8000 -TSRA FEW020CB SCT022 OVC080 26/26 Q1008 RESHRA NOSIG RMK A2977 CB W-N
RPLL,2025-06-06 09:00,RPLL 060900Z 07008KT 050V110 9000 -RA SCT022 OVC080 26/25 Q1008 RETS NOSIG RMK A2977
RPLL,2025-06-06 10:00,RPLL 061000Z VRB02KT 9999 SCT023 OVC100 26/24 Q1008 NOSIG RMK A2977
RPLL,2025-06-06 11:00,RPLL 061100Z VRB02KT 9999 SCT023 BKN100 26/25 Q1008 NOSIG RMK A2977
RPLL,2025-06-06 12:00,RPLL 061200Z VRB01KT 9999 FEW025 BKN100 27/25 Q1009 NOSIG RMK A2980
RPLL,2025-06-06 13:00,RPLL 061300Z 34004KT 250V040 9000 FEW023 OVC100 28/25 Q1009 NOSIG RMK A2980
RPLL,2025-06-06 14:00,RPLL 061400Z 03007KT 350V070 9000 SCT023 OVC100 27/25 Q1010 NOSIG RMK A2983
RPLL,2025-06-06 15:00,RPLL 061500Z 20003KT 160V240 9999 FEW025 SCT100 27/26 Q1007 NOSIG RMK A2974
RPLL,2025-06-06 16:00,RPLL 061600Z VRB01KT 9999 FEW023 BKN100 27/25 Q1009 NOSIG RMK A2980
RPLL,2025-06-06 17:00,RPLL 061700Z VRB02KT 9000 FEW023 BKN100 27/25 Q1008 NOSIG RMK A2977
RPLL,2025-06-06 18:00,RPLL 061800Z VRB01KT 9000 FEW023 BKN100 27/25 Q1008 NOSIG RMK A2977
RPLL,2025-06-06 19:00,RPLL 061900Z 30003KT 250V350 9999 FEW025 BKN100 27/25 Q1007 NOSIG RMK A2974
RPLL,2025-06-06 20:00,RPLL 062000Z 02006KT 9999 FEW025 BKN100 27/24 Q1007 NOSIG RMK A2974
RPLL,2025-06-06 21:00,RPLL 062100Z 02005KT 350V070 9999 FEW025 SCT130 27/24 Q1007 NOSIG RMK A2974
RPLL,2025-06-06 22:00,RPLL 062200Z VRB03KT 9999 FEW025 SCT130 27/25 Q1008 NOSIG RMK A2977
RPLL,2025-06-06 23:00,RPLL 062300Z VRB01KT 9999 FEW025 28/25 Q1008 NOSIG RMK A2977
RPLL,2025-06-07 00:00,RPLL 070000Z 25003KT 170V340 9999 FEW025 28/25 Q1009 NOSIG RMK A2980
RPLL,2025-06-07 01:00,RPLL 070100Z 27005KT 240V310 9000 FEW025 SCT130 28/26 Q1009 NOSIG RMK A2980
RPLL,2025-06-07 02:00,RPLL 070200Z 28004KT 190V340 9000 FEW025 BKN100 28/26 Q1009 NOSIG RMK A2980
RPLL,2025-06-07 03:00,RPLL 070300Z VRB02KT 8000 -RA SCT023 OVC090 28/26 Q1008 NOSIG RMK A2977
RPLL,2025-06-07 04:00,RPLL 070400Z 21004KT 170V240 8000 -RA SCT023 OVC090 28/26 Q1008 NOSIG RMK A2977
RPLL,2025-06-07 05:00,RPLL 070500Z 28004KT 250V320 9000 SCT023 OVC100 29/25 Q1007 NOSIG RMK A2974
RPLL,2025-06-07 06:00,RPLL 070600Z 28003KT 260V320 9000 SCT023 OVC100 29/25 Q1007 NOSIG RMK A2974
RPLL,2025-06-07 07:00,RPLL 070700Z 26004KT 240V320 9000 -RA SCT023 OVC090 28/25 Q1006 NOSIG RMK A2971
RPLL,2025-06-07 08:00,RPLL 070800Z 29003KT 240V340 9000 SCT023 OVC100 29/25 Q1005 NOSIG RMK A2968
RPLL,2025-06-07 09:00,RPLL 070900Z 27004KT 9999 SCT025 BKN100 29/26 Q1006 NOSIG RMK A2971
RPLL,2025-06-07 10:00,RPLL 071000Z 28004KT 9999 FEW025 BKN100 29/25 Q1006 NOSIG RMK A2971
RPLL,2025-06-07 11:00,RPLL 071100Z 27004KT 240V350 9999 FEW023 BKN100 29/26 Q1007 NOSIG RMK A2974
RPLL,2025-06-07 12:00,RPLL 071200Z 23004KT 9000 -RA SCT022 OVC090 29/27 Q1007 NOSIG RMK A2974
RPLL,2025-06-07 13:00,COR RPLL 071300Z 18003KT 140V210 8000 -RA FEW020CB SCT022 OVC090 28/27 Q1007 NOSIG RMK A2974 CB/OCNL LTG E
RPLL,2025-06-07 14:00,RPLL 071400Z 17013G25KT 150V230 2000 +RA FEW018CB SCT020 OVC080 26/26 Q1008 TEMPO 5000 TSRA RMK A2977 CB/LTG OCNL E-SW
RPLL,2025-06-07 14:15,RPLL 071415Z 24007KT 2000 +TSRA FEW018CB SCT020 OVC080 26/26 Q1008 TEMPO 5000 TSRA RMK A2977 CB OCNL LTG E-SW
RPLL,2025-06-07 15:00,RPLL 071500Z 28007KT 250V320 7000 -TSRA FEW020CB SCT022 OVC090 26/26 Q1008 RERA NOSIG RMK A2977 CB/OCNL LTG S-W
RPLL,2025-06-07 15:35,RPLL 071535Z 35006KT 310V050 2000 +TSRA FEW018CB SCT020 OVC080 26/26 Q1008 TEMPO 5000 TSRA RMK A2977 CB/OCNL LTG OHD
RPLL,2025-06-07 16:00,RPLL 071600Z 36005KT 320V040 4000 TSRA FEW018CB SCT020 OVC080 25/25 Q1008 TEMPO 7000 -TSRA RMK A2977 CB/OCNL LTG W
RPLL,2025-06-07 17:00,RPLL 071700Z 25005KT 210V280 7000 -RA SCT022 OVC090 25/25 Q1007 RETSRA NOSIG RMK A2974
RPLL,2025-06-07 18:00,RPLL 071800Z VRB02KT 7000 SCT022 OVC090 26/26 Q1007 NOSIG RMK A2974
RPLL,2025-06-07 19:00,RPLL 071900Z VRB01KT 9000 SCT023 OVC100 26/26 Q1006 NOSIG RMK A2971
RPLL,2025-06-07 20:00,RPLL 072000Z 06005KT 8000 -RA SCT022 OVC090 25/25 Q1006 TEMPO RA RMK A2971
RPLL,2025-06-07 21:00,RPLL 072100Z 26004KT 230V300 8000 -RA SCT023 OVC090 25/25 Q1006 NOSIG RMK A2971
RPLL,2025-06-07 22:00,RPLL 072200Z VRB02KT 9000 FEW025 OVC100 26/26 Q1007 NOSIG RMK A2974
RPLL,2025-06-07 23:00,RPLL 072300Z 24003KT 210V280 9999 FEW025 OVC100 26/26 Q1007 NOSIG RMK A2974
RPLL,2025-06-08 00:00,RPLL 080000Z VRB02KT 9999 FEW025 OVC100 26/26 Q1007 NOSIG RMK A2974
RPLL,2025-06-08 01:00,RPLL 080100Z VRB02KT 9999 FEW025 OVC100 27/26 Q1007 NOSIG RMK A2974
RPLL,2025-06-08 02:00,RPLL 080200Z 27003KT 220V330 9999 FEW025 OVC100 28/26 Q1007 NOSIG RMK A2974
RPLL,2025-06-08 03:00,RPLL 080300Z VRB05KT 9999 FEW025 OVC100 29/25 Q1006 NOSIG RMK A2971
RPLL,2025-06-08 04:00,RPLL 080400Z 29006KT 260V320 9999 FEW025 OVC100 30/26 Q1006 NOSIG RMK A2971
RPLL,2025-06-08 05:00,RPLL 080500Z 29005KT 240V330 9999 FEW025 OVC150 31/26 Q1005 NOSIG RMK A2968
RPLL,2025-06-08 06:00,RPLL 080600Z 29008KT 9999 FEW025 BKN150 30/27 Q1004 NOSIG RMK A2965
RPLL,2025-06-08 07:00,RPLL 080700Z 26011KT 240V300 9999 FEW025 BKN150 30/26 Q1004 NOSIG RMK A2965
RPLL,2025-06-08 07:40,RPLL 080740Z 21007KT 170V270 8000 -RA FEW025 BKN100 28/27 Q1004 NOSIG RMK A2965
RPLL,2025-06-08 08:00,RPLL 080800Z 18004KT 180V220 7000 -RA FEW023TCU SCT025 OVC090 28/28 Q1004 TEMPO -SHRA RMK A2965 TCU SE
RPLL,2025-06-08 09:00,RPLL 080900Z 23005KT 200V270 9000 -RA FEW025 BKN100 28/27 Q1004 NOSIG RMK A2965
RPLL,2025-06-08 10:00,RPLL 081000Z 25005KT 210V270 9999 FEW025 BKN150 28/26 Q1004 NOSIG RMK A2965
RPLL,2025-06-08 11:00,RPLL 081100Z 22005KT 9999 SCT025 BKN100 28/26 Q1005 NOSIG RMK A2968
RPLL,2025-06-08 12:00,RPLL 081200Z 20004KT 170V240 9999 FEW025 28/26 Q1006 NOSIG RMK A2971
RPLL,2025-06-08 13:00,RPLL 081300Z 21003KT 170V250 9999 FEW025 SCT100 28/26 Q1006 NOSIG RMK A2971
RPLL,2025-06-08 14:00,RPLL 081400Z VRB02KT 9999 FEW025 27/26 Q1007 NOSIG RMK A2974
RPLL,2025-06-08 15:00,RPLL 081500Z 20003KT 160V240 9999 FEW025 SCT100 27/26 Q1007 NOSIG RMK A2974
RPLL,2025-06-08 16:00,RPLL 081600Z VRB01KT 9999 FEW025 27/26 Q1007 NOSIG RMK A2974
RPLL,2025-06-08 17:00,RPLL 081700Z VRB02KT 9999 FEW025 SCT100 27/26 Q1006 NOSIG RMK A2971
RPLL,2025-06-08 18:00,RPLL 081800Z 06003KT 9999 FEW025 SCT100 26/26 Q1005 NOSIG RMK A2968
RPLL,2025-06-08 19:00,RPLL 081900Z VRB01KT 9999 FEW025 SCT100 27/26 Q1005 NOSIG RMK A2968
RPLL,2025-06-08 20:00,RPLL 082000Z 08002KT 9999 FEW025 26/25 Q1004 NOSIG RMK A2965
RPLL,2025-06-08 21:00,RPLL 082100Z VRB01KT 9999 FEW025 SCT100 27/25 Q1004 NOSIG RMK A2965
RPLL,2025-06-08 22:00,RPLL 082200Z VRB02KT 9999 FEW025 SCT100 27/25 Q1005 NOSIG RMK A2968
RPLL,2025-06-08 23:00,RPLL 082300Z 19004KT 170V250 9999 FEW025 SCT100 29/25 Q1006 NOSIG RMK A2971
RPLL,2025-06-09 00:00,RPLL 090000Z 22004KT 120V270 9999 FEW025 SCT100 30/26 Q1006 NOSIG RMK A2971
RPLL,2025-06-09 01:00,RPLL 090100Z 25006KT 220V290 9999 FEW025 31/24 Q1005 NOSIG RMK A2968
RPLL,2025-06-09 02:00,RPLL 090200Z VRB04KT 9999 FEW025 BKN100 31/25 Q1005 NOSIG RMK A2968
RPLL,2025-06-09 03:00,RPLL 090300Z 28006KT 230V310 9999 FEW025 SCT100 31/26 Q1004 NOSIG RMK A2965
RPLL,2025-06-09 04:00,RPLL 090400Z VRB06G18KT 9999 FEW025 SCT100 31/26 Q1004 NOSIG RMK A2965
RPLL,2025-06-09 05:00,RPLL 090500Z 31009KT 270V350 9999 FEW025 SCT100 32/26 Q1003 NOSIG RMK A2962
RPLL,2025-06-09 06:00,RPLL 090600Z 15003KT 060V200 9999 -SHRA SCT025 BKN100 29/27 Q1003 NOSIG RMK A2962
RPLL,2025-06-09 07:00,RPLL 090700Z VRB02KT 9999 SCT023 BKN100 31/26 Q1002 NOSIG RMK A2959
RPLL,2025-06-09 08:00,RPLL 090800Z 26015KT 230V300 9000 -SHRA FEW022CB SCT023 BKN100 28/27 Q1002 NOSIG RMK A2959 CB SW
RPLL,2025-06-09 09:00,COR RPLL 090900Z 22012KT 190V250 9000 -TSRA FEW022CB SCT023 OVC090 27/26 Q1003 NOSIG RMK A2962 CB E-SE/OHD
RPLL,2025-06-09 10:00,RPLL 091000Z 23006KT 200V260 9999 -TSRA FEW022CB SCT023 OVC090 27/26 Q1004 NOSIG RMK A2965 CB E/OHD
RPLL,2025-06-09 11:00,RPLL 091100Z 18003KT 140V230 9999 FEW022CB SCT023 BKN090 27/26 Q1005 RETS NOSIG RMK A2968 CB/OCNL LTG OHD  N-SE
RPLL,2025-06-09 11:37,RPLL 091137Z 11005KT 9000 -SHRA FEW023CB SCT025 BKN090 27/26 Q1005 NOSIG RMK A2968 CB E
RPLL,2025-06-09 12:00,RPLL 091200Z 12003KT 9000 -SHRA FEW023CB SCT025 BKN090 27/26 Q1005 NOSIG RMK A2968 CB E
RPLL,2025-06-09 13:00,RPLL 091300Z 16004KT 110V200 8000 -RA SCT023 OVC090 27/26 Q1005 NOSIG RMK A2968
RPLL,2025-06-09 14:00,RPLL 091400Z 14003KT 100V190 8000 -RA SCT022 OVC080 26/26 Q1006 NOSIG RMK A2971
RPLL,2025-06-09 15:00,RPLL 091500Z VRB02KT 8000 -RA SCT022 OVC080 27/26 Q1005 NOSIG RMK A2968
RPLL,2025-06-09 16:00,RPLL 091600Z VRB02KT 9999 FEW025 OVC100 27/27 Q1004 NOSIG RMK A2965
RPLL,2025-06-09 17:00,RPLL 091700Z 13003KT 100V170 9999 FEW025 SCT100 27/26 Q1004 NOSIG RMK A2965
RPLL,2025-06-09 18:00,RPLL 091800Z VRB02KT 9999 FEW025 BKN100 27/26 Q1003 NOSIG RMK A2962
RPLL,2025-06-09 19:00,RPLL 091900Z VRB02KT 9999 FEW025 BKN150 27/27 Q1002 NOSIG RMK A2959
RPLL,2025-06-09 20:00,RPLL 092000Z 07004KT 9999 FEW025 26/26 Q1002 NOSIG RMK A2959
RPLL,2025-06-09 21:00,RPLL 092100Z VRB02KT 9999 FEW025 27/26 Q1003 NOSIG RMK A2962
RPLL,2025-06-09 22:00,RPLL 092200Z 09003KT 060V120 9999 SCT025 27/26 Q1003 NOSIG RMK A2962
RPLL,2025-06-09 23:00,RPLL 092300Z VRB02KT 9999 FEW025 SCT100 28/27 Q1004 NOSIG RMK A2965
RPLL,2025-06-10 00:00,RPLL 100000Z 12007KT 070V160 9999 FEW025 SCT100 30/25 Q1004 NOSIG RMK A2965
RPLL,2025-06-10 01:00,RPLL 100100Z 13005KT 090V180 9999 FEW025 31/25 Q1005 NOSIG RMK A2968
RPLL,2025-06-10 02:00,RPLL 100200Z 12004KT 010V170 9999 SCT025 BKN100 31/25 Q1005 NOSIG RMK A2968
RPLL,2025-06-10 03:00,RPLL 100300Z VRB03KT 9999 SCT025 BKN100 32/25 Q1005 NOSIG RMK A2968
RPLL,2025-06-10 04:00,RPLL 100400Z 27010KT 9999 -SHRA SCT023 OVC100 29/27 Q1005 NOSIG RMK A2968
RPLL,2025-06-10 04:30,RPLL 100430Z 26011KT 9000 RA SCT022 OVC090 26/26 Q1004 NOSIG RMK A2965
RPLL,2025-06-10 05:00,RPLL 100500Z 28005KT 9000 -RA SCT022 OVC090 28/27 Q1004 RERA NOSIG RMK A2965
RPLL,2025-06-10 06:00,RPLL 100600Z 20007KT 150V230 9999 SCT023 BKN100 29/25 Q1004 NOSIG RMK A2965
RPLL,2025-06-10 07:00,RPLL 100700Z 14005KT 080V170 9999 SCT025 OVC100 29/25 Q1003 NOSIG RMK A2962
RPLL,2025-06-10 08:00,RPLL 100800Z VRB02KT 9999 SCT025 OVC100 29/25 Q1003 NOSIG RMK A2962
RPLL,2025-06-10 09:00,RPLL 100900Z 16003KT 110V230 9999 -SHRA SCT023 OVC100 28/26 Q1004 NOSIG RMK A2965
RPLL,2025-06-10 10:00,RPLL 101000Z 22003KT 190V260 9999 -RA SCT023 OVC100 27/25 Q1004 NOSIG RMK A2965
RPLL,2025-06-10 11:00,RPLL 101100Z VRB02KT 9999 -RA FEW023 OVC100 27/26 Q1005 NOSIG RMK A2968
RPLL,2025-06-10 12:00,RPLL 101200Z 07003KT 010V160 9000 -RA FEW023 OVC100 27/26 Q1005 NOSIG RMK A2968
RPLL,2025-06-10 13:00,RPLL 101300Z 09003KT 060V140 9000 FEW025 OVC100 27/26 Q1005 NOSIG RMK A2968
RPLL,2025-06-10 14:00,RPLL 101400Z 10003KT 9000 FEW025 OVC100 27/26 Q1005 NOSIG RMK A2968
RPLL,2025-06-10 15:00,RPLL 101500Z 00000KT 9000 FEW025 BKN100 27/26 Q1006 NOSIG RMK A2971
RPLL,2025-06-10 16:00,RPLL 101600Z 00000KT 9999 FEW025 BKN100 27/26 Q1006 NOSIG RMK A2971
RPLL,2025-06-10 17:00,RPLL 101700Z VRB02KT 9999 FEW025 BKN100 27/26 Q1006 NOSIG RMK A2971
RPLL,2025-06-10 18:00,RPLL 101800Z 23004KT 200V270 8000 -RA FEW023 OVC090 26/26 Q1005 NOSIG RMK A2968
RPLL,2025-06-10 19:00,RPLL 101900Z VRB02KT 8000 -RA SCT023 OVC090 26/26 Q1004 NOSIG RMK A2965
RPLL,2025-06-10 20:00,RPLL 102000Z VRB01KT 9000 -RA SCT023 OVC090 26/26 Q1004 NOSIG RMK A2965
RPLL,2025-06-10 21:00,RPLL 102100Z VRB01KT 9999 SCT023 BKN100 26/26 Q1004 NOSIG RMK A2965
RPLL,2025-06-10 22:00,RPLL 102200Z VRB01KT 9999 -RA SCT023 OVC090 26/26 Q1005 NOSIG RMK A2968
RPLL,2025-06-10 23:00,RPLL 102300Z VRB02KT 9999 -RA SCT023 OVC090 27/27 Q1005 NOSIG RMK A2968
RPLL,2025-06-11 00:00,RPLL 110000Z VRB02KT 9000 -RA SCT025 OVC090 28/27 Q1006 NOSIG RMK A2971
RPLL,2025-06-11 01:00,RPLL 110100Z 00000KT 9000 -RA SCT023 OVC090 28/27 Q1006 NOSIG RMK A2971
RPLL,2025-06-11 02:00,RPLL 110200Z 26003KT 220V320 9000 -RA SCT023 OVC090 27/26 Q1006 NOSIG RMK A2971
RPLL,2025-06-11 03:00,RPLL 110300Z VRB02KT 9000 -RA SCT023 OVC090 28/26 Q1005 NOSIG RMK A2968
RPLL,2025-06-11 04:00,RPLL 110400Z 23008KT 190V270 9999 SCT023 OVC090 29/26 Q1006 NOSIG RMK A2971
RPLL,2025-06-11 05:00,RPLL 110500Z 27004KT 240V310 9999 -RA SCT023 OVC090 29/26 Q1005 NOSIG RMK A2968
RPLL,2025-06-11 06:00,RPLL 110600Z 22009KT 190V260 9999 SCT023 OVC100 30/25 Q1005 NOSIG RMK A2968
RPLL,2025-06-11 07:00,RPLL 110700Z 23007KT 200V260 9999 -RA SCT023 OVC100 29/25 Q1005 NOSIG RMK A2968
RPLL,2025-06-11 08:00,RPLL 110800Z 25005KT 200V290 9999 -RA SCT023 OVC100 29/25 Q1004 NOSIG RMK A2965
RPLL,2025-06-11 09:00,RPLL 110900Z 26007KT 9999 SCT023 OVC100 29/25 Q1005 NOSIG RMK A2968
RPLL,2025-06-11 10:00,RPLL 111000Z 24003KT 150V290 9999 FEW023 OVC100 29/25 Q1005 NOSIG RMK A2968
RPLL,2025-06-11 10:25,COR RPLL 111025Z VRB02KT 9999 -RA FEW025 OVC100 29/26 Q1006 NOSIG RMK A2961
RPLL,2025-06-11 11:00,RPLL 111100Z 21003KT 180V240 9999 -RA FEW025 OVC100 29/26 Q1006 NOSIG RMK A2961
RPLL,2025-06-11 12:00,RPLL 111200Z 23006KT 9999 FEW025 BKN130 28/24 Q1006 NOSIG RMK A2961
RPLL,2025-06-11 13:00,RPLL 111300Z 26005KT 9999 FEW025 BKN130 27/25 Q1007 NOSIG RMK A2974
RPLL,2025-06-11 14:00,RPLL 111400Z 25006KT 220V310 9999 FEW025 BKN100 28/25 Q1007 NOSIG RMK A2974
RPLL,2025-06-11 15:00,RPLL 111500Z VRB01KT 9000 -RA FEW023 BKN090 28/25 Q1007 TEMPO 7000 RMK A2974
RPLL,2025-06-11 16:00,RPLL 111600Z VRB02KT 9999 FEW025 BKN100 27/25 Q1006 NOSIG RMK A2971
RPLL,2025-06-11 17:00,RPLL 111700Z 00000KT 9999 FEW025 BKN100 27/25 Q1006 NOSIG RMK A2971
RPLL,2025-06-11 18:00,RPLL 111800Z VRB02KT 9999 FEW025 BKN100 27/25 Q1007 NOSIG RMK A2974
RPLL,2025-06-11 19:00,RPLL 111900Z 00000KT 9999 FEW025 OVC100 27/25 Q1007 NOSIG RMK A2974
RPLL,2025-06-11 20:00,RPLL 112000Z VRB02KT 9999 FEW025 BKN100 27/25 Q1007 NOSIG RMK A2974
RPLL,2025-06-11 21:00,RPLL 112100Z 19007KT 9000 -SHRA FEW025 OVC100 26/25 Q1007 NOSIG RMK A2974
RPLL,2025-06-11 22:00,RPLL 112200Z VRB01KT 9999 -RA FEW025 OVC100 26/25 Q1008 NOSIG RMK A2977
RPLL,2025-06-11 23:00,RPLL 112300Z VRB02KT 9999 FEW025 OVC100 27/25 Q1008 NOSIG RMK A2977
RPLL,2025-06-12 00:00,RPLL 120000Z 18005KT 130V220 9999 FEW025 OVC100 28/24 Q1009 NOSIG RMK A2980
RPLL,2025-06-12 01:00,RPLL 120100Z 18004KT 140V240 9999 FEW025 OVC100 29/24 Q1009 NOSIG RMK A2980
RPLL,2025-06-12 01:19,RPLL 120119Z 19004KT 140V210 9999 -SHRA FEW025 OVC100 29/24 Q1009 NOSIG RMK A2980
RPLL,2025-06-12 02:00,RPLL 120200Z 17003KT 080V220 9999 FEW025 OVC100 29/25 Q1009 NOSIG RMK A2980
RPLL,2025-06-12 03:00,RPLL 120300Z VRB03KT 9999 -SHRA FEW025 BKN100 30/26 Q1010 NOSIG RMK A2983
RPLL,2025-06-12 04:00,RPLL 120400Z 09005KT 060V130 9999 -RA FEW025 OVC100 30/26 Q1009 NOSIG RMK A2980
RPLL,2025-06-12 05:00,RPLL 120500Z VRB06KT 9999 -RA FEW025 OVC100 30/25 Q1008 NOSIG RMK A2977
RPLL,2025-06-12 06:00,RPLL 120600Z 17004KT 100V230 9999 FEW025 OVC100 31/25 Q1009 NOSIG RMK A2980
RPLL,2025-06-12 07:00,RPLL 120700Z 13005KT 100V190 9999 FEW025 OVC100 30/25 Q1009 NOSIG RMK A2980
RPLL,2025-06-12 08:00,RPLL 120800Z 15005KT 100V200 9999 FEW025 OVC100 32/26 Q1008 NOSIG RMK A2977
RPLL,2025-06-12 09:00,RPLL 120900Z 14007KT 100V180 9999 FEW025 OVC100 30/25 Q1009 NOSIG RMK A2980
RPLL,2025-06-12 10:00,RPLL 121000Z 15005KT 070V240 9999 FEW025 OVC100 29/25 Q1010 NOSIG RMK A2983
RPLL,2025-06-12 11:00,RPLL 121100Z 13004KT 090V180 9999 FEW025 OVC100 29/25 Q1010 NOSIG RMK A2983
RPLL,2025-06-12 12:00,RPLL 121200Z 14005KT 070V190 9999 FEW025 OVC130 29/26 Q1010 NOSIG RMK A2983
RPLL,2025-06-12 13:00,RPLL 121300Z 14004KT 100V180 9999 FEW025 OVC100 29/26 Q1011 NOSIG RMK A2985
RPLL,2025-06-12 14:00,RPLL 121400Z VRB01KT 9999 FEW025 BKN100 28/26 Q1011 NOSIG RMK A2985
RPLL,2025-06-12 15:00,RPLL 121500Z VRB02KT 9999 FEW025 BKN100 28/25 Q1012 NOSIG RMK A2988
RPLL,2025-06-12 16:00,RPLL 121600Z 23003KT 9999 FEW025 BKN130 28/25 Q1011 NOSIG RMK A2985
RPLL,2025-06-12 17:00,RPLL 121700Z 09003KT 9999 FEW025 28/25 Q1011 NOSIG RMK A2985
RPLL,2025-06-12 18:00,RPLL 121800Z 11003KT 9999 FEW025 BKN100 28/26 Q1010 NOSIG RMK A2983
RPLL,2025-06-12 19:00,RPLL 121900Z 11004KT 070V140 9999 FEW025 BKN130 28/26 Q1010 NOSIG RMK A2983
RPLL,2025-06-12 20:00,RPLL 122000Z 13003KT 080V180 9999 FEW025 BKN130 28/26 Q1010 NOSIG RMK A2983
RPLL,2025-06-12 21:00,RPLL 122100Z 13005KT 080V170 9999 FEW025 BKN100 28/26 Q1010 NOSIG RMK A2983
RPLL,2025-06-12 22:00,RPLL 122200Z 14005KT 110V210 9999 FEW025 OVC100 28/25 Q1011 NOSIG RMK A2985
RPLL,2025-06-12 23:00,RPLL 122300Z 14005KT 090V190 9999 FEW025 BKN100 29/26 Q1011 NOSIG RMK A2985
RPLL,2025-06-13 00:00,RPLL 130000Z 13003KT 080V190 9999 FEW025 BKN100 29/26 Q1012 NOSIG RMK A2988
RPLL,2025-06-13 01:00,RPLL 130100Z VRB05KT 9999 FEW025 BKN100 31/27 Q1012 NOSIG RMK A2988
RPLL,2025-06-13 02:00,RPLL 130200Z 11006KT 060V170 9999 FEW025 BKN100 32/26 Q1012 NOSIG RMK A2988
RPLL,2025-06-13 03:00,RPLL 130300Z 09006KT 060V170 9999 FEW025 BKN100 33/26 Q1012 NOSIG RMK A2988
RPLL,2025-06-13 04:00,RPLL 130400Z 26005KT 170V300 9999 FEW025 BKN100 31/27 Q1012 NOSIG RMK A2988
RPLL,2025-06-13 05:00,RPLL 130500Z VRB03KT 9999 FEW025 BKN100 33/26 Q1011 NOSIG RMK A2985
RPLL,2025-06-13 06:00,RPLL 130600Z 27005KT 230V320 9999 FEW023CB SCT025 BKN100 32/26 Q1011 NOSIG RMK A2985 CB SW
RPLL,2025-06-13 07:00,RPLL 130700Z 26003KT 200V010 9999 FEW025 BKN100 33/25 Q1010 NOSIG RMK A2983
RPLL,2025-06-13 08:00,RPLL 130800Z 27006KT 220V300 9999 FEW025 BKN100 31/25 Q1010 NOSIG RMK A2983
RPLL,2025-06-13 09:00,RPLL 130900Z 27006KT 9999 FEW025 BKN100 31/25 Q1010 NOSIG RMK A2983
RPLL,2025-06-13 10:00,RPLL 131000Z 26005KT 9999 FEW025 BKN100 31/24 Q1011 NOSIG RMK A2985
RPLL,2025-06-13 11:00,RPLL 131100Z VRB02KT 9999 FEW025 BKN100 31/24 Q1011 NOSIG RMK A2985
RPLL,2025-06-13 12:00,RPLL 131200Z 11006KT 080V150 9999 FEW025 SCT100 31/25 Q1012 NOSIG RMK A2988
RPLL,2025-06-13 13:00,RPLL 131300Z 12003KT 080V170 9999 FEW025 SCT100 30/26 Q1013 NOSIG RMK A2991
RPLL,2025-06-13 14:00,RPLL 131400Z 11003KT 080V140 9999 FEW025 SCT100 30/26 Q1013 NOSIG RMK A2991
RPLL,2025-06-13 15:00,RPLL 131500Z 12004KT 080V180 9999 FEW025 SCT100 30/26 Q1013 NOSIG RMK A2991
RPLL,2025-06-13 16:00,RPLL 131600Z 10003KT 070V130 9999 FEW025 SCT100 29/27 Q1013 NOSIG RMK A2991
RPLL,2025-06-13 17:00,RPLL 131700Z VRB02KT 9999 FEW025 SCT100 29/26 Q1012 NOSIG RMK A2988
RPLL,2025-06-13 18:00,RPLL 131800Z 12003KT 080V160 9999 FEW025 SCT100 29/27 Q1011 NOSIG RMK A2985
RPLL,2025-06-13 19:00,RPLL 131900Z 13003KT 110V170 9999 FEW025 BKN150 29/26 Q1011 NOSIG RMK A2985
RPLL,2025-06-13 20:00,RPLL 132000Z 07003KT 9999 FEW025 BKN150 28/26 Q1011 NOSIG RMK A2985
RPLL,2025-06-13 21:00,RPLL 132100Z VRB01KT 9999 FEW025 SCT150 28/26 Q1010 NOSIG RMK A2983
RPLL,2025-06-13 22:00,RPLL 132200Z 10003KT 9999 FEW025 BKN100 28/26 Q1010 NOSIG RMK A2983
RPLL,2025-06-13 23:00,RPLL 132300Z 08005KT 060V120 9999 FEW025 BKN100 29/26 Q1011 NOSIG RMK A2985
RPLL,2025-06-14 00:00,RPLL 140000Z 11004KT 070V160 9999 FEW025 BKN100 30/25 Q1011 NOSIG RMK A2985
RPLL,2025-06-14 01:00,RPLL 140100Z 12003KT 080V190 9999 FEW025 BKN100 31/25 Q1011 NOSIG RMK A2985
RPLL,2025-06-14 02:00,RPLL 140200Z 14005KT 090V200 9999 FEW025 32/25 Q1011 NOSIG RMK A2985
RPLL,2025-06-14 03:00,RPLL 140300Z 10007KT 060V140 9999 FEW025 SCT100 33/24 Q1011 NOSIG RMK A2985
RPLL,2025-06-14 04:00,RPLL 140400Z 09005KT 030V170 9999 FEW025 SCT100 34/24 Q1010 NOSIG RMK A2983
RPLL,2025-06-14 05:00,RPLL 140500Z 31006KT 250V360 9000 SCT025 32/25 Q1010 NOSIG RMK A2983
RPLL,2025-06-14 06:00,RPLL 140600Z 31007KT 250V350 9999 SCT025 33/26 Q1009 NOSIG RMK A2980
RPLL,2025-06-14 07:00,RPLL 140700Z VRB04KT 9999 SCT025 34/25 Q1009 NOSIG RMK A2980
RPLL,2025-06-14 08:00,RPLL 140800Z 30008KT 9999 SCT025 SCT100 33/26 Q1008 NOSIG RMK A2977
RPLL,2025-06-14 09:00,RPLL 140900Z 13006KT 070V160 9999 FEW025 34/25 Q1008 NOSIG RMK A2977
RPLL,2025-06-14 10:00,RPLL 141000Z 15005KT 080V190 9999 FEW025 BKN100 33/25 Q1009 NOSIG RMK A2980
RPLL,2025-06-14 11:00,RPLL 141100Z 13005KT 060V170 9999 FEW025 BKN100 32/25 Q1009 NOSIG RMK A2980
RPLL,2025-06-14 12:00,RPLL 141200Z 14005KT 080V180 9999 FEW025 BKN100 32/26 Q1010 NOSIG RMK A2983
RPLL,2025-06-14 13:00,RPLL 141300Z 15006KT 090V200 9999 FEW025 BKN100 31/26 Q1011 NOSIG RMK A2985
RPLL,2025-06-14 14:00,COR RPLL 141400Z VRB04KT 9999 FEW025 SCT100 31/26 Q1011 NOSIG RMK A2985
RPLL,2025-06-14 15:00,RPLL 141500Z 13004KT 090V220 9999 FEW025 30/27 Q1011 NOSIG RMK A2985
RPLL,2025-06-14 16:00,RPLL 141600Z 14005KT 090V180 9999 FEW023CB SCT100 30/26 Q1011 NOSIG RMK A2985 CB/OCNL LTG NW
RPLL,2025-06-14 17:00,RPLL 141700Z 13005KT 080V170 9999 FEW025 30/26 Q1010 NOSIG RMK A2983
RPLL,2025-06-14 18:00,RPLL 141800Z 11006KT 070V140 9999 FEW025 29/25 Q1010 NOSIG RMK A2983
RPLL,2025-06-14 19:00,RPLL 141900Z 12006KT 090V150 9999 FEW025 SCT100 29/26 Q1010 NOSIG RMK A2983
RPLL,2025-06-14 20:00,RPLL 142000Z 12004KT 040V180 9999 FEW025 BKN100 29/25 Q1010 NOSIG RMK A2983
RPLL,2025-06-14 21:00,RPLL 142100Z 11005KT 050V150 9999 FEW025 SCT100 29/25 Q1010 NOSIG RMK A2983
RPLL,2025-06-14 22:00,RPLL 142200Z VRB01KT 9999 FEW025 29/26 Q1010 NOSIG RMK A2983
RPLL,2025-06-14 23:00,RPLL 142300Z 14004KT 080V220 9999 FEW025 30/26 Q1010 NOSIG RMK A2983
RPLL,2025-06-15 00:00,RPLL 150000Z 11006KT 070V190 9999 FEW025 32/25 Q1010 NOSIG RMK A2983
RPLL,2025-06-15 01:00,RPLL 150100Z 12006KT 020V180 9999 FEW025 33/24 Q1010 NOSIG RMK A2983
RPLL,2025-06-15 02:00,RPLL 150200Z 11007KT 060V160 9999 FEW025 33/25 Q1010 NOSIG RMK A2983
RPLL,2025-06-15 03:00,RPLL 150300Z 12007KT 080V170 9999 FEW025 34/25 Q1009 NOSIG RMK A2980
RPLL,2025-06-15 04:00,RPLL 150400Z 12007KT 070V180 9999 FEW025 34/24 Q1009 NOSIG RMK A2980
RPLL,2025-06-15 05:00,RPLL 150500Z 14006KT 080V220 9999 FEW025 35/24 Q1008 NOSIG RMK A2977
RPLL,2025-06-15 06:00,RPLL 150600Z 14006KT 050V200 9999 FEW025 36/24 Q1008 NOSIG RMK A2977
RPLL,2025-06-15 07:00,RPLL 150700Z VRB06KT 9999 FEW025 36/24 Q1007 NOSIG RMK A2974
RPLL,2025-06-15 08:00,RPLL 150800Z 25009KT 160V280 9999 FEW025 33/27 Q1007 NOSIG RMK A2974
RPLL,2025-06-15 09:00,RPLL 150900Z VRB07KT 9999 FEW023CB SCT025 BKN100 33/26 Q1008 NOSIG RMK A2977 CB N  SW
RPLL,2025-06-15 10:00,RPLL 151000Z 22007KT 180V260 9999 FEW023CB SCT025 BKN100 32/24 Q1008 NOSIG RMK A2977 CB NW-N
RPLL,2025-06-15 11:00,RPLL 151100Z 25005KT 210V300 9999 FEW023CB SCT025 BKN100 29/25 Q1009 NOSIG RMK A2980 CB/OCNL LTG W-N
RPLL,2025-06-15 12:00,RPLL 151200Z 20010KT 170V230 9999 -SHRA FEW023CB SCT025 BKN090 29/25 Q1010 TEMPO -TSRA RMK A2983 CB/OCNL LTG S-SW
RPLL,2025-06-15 13:00,RPLL 151300Z 19004KT 160V220 9999 FEW023CB SCT025 BKN100 29/23 Q1011 NOSIG RMK A2985 CB/FRQNT LTG W
RPLL,2025-06-15 14:00,RPLL 151400Z 17003KT 140V200 9999 FEW023CB SCT025 BKN100 29/25 Q1011 NOSIG RMK A2985 CB/OCNL LTG SE  W
RPLL,2025-06-15 15:00,RPLL 151500Z 16004KT 110V200 9999 FEW025 BKN100 29/25 Q1011 NOSIG RMK A2985
RPLL,2025-06-15 16:00,RPLL 151600Z VRB02KT 9999 FEW025 BKN100 29/24 Q1011 NOSIG RMK A2985
RPLL,2025-06-15 17:00,RPLL 151700Z 11003KT 070V140 9999 FEW025 BKN100 29/25 Q1010 NOSIG RMK A2983
RPLL,2025-06-15 18:00,RPLL 151800Z VRB02KT 9999 FEW025 29/26 Q1010 NOSIG RMK A2983
RPLL,2025-06-15 19:00,RPLL 151900Z VRB02KT 9999 FEW025 29/26 Q1010 NOSIG RMK A2983
RPLL,2025-06-15 20:00,RPLL 152000Z 11004KT 080V140 9999 FEW025 29/25 Q1010 NOSIG RMK A2983
RPLL,2025-06-15 21:00,RPLL 152100Z 08004KT 9999 FEW025 28/26 Q1010 NOSIG RMK A2983
RPLL,2025-06-15 22:00,RPLL 152200Z VRB02KT 9999 FEW025 SCT100 29/25 Q1011 NOSIG RMK A2985
RPLL,2025-06-15 23:00,RPLL 152300Z 12003KT 050V180 9999 FEW025 30/25 Q1012 NOSIG RMK A2988
RPLL,2025-06-16 00:00,RPLL 160000Z VRB04KT 9999 FEW025 31/25 Q1011 NOSIG RMK A2985
RPLL,2025-06-16 01:00,RPLL 160100Z VRB04KT 9999 FEW025 32/265 Q1011 NOSIG RMK A2985
RPLL,2025-06-16 02:00,RPLL 160200Z 09006KT 050V130 9999 FEW025 SCT100 33/25 Q1011 NOSIG RMK A2985
RPLL,2025-06-16 03:00,RPLL 160300Z 15006KT 070V220 9999 FEW025 34/25 Q1011 NOSIG RMK A2985
RPLL,2025-06-16 04:00,RPLL 160400Z 13007KT 040V180 9999 FEW025 34/25 Q1010 NOSIG RMK A2983
RPLL,2025-06-16 05:00,RPLL 160500Z 15007KT 100V220 9999 FEW023CB 35/26 Q1009 NOSIG RMK A2980 CB N/SE
RPLL,2025-06-16 06:00,RPLL 160600Z 11009KT 070V150 9999 FEW023CB SCT025 35/25 Q1008 NOSIG RMK A2977 CB N
RPLL,2025-06-16 07:00,RPLL 160700Z 08006KT 040V130 9999 FEW023CB SCT025 BKN100 33/25 Q1008 NOSIG RMK A2977 CB SW
RPLL,2025-06-16 08:00,RPLL 160800Z 12006KT 060V170 9999 FEW023CB SCT025 BKN100 32/26 Q1008 NOSIG RMK A2977 CB SW
RPLL,2025-06-16 09:00,RPLL 160900Z 14005KT 090V190 9000 -SHRA FEW023CB SCT025 BKN100 31/26 Q1009 TEMPO 5000 TSRA RMK A2980 CB SW/W
RPLL,2025-06-16 10:00,RPLL 161000Z 16006KT 100V200 9999 SCT025 BKN100 31/25 Q1009 NOSIG RMK A2980
RPLL,2025-06-16 11:00,RPLL 161100Z 14005KT 080V180 9999 FEW025 BKN130 31/25 Q1010 NOSIG RMK A2983
RPLL,2025-06-16 12:00,RPLL 161200Z 15004KT 090V230 9999 FEW025 BKN100 30/26 Q1011 NOSIG RMK A2985
RPLL,2025-06-16 13:00,RPLL 161300Z 14006KT 090V190 9999 FEW025 BKN100 30/26 Q1011 NOSIG RMK A2985
RPLL,2025-06-16 14:00,RPLL 161400Z 14004KT 070V190 9999 FEW025 BKN100 30/26 Q1011 NOSIG RMK A2985
RPLL,2025-06-16 15:00,RPLL 161500Z 14003KT 080V190 9999 FEW025 OVC100 30/26 Q1012 NOSIG RMK A2988
RPLL,2025-06-16 16:00,RPLL 161600Z 13004KT 080V190 9999 FEW025 BKN100 29/26 Q1011 NOSIG RMK A2985
RPLL,2025-06-16 17:00,RPLL 161700Z 14003KT 080V220 9999 FEW025 BKN100 29/26 Q1011 NOSIG RMK A2985
RPLL,2025-06-16 18:00,RPLL 161800Z VRB03KT 9999 FEW023 OVC100 29/26 Q1011 NOSIG RMK A2985
RPLL,2025-06-16 19:00,RPLL 161900Z 13003KT 090V160 9999 FEW025 29/26 Q1011 NOSIG RMK A2985
RPLL,2025-06-16 20:00,RPLL 162000Z 13003KT 060V170 9999 FEW025 BKN100 29/26 Q1010 NOSIG RMK A2983
RPLL,2025-06-16 21:00,RPLL 162100Z 12003KT 9999 FEW023 BKN100 29/26 Q1011 NOSIG RMK A2985
RPLL,2025-06-16 22:00,RPLL 162200Z VRB02KT 9999 FEW023 BKN100 29/26 Q1011 NOSIG RMK A2985
RPLL,2025-06-16 23:00,RPLL 162300Z 12003KT 070V160 9999 FEW023 BKN100 29/25 Q1012 NOSIG RMK A2988
RPLL,2025-06-17 00:00,RPLL 170000Z 14004KT 070V210 9999 FEW025 SCT100 30/25 Q1012 NOSIG RMK A2988
RPLL,2025-06-17 01:00,RPLL 170100Z VRB03KT 9999 FEW025 SCT100 31/25 Q1012 NOSIG RMK A2988
RPLL,2025-06-17 02:00,RPLL 170200Z 10005KT 020V140 9999 FEW025 32/24 Q1011 NOSIG RMK A2985
RPLL,2025-06-17 03:00,RPLL 170300Z 08006KT 020V170 9999 FEW025 33/26 Q1011 NOSIG RMK A2985
RPLL,2025-06-17 04:00,RPLL 170400Z 10005KT 050V170 9999 FEW025 34/25 Q1010 NOSIG RMK A2983
RPLL,2025-06-17 05:00,RPLL 170500Z VRB05KT 9999 FEW023CB SCT025 34/25 Q1009 NOSIG RMK A2980 CB N
RPLL,2025-06-17 06:00,RPLL 170600Z 33006KT 290V040 9999 FEW023CB SCT025 BKN100 31/25 Q1009 NOSIG RMK A2980 CB NW
RPLL,2025-06-17 07:00,RPLL 170700Z 13007KT 060V190 9999 FEW025 BKN100 33/25 Q1008 NOSIG RMK A2977
RPLL,2025-06-17 08:00,RPLL 170800Z 16006KT 120V200 9999 FEW025 BKN100 32/24 Q1009 NOSIG RMK A2980
RPLL,2025-06-17 09:00,RPLL 170900Z VRB04KT 9999 FEW023CB SCT025 BKN100 30/26 Q1009 NOSIG RMK A2980 CB NW
RPLL,2025-06-17 10:00,RPLL 171000Z 28009KT 9999 -SHRA SCT023 OVC090 28/26 Q1010 NOSIG RMK A2983
RPLL,2025-06-17 11:00,RPLL 171100Z 23004KT 190V260 9999 -RA FEW022CB SCT023 OVC090 29/26 Q1010 NOSIG RMK A2983 CB N
RPLL,2025-06-17 12:00,RPLL 171200Z VRB02KT 9000 RA SCT023 OVC090 27/26 Q1011 NOSIG RMK A2985
RPLL,2025-06-17 13:00,RPLL 171300Z 00000KT 9999 -RA SCT023 OVC090 27/26 Q1011 RERA NOSIG RMK A2985
RPLL,2025-06-17 14:00,RPLL 171400Z 00000KT 9999 FEW025 BKN100 28/26 Q1012 NOSIG RMK A2988
RPLL,2025-06-17 15:00,RPLL 171500Z 28004KT 220V310 9999 FEW025 BKN100 28/27 Q1012 NOSIG RMK A2988
RPLL,2025-06-17 16:00,RPLL 171600Z 21005KT 180V250 7000 -SHRA FEW023CB SCT025 OVC090 26/26 Q1012 NOSIG RMK A2988 CB/OCNL LTG SW  NW
RPLL,2025-06-17 17:00,RPLL 171700Z 21003KT 160V250 7000 -RA FEW023CB SCT025 OVC090 26/26 Q1011 NOSIG RMK A2985 CB/OCNL LTG NW
RPLL,2025-06-17 18:00,RPLL 171800Z 04003KT 350V070 7000 -RA SCT023 OVC090 26/26 Q1010 NOSIG RMK A2983
RPLL,2025-06-17 19:00,RPLL 171900Z VRB01KT 9000 -RA SCT022 OVC090 26/26 Q1010 NOSIG RMK A2983
RPLL,2025-06-17 20:00,RPLL 172000Z VRB02KT 9999 SCT023 OVC100 26/26 Q1010 NOSIG RMK A2983
RPLL,2025-06-17 21:00,RPLL 172100Z 36004KT 340V060 9999 SCT023 OVC100 26/26 Q1011 NOSIG RMK A2985
RPLL,2025-06-17 22:00,RPLL 172200Z VRB02KT 9999 SCT023 OVC100 27/26 Q1011 NOSIG RMK A2985
RPLL,2025-06-17 23:00,RPLL 172300Z 09003KT 060V130 9999 SCT025 OVC100 27/26 Q1011 NOSIG RMK A2985
RPLL,2025-06-18 00:00,RPLL 180000Z 07004KT 050V130 9999 SCT025 OVC100 28/26 Q1011 NOSIG RMK A2985
RPLL,2025-06-18 01:00,RPLL 180100Z 11003KT 160V160 9000 SCT025 OVC100 29/26 Q1012 NOSIG RMK A2988
RPLL,2025-06-18 02:00,RPLL 180200Z 12007KT 080V160 9999 SCT025 OVC100 29/25 Q1012 NOSIG RMK A2988
RPLL,2025-06-18 03:00,RPLL 180300Z 12006KT 080V160 9999 SCT025 OVC100 30/25 Q1011 NOSIG RMK A2985
RPLL,2025-06-18 04:00,RPLL 180400Z 14006KT 080V190 9999 FEW025 OVC100 31/25 Q1011 NOSIG RMK A2985
RPLL,2025-06-18 05:00,RPLL 180500Z 11008KT 070V150 9999 FEW025 BKN100 32/25 Q1010 NOSIG RMK A2983
RPLL,2025-06-18 06:00,RPLL 180600Z 12007KT 070V170 9999 FEW025 BKN100 32/25 Q1009 NOSIG RMK A2980
RPLL,2025-06-18 07:00,RPLL 180700Z 11006KT 070V180 9999 SCT025 32/25 Q1009 NOSIG RMK A2980
RPLL,2025-06-18 08:00,RPLL 180800Z 23007KT 9999 FEW022CB SCT023 BKN100 29/25 Q1009 NOSIG RMK A2980 CB W
RPLL,2025-06-18 09:00,RPLL 180900Z 19006KT 170V230 9000 VCTS -SHRA FEW022CB SCT023 BKN100 27/27 Q1010 TEMPO 5000 TSRA RMK A2980 CB SE/S
RPLL,2025-06-18 09:13,RPLL 180913Z VRB03KT 5000 VCTS SHRA FEW020CB SCT023 OVC090 26/26 Q1010 TEMPO -TSRA RMK A2983 CB SE/S
RPLL,2025-06-18 10:00,RPLL 181000Z 25006KT 9999 SCT025 BKN100 27/27 Q1010 RESHRA NOSIG RMK A2983
RPLL,2025-06-18 11:00,RPLL 181100Z VRB03KT 9000 -SHRA FEW025 BKN100 28/27 Q1011 NOSIG RMK A2985
RPLL,2025-06-18 12:00,RPLL 181200Z VRB02KT 9000 SCT025 BKN100 28/27 Q1011 NOSIG RMK A2985
RPLL,2025-06-18 13:00,RPLL 181300Z VRB02KT 9999 FEW025 BKN100 27/26 Q1011 NOSIG RMK A2985
RPLL,2025-06-18 14:00,RPLL 181400Z VRB02KT 9999 SCT025 BKN100 28/26 Q1012 NOSIG RMK A2988
RPLL,2025-06-18 15:00,RPLL 181500Z VRB02KT 9999 FEW025 27/26 Q1011 NOSIG RMK A2985
RPLL,2025-06-18 16:00,RPLL 181600Z VRB01KT 9999 FEW025 27/26 Q1011 NOSIG RMK A2985
RPLL,2025-06-18 17:00,RPLL 181700Z VRB02KT 9000 FEW025 27/26 Q1010 NOSIG RMK A2983
RPLL,2025-06-18 18:00,RPLL 181800Z 22002KT 9999 FEW025 SCT100 27/26 Q1010 NOSIG RMK A2983
RPLL,2025-06-18 19:00,RPLL 181900Z VRB02KT 9999 FEW025 27/26 Q1009 NOSIG RMK A2980
RPLL,2025-06-18 20:00,RPLL 182000Z 25003KT 9999 FEW025 27/26 Q1009 NOSIG RMK A2980
RPLL,2025-06-18 21:00,RPLL 182100Z 00000KT 9000 FEW025 26/26 Q1010 NOSIG RMK A2983
RPLL,2025-06-18 22:00,RPLL 182200Z 02003KT 330V080 9000 FEW025 28/26 Q1010 NOSIG RMK A2983
RPLL,2025-06-18 23:00,RPLL 182300Z VRB02KT 9999 FEW025 28/26 Q1011 NOSIG RMK A2985
RPLL,2025-06-19 00:00,RPLL 190000Z VRB02KT 9999 FEW025 SCT100 30/25 Q1011 NOSIG RMK A2985
RPLL,2025-06-19 01:00,RPLL 190100Z 10004KT 060V150 9999 FEW025 SCT100 30/25 Q1011 NOSIG RMK A2985
RPLL,2025-06-19 02:00,RPLL 190200Z 10007KT 050V150 9999 FEW025 BKN100 31/25 Q1011 NOSIG RMK A2985
RPLL,2025-06-19 03:00,RPLL 190300Z 11008KT 070V130 9999 FEW025 BKN100 31/24 Q1011 NOSIG RMK A2985
RPLL,2025-06-19 04:00,RPLL 190400Z 12006KT 060V170 9999 FEW025 BKN100 31/25 Q1010 NOSIG RMK A2983
RPLL,2025-06-19 05:00,RPLL 190500Z 11005KT 070V160 9999 FEW025 BKN100 32/25 Q1010 NOSIG RMK A2983
RPLL,2025-06-19 06:00,RPLL 190600Z 11007KT 070V140 9999 FEW025 SCT100 32/25 Q1009 NOSIG RMK A2980
RPLL,2025-06-19 07:00,RPLL 190700Z 09007KT 060V130 9999 FEW025 SCT100 32/24 Q1009 NOSIG RMK A2980
RPLL,2025-06-19 08:00,RPLL 190800Z 09006KT 060V120 9999 FEW025 BKN100 32/24 Q1009 NOSIG RMK A2980
RPLL,2025-06-19 09:00,RPLL 190900Z 09004KT 040V170 9999 FEW025 BKN100 31/24 Q1009 NOSIG RMK A2980
RPLL,2025-06-19 10:00,RPLL 191000Z 12003KT 090V160 9999 FEW025 BKN100 31/24 Q1009 NOSIG RMK A2980
RPLL,2025-06-19 11:00,RPLL 191100Z 18004KT 9999 FEW025 SCT100 30/25 Q1010 NOSIG RMK A2983
RPLL,2025-06-19 12:00,RPLL 191200Z 14003KT 090V180 9999 FEW025 30/25 Q1010 NOSIG RMK A2983
RPLL,2025-06-19 13:00,RPLL 191300Z 13003KT 100V170 9999 FEW025 30/25 Q1011 NOSIG RMK A2985
RPLL,2025-06-19 14:00,RPLL 191400Z 13003KT 9999 FEW025 29/25 Q1011 NOSIG RMK A2985
RPLL,2025-06-19 15:00,RPLL 191500Z 08003KT 050V110 9999 FEW025 29/26 Q1011 NOSIG RMK A2985
RPLL,2025-06-19 16:00,RPLL 191600Z 11002KT 9999 FEW025 SCT100 29/25 Q1011 NOSIG RMK A2985
RPLL,2025-06-19 17:00,RPLL 191700Z 12003KT 090V160 9999 FEW025 SCT100 29/25 Q1011 NOSIG RMK A2985
RPLL,2025-06-19 18:00,RPLL 191800Z VRB01KT 9999 FEW025 SCT100 28/26 Q1010 NOSIG RMK A2983
RPLL,2025-06-19 19:00,RPLL 191900Z VRB02KT 9999 FEW025 SCT130 28/26 Q1009 NOSIG RMK A2980
RPLL,2025-06-19 20:00,RPLL 192000Z VRB01KT 9999 FEW025 BKN100 27/25 Q1009 NOSIG RMK A2980
RPLL,2025-06-19 21:00,RPLL 192100Z VRB02KT 9999 FEW025 BKN100 28/26 Q1010 NOSIG RMK A2983
RPLL,2025-06-19 22:00,RPLL 192200Z VRB02KT 9999 FEW025 BKN100 28/25 Q1011 NOSIG RMK A2985
RPLL,2025-06-19 23:00,RPLL 192300Z VRB02KT 9999 FEW025 BKN100 28/26 Q1011 NOSIG RMK A2985
RPLL,2025-06-20 00:00,RPLL 200000Z VRB01KT 9999 FEW025 BKN100 29/26 Q1011 NOSIG RMK A2985
RPLL,2025-06-20 01:00,RPLL 200100Z 10006KT 060V150 9999 FEW025 BKN100 30/25 Q1011 NOSIG RMK A2985
RPLL,2025-06-20 02:00,RPLL 200200Z 13006KT 010V180 9999 FEW025 BKN100 31/25 Q1011 NOSIG RMK A2985
RPLL,2025-06-20 03:00,RPLL 200300Z 12007KT 070V180 9999 FEW025 BKN100 31/25 Q1011 NOSIG RMK A2985
RPLL,2025-06-20 04:00,RPLL 200400Z 11007KT 060V160 9999 FEW025 BKN100 32/25 Q1010 NOSIG RMK A2983
RPLL,2025-06-20 05:00,RPLL 200500Z 11007KT 070V160 9999 FEW025 BKN100 32/25 Q1009 NOSIG RMK A2980
RPLL,2025-06-20 06:00,RPLL 200600Z 13005KT 060V200 9999 FEW025 BKN100 34/25 Q1009 NOSIG RMK A2980
RPLL,2025-06-20 07:00,RPLL 200700Z 11006KT 060V180 9999 SCT025 34/24 Q1008 NOSIG RMK A2977
RPLL,2025-06-20 08:00,RPLL 200800Z 14005KT 080V210 9999 FEW025 34/25 Q1008 NOSIG RMK A2977
RPLL,2025-06-20 09:00,RPLL 200900Z 17006KT 130V200 9999 FEW025 33/24 Q1008 NOSIG RMK A2977
RPLL,2025-06-20 10:00,RPLL 201000Z 17004KT 120V200 9999 FEW025 SCT100 32/25 Q1008 NOSIG RMK A2977
RPLL,2025-06-20 11:00,RPLL 201100Z 13004KT 080V180 9999 FEW025 SCT150 31/26 Q1009 NOSIG RMK A2980
RPLL,2025-06-20 12:00,RPLL 201200Z 14003KT 100V170 9999 FEW025 31/25 Q1010 NOSIG RMK A2983
RPLL,2025-06-20 13:00,RPLL 201300Z 16005KT 120V190 9999 FEW023CB 30/26 Q1011 NOSIG RMK A2985 CB/OCNL LTG W N
RPLL,2025-06-20 14:00,RPLL 201400Z 13004KT 080V160 9999 FEW023CB 30/26 Q1011 NOSIG RMK A2985 CB/OCNL LTG SW W-NW
RPLL,2025-06-20 15:00,RPLL 201500Z 14004KT 100V180 9999 FEW023CB 30/25 Q1011 NOSIG RMK A2985 CB/OCNL LTG SW NW
RPLL,2025-06-20 16:00,RPLL 201600Z 13003KT 090V180 9999 FEW023CB SCT100 29/25 Q1011 NOSIG RMK A2985 CB/OCNL LTG SW NW
RPLL,2025-06-20 17:00,RPLL 201700Z VRB02KT 9999 FEW023CB BKN100 29/26 Q1011 NOSIG RMK A2985 CB/OCNL LTG SW
RPLL,2025-06-20 18:00,RPLL 201800Z VRB02KT 9999 FEW023CB SCT025 BKN100 28/26 Q1010 NOSIG RMK A2985 CB/OCNL LTG E
RPLL,2025-06-20 19:00,RPLL 201900Z VRB01KT 9999 FEW025 SCT100 28/26 Q1010 NOSIG RMK A2983
RPLL,2025-06-20 20:00,RPLL 202000Z 03005KT 350V050 9999 FEW025 28/24 Q1010 NOSIG RMK A2983
RPLL,2025-06-20 21:00,RPLL 202100Z 17002KT 9999 FEW025 28/24 Q1010 NOSIG RMK A2983
RPLL,2025-06-20 22:00,RPLL 202200Z VRB01KT 9999 FEW025 BKN130 28/25 Q1011 NOSIG RMK A2985
RPLL,2025-06-20 23:00,RPLL 202300Z 21003KT 180V240 9999 FEW025 29/25 Q1011 NOSIG RMK A2985
RPLL,2025-06-21 00:00,RPLL 210000Z VRB02KT 9999 FEW025 31/25 Q1011 NOSIG RMK A2985
RPLL,2025-06-21 01:00,RPLL 210100Z 14006KT 060V220 9999 FEW025 32/25 Q1011 NOSIG RMK A2985
RPLL,2025-06-21 02:00,RPLL 210200Z 13005KT 070V240 9999 FEW025 32/25 Q1011 NOSIG RMK A2985
RPLL,2025-06-21 03:00,RPLL 210300Z 14007KT 080V200 9999 FEW025 33/25 Q1010 NOSIG RMK A2983
RPLL,2025-06-21 04:00,RPLL 210400Z 12007KT 080V160 9999 FEW025 34/24 Q1010 NOSIG RMK A2983
RPLL,2025-06-21 05:00,RPLL 210500Z 13006KT 080V180 9999 SCT025 34/24 Q1009 NOSIG RMK A2980
RPLL,2025-06-21 06:00,RPLL 210600Z 14006KT 090V190 9999 FEW023CB SCT025 34/25 Q1007 NOSIG RMK A2974 CB N/SW
RPLL,2025-06-21 07:00,RPLL 210700Z 28010KT 250V330 9999 FEW025 BKN100 33/27 Q1007 NOSIG RMK A2974
RPLL,2025-06-21 08:00,RPLL 210800Z 26009KT 230V290 9999 FEW023CB SCT025 BKN100 32/26 Q1007 NOSIG RMK A2974 CB S-SW
RPLL,2025-06-21 09:00,COR RPLL 210900Z 23009KT 200V260 9999 TS VCSH FEW022CB SCT023 OVC090 29/24 Q1009 RETS NOSIG RMK A2980 CB/VCSH NW-N/OHD
RPLL,2025-06-21 09:20,RPLL 210920Z 34007KT 290V030 8000 -TSRA SCT018CB SCT020 OVC080 28/25 Q1009 TEMPO 5000 TSRA RMK A2980 CB OHD/NW-N
RPLL,2025-06-21 10:00,RPLL 211000Z 28006KT 9999 SCT023 BKN100 27/26 Q1009 NOSIG RMK A2980
RPLL,2025-06-21 10:38,RPLL 211038Z 26004KT 230V300 9999 -SHRA FEW020CB SCT023 OVC100 28/25 Q1010 NOSIG RMK A2983 CB SE
RPLL,2025-06-21 11:00,RPLL 211100Z 36005KT 330V040 9999 -SHRA FEW020CB SCT023 OVC100 28/26 Q1010 NOSIG RMK A2983 CB E-SE
RPLL,2025-06-21 12:00,RPLL 211200Z VRB02KT 9999 FEW025 OVC100 28/26 Q1011 NOSIG RMK A2985
RPLL,2025-06-21 13:00,RPLL 211300Z VRB02KT 8000 -RA SCT022 OVC090 28/27 Q1011 NOSIG RMK A2985
RPLL,2025-06-21 14:00,RPLL 211400Z VRB02KT 9999 FEW025 BKN100 28/27 Q1012 NOSIG RMK A2988
RPLL,2025-06-21 15:00,RPLL 211500Z VRB02KT 9999 FEW023CB BKN100 28/27 Q1012 NOSIG RMK A2988 CB/OCNL LTG W
RPLL,2025-06-21 16:00,RPLL 211600Z 00000KT 9999 FEW023CB SCT100 28/27 Q1011 NOSIG RMK A2985 CB/OCNL LTG W
RPLL,2025-06-21 17:00,COR RPLL 211700Z 00000KT 9999 FEW025 BKN100 28/27 Q1011 NOSIG RMK A2985
RPLL,2025-06-21 18:00,RPLL 211800Z 25005KT 9999 SCT023 OVC100 28/27 Q1010 NOSIG RMK A2983
RPLL,2025-06-21 19:00,RPLL 211900Z 29003KT 260V320 9000 -TSRA FEW020CB SCT023 OVC100 28/27 Q1010 NOSIG RMK A2983 CB/OCNL LTG NE-E/OHD
RPLL,2025-06-21 20:00,RPLL 212000Z 03004KT 340V070 9999 FEW025 OVC100 25/24 Q1010 RETS NOSIG RMK A2983
RPLL,2025-06-21 21:00,RPLL 212100Z 02004KT 320V080 9999 FEW025 OVC100 26/24 Q1010 NOSIG RMK A2983
RPLL,2025-06-21 22:00,RPLL 212200Z VRB02KT 9999 FEW023CB SCT025 OVC100 26/25 Q1011 NOSIG RMK A2985 CB W
RPLL,2025-06-21 22:22,RPLL 212222Z VRB02KT 9999 -SHRA SCT025 OVC100 27/25 Q1011 NOSIG RMK A2985
RPLL,2025-06-21 23:00,RPLL 212300Z VRB02KT 9999 FEW025 OVC100 28/26 Q1011 NOSIG RMK A2985
RPLL,2025-06-22 00:00,RPLL 220000Z VRB02KT 9999 FEW025 BKN100 28/26 Q1011 NOSIG RMK A2985
RPLL,2025-06-22 01:00,RPLL 220100Z 33003KT 280V030 9999 FEW025 BKN100 29/27 Q1011 NOSIG RMK A2985
RPLL,2025-06-22 02:00,RPLL 220200Z VRB04KT 9000 FEW025 BKN100 30/26 Q1010 NOSIG RMK A2983
RPLL,2025-06-22 03:00,RPLL 220300Z 29006KT 250V330 9000 FEW025 BKN100 30/26 Q1010 NOSIG RMK A2983
RPLL,2025-06-22 04:00,RPLL 220400Z 27008KT 8000 FEW025 BKN100 30/26 Q1010 NOSIG RMK A2983
RPLL,2025-06-22 05:00,RPLL 220500Z 28007KT 250V320 9000 FEW023CB SCT025 SCT100 32/27 Q1009 NOSIG RMK A2980 CB S
RPLL,2025-06-22 06:00,RPLL 220600Z 25009KT 210V270 9000 -SHRA FEW023CB SCT025 BKN100 29/26 Q1009 NOSIG RMK A2980 CB SW
RPLL,2025-06-22 07:00,RPLL 220700Z 16003KT 100V190 9999 FEW023CB SCT025 BKN100 29/24 Q1008 NOSIG RMK A2977 CB N/NE
RPLL,2025-06-22 08:00,RPLL 220800Z VRB02KT 9999 SCT025 BKN100 29/25 Q1008 NOSIG RMK A2977
RPLL,2025-06-22 09:00,RPLL 220900Z 13003KT 080V180 9999 SCT025 BKN100 30/23 Q1008 NOSIG RMK A2977
RPLL,2025-06-22 10:00,RPLL 221000Z 13004KT 9999 SCT025 OVC100 29/24 Q1008 NOSIG RMK A2977
RPLL,2025-06-22 10:23,RPLL 221023Z 15004KT 090V190 9999 -SHRA SCT023 OVC100 29/25 Q1009 NOSIG RMK A2980
RPLL,2025-06-22 11:00,RPLL 221100Z 22003KT 9000 -RA SCT023 OVC090 28/27 Q1009 NOSIG RMK A2980
RPLL,2025-06-22 12:00,RPLL 221200Z 22005KT 8000 -RA SCT020 OVC080 27/27 Q1010 NOSIG RMK A2983
RPLL,2025-06-22 13:00,RPLL 221300Z 18004KT 150V220 8000 -RA SCT022 OVC080 26/26 Q1011 NOSIG RMK A2985
RPLL,2025-06-22 14:00,RPLL 221400Z VRB02KT 9000 -RA SCT023 OVC090 26/26 Q1010 NOSIG RMK A2983
RPLL,2025-06-22 15:00,COR RPLL 221500Z VRB02KT 9999 SCT023 OVC100 27/27 Q1011 NOSIG RMK A2985
RPLL,2025-06-22 16:00,RPLL 221600Z 06003KT 020V090 9999 -RA SCT023 OVC100 27/26 Q1010 NOSIG RMK A2983
RPLL,2025-06-22 17:00,RPLL 221700Z VRB02KT 9999 SCT023 OVC100 27/26 Q1009 NOSIG RMK A2980
RPLL,2025-06-22 18:00,RPLL 221800Z 00000KT 9999 -RA SCT022 OVC100 27/26 Q1008 NOSIG RMK A2977
RPLL,2025-06-22 19:00,RPLL 221900Z VRB02KT 9999 SCT023 OVC100 26/26 Q1008 NOSIG RMK A2977
RPLL,2025-06-22 20:00,RPLL 222000Z VRB01KT 9000 SCT023 OVC100 26/26 Q1008 NOSIG RMK A2977
RPLL,2025-06-22 21:00,RPLL 222100Z 00000KT 9000 SCT023 OVC100 26/26 Q1009 NOSIG RMK A2980
RPLL,2025-06-22 22:00,RPLL 222200Z VRB02KT 9000 SCT025 BKN100 27/26 Q1009 NOSIG RMK A2980
RPLL,2025-06-22 23:00,RPLL 222300Z VRB01KT 9000 SCT025 BKN100 27/26 Q1009 NOSIG RMK A2980
RPLL,2025-06-23 00:00,RPLL 230000Z VRB01KT 8000 SCT023 OVC090 28/26 Q1010 NOSIG RMK A2983
RPLL,2025-06-23 01:00,RPLL 230100Z VRB02KT 9000 SCT023 OVC100 29/25 Q1010 NOSIG RMK A2983
RPLL,2025-06-23 02:00,RPLL 230200Z 29004KT 9000 SCT023 OVC100 29/26 Q1010 NOSIG RMK A2983
RPLL,2025-06-23 03:00,RPLL 230300Z 29006KT 9000 SCT025 OVC100 29/25 Q1009 NOSIG RMK A2980
RPLL,2025-06-23 04:00,RPLL 230400Z 29006KT 9000 SCT025 BKN100 30/26 Q1009 NOSIG RMK A2980
RPLL,2025-06-23 05:00,RPLL 230500Z 29008KT 250V310 9000 FEW025 BKN100 30/26 Q1008 NOSIG RMK A2977
RPLL,2025-06-23 06:00,RPLL 230600Z 27009KT 9999 FEW025 BKN100 29/26 Q1007 NOSIG RMK A2974
RPLL,2025-06-23 06:11,RPLL 230611Z 27007KT 230V300 9000 -SHRA SCT023 BKN100 28/27 Q1007 NOSIG RMK A2974
RPLL,2025-06-23 07:00,RPLL 230700Z 06010KT 9000 -TSRA FEW022CB SCT023 OVC090 27/26 Q1008 NOSIG RMK A2977 CB NE/SE-S
RPLL,2025-06-23 08:00,RPLL 230800Z 07003KT 020V130 9000 -RA FEW020CB SCT022 OVC090 25/25 Q1008 RETS NOSIG RMK A2977 CB W
RPLL,2025-06-23 09:00,RPLL 230900Z VRB01KT 9000 -RA SCT022 OVC090 25/25 Q1008 NOSIG RMK A2977
RPLL,2025-06-23 10:00,RPLL 231000Z 10003KT 060V130 9000 -RA SCT022 OVC090 26/26 Q1008 NOSIG RMK A2977
RPLL,2025-06-23 11:00,RPLL 231100Z 12003KT 090V160 9000 SCT023 OVC090 26/26 Q1008 NOSIG RMK A2977
RPLL,2025-06-23 12:00,RPLL 231200Z VRB02KT 9999 -RA SCT023 OVC090 26/26 Q1009 NOSIG RMK A2980
RPLL,2025-06-23 13:00,RPLL 231300Z 00000KT 9999 FEW025 BKN100 26/26 Q1009 NOSIG RMK A2980
RPLL,2025-06-23 14:00,RPLL 231400Z VRB02KT 9999 FEW025 26/26 Q1009 RMK A2980
RPLL,2025-06-23 15:00,RPLL 231500Z VRB02KT 9999 FEW025 SCT100 26/26 Q1009 NOSIG RMK A2980
RPLL,2025-06-23 16:00,RPLL 231600Z 21002KT 9000 FEW025 BKN100 26/26 Q1009 NOSIG RMK A2980
RPLL,2025-06-23 17:00,RPLL 231700Z VRB02KT 9000 SCT023 BKN100 26/26 Q1009 NOSIG RMK A2980
RPLL,2025-06-23 18:00,RPLL 231800Z 08002KT 9000 FEW023 BKN100 26/26 Q1008 NOSIG RMK A2977
RPLL,2025-06-23 19:00,RPLL 231900Z 08003KT 9000 FEW025 BKN100 26/26 Q1008 NOSIG RMK A2977
RPLL,2025-06-23 20:00,RPLL 232000Z VRB02KT 9000 FEW025 26/25 Q1008 NOSIG RMK A2977
RPLL,2025-06-23 21:00,RPLL 232100Z 00000KT 9000 FEW025 BKN100 26/25 Q1008 NOSIG RMK A2977
RPLL,2025-06-23 22:00,RPLL 232200Z VRB02KT 9999 FEW025 SCT100 26/26 Q1008 NOSIG RMK A2977
RPLL,2025-06-23 23:00,RPLL 232300Z VRB02KT 9999 FEW025 SCT100 28/26 Q1009 NOSIG RMK A2980
RPLL,2025-06-24 00:00,RPLL 240000Z 15003KT 080V220 9999 FEW025 30/25 Q1009 NOSIG RMK A2980
RPLL,2025-06-24 01:00,RPLL 240100Z 13005KT 050V190 9999 FEW025 31/25 Q1009 NOSIG RMK A2980
RPLL,2025-06-24 02:00,RPLL 240200Z 12006KT 060V170 9999 FEW025 31/25 Q1009 NOSIG RMK A2980
RPLL,2025-06-24 03:00,RPLL 240300Z 12007KT 050V180 9999 FEW025 32/25 Q1009 NOSIG RMK A2980
RPLL,2025-06-24 04:00,RPLL 240400Z VRB05KT 9999 FEW025 33/24 Q1009 NOSIG RMK A2980
RPLL,2025-06-24 05:00,RPLL 240500Z 14007KT 090V180 9999 FEW023CB SCT025 34/24 Q1008 NOSIG RMK A2977 CB W
RPLL,2025-06-24 06:00,RPLL 240600Z 24010KT 200V260 9000 TS VCSH FEW022CB SCT023 BKN100 28/25 Q1007 TEMPO 5000 TSRA RMK A2977 CB/VCSH S  OHD
RPLL,2025-06-24 07:00,RPLL 240700Z 25009KT 9000 VCSH FEW022CB SCT023 BKN100 28/26 Q1007 RETS NOSIG RMK A2974 CB/VCSH SW
RPLL,2025-06-24 08:00,RPLL 240800Z 23006KT 9999 SCT022CB SCT023 BKN100 27/24 Q1008 NOSIG RMK A2977 CB SW/W
RPLL,2025-06-24 09:00,RPLL 240900Z 23009KT 9999 -SHRA FEW022CB SCT023 BKN100 27/24 Q1008 NOSIG RMK A2977 CB S-SW
RPLL,2025-06-24 10:00,RPLL 241000Z 23004KT 200V260 9999 -RA SCT023 BKN100 27/25 Q1009 NOSIG RMK A2980
RPLL,2025-06-24 11:00,RPLL 241100Z VRB01KT 9999 SCT023 BKN100 27/25 Q1009 NOSIG RMK A2980
RPLL,2025-06-24 12:00,RPLL 241200Z 00000KT 9999 SCT025 BKN100 27/25 Q1009 NOSIG RMK A2980
RPLL,2025-06-24 13:00,RPLL 241300Z 00000KT 9999 FEW025 SCT100 27/25 Q1010 NOSIG RMK A2983
RPLL,2025-06-24 14:00,RPLL 241400Z VRB01KT 9999 FEW025 BKN150 27/24 Q1011 NOSIG RMK A2985
RPLL,2025-06-24 15:00,RPLL 241500Z VRB02KT 9999 FEW025 27/25 Q1011 NOSIG RMK A2985
RPLL,2025-06-24 16:00,RPLL 241600Z 00000KT 9999 FEW025 27/26 Q1011 NOSIG RMK A2985
RPLL,2025-06-24 17:00,RPLL 241700Z VRB01KT 9999 FEW025 SCT100 27/26 Q1010 NOSIG RMK A2983
RPLL,2025-06-24 18:00,RPLL 241800Z VRB01KT 9999 FEW025 BKN100 27/26 Q1009 NOSIG RMK A2980
RPLL,2025-06-24 19:00,RPLL 241900Z 00000KT 9999 SCT025 BKN100 27/26 Q1010 NOSIG RMK A2983
RPLL,2025-06-24 20:00,COR RPLL 242000Z VRB02KT 9999 SCT025 BKN100 27/26 Q1009 NOSIG RMK A2980
RPLL,2025-06-24 21:00,RPLL 242100Z VRB01KT 9999 SCT025 27/26 Q1009 NOSIG RMK A2980
RPLL,2025-06-24 22:00,RPLL 242200Z VRB01KT 9999 FEW025 27/26 Q1009 NOSIG RMK A2980
RPLL,2025-06-24 23:00,RPLL 242300Z VRB01KT 9999 FEW025 28/26 Q1010 NOSIG RMK A2983
RPLL,2025-06-25 00:00,RPLL 250000Z 16004KT 090V210 9999 FEW025 29/26 Q1010 NOSIG RMK A2983
RPLL,2025-06-25 01:00,RPLL 250100Z 12003KT 040V190 9999 FEW025 31/26 Q1011 NOSIG RMK A2985
RPLL,2025-06-25 02:00,RPLL 250200Z VRB03KT 9999 FEW025 32/24 Q1010 NOSIG RMK A2983
RPLL,2025-06-25 03:00,RPLL 250300Z VRB04KT 9999 FEW025 31/24 Q1010 NOSIG RMK A2983
RPLL,2025-06-25 04:00,RPLL 250400Z 26005KT 240V330 9999 FEW025 32/25 Q1010 NOSIG RMK A2983
RPLL,2025-06-25 05:00,RPLL 250500Z 28008KT 250V310 9999 FEW025 32/26 Q1009 NOSIG RMK A2980
RPLL,2025-06-25 06:00,RPLL 250600Z 27010KT 9999 FEW025 BKN100 31/26 Q1008 NOSIG RMK A2977
RPLL,2025-06-25 07:00,RPLL 250700Z 27011KT 9999 FEW025 BKN100 31/25 Q1008 NOSIG RMK A2977
RPLL,2025-06-25 08:00,RPLL 250800Z 26011KT 9999 FEW025 BKN100 31/25 Q1008 NOSIG RMK A2977
RPLL,2025-06-25 09:00,RPLL 250900Z 26012KT 9999 FEW023CB SCT025 BKN100 30/25 Q1008 TEMPO -TSRA RMK A2977 CB/OCNL LTG SE-S
RPLL,2025-06-25 10:00,RPLL 251000Z 23004KT 9999 -SHRA FEW022CB SCT023 OVC090 29/26 Q1009 TEMPO 5000 TSRA RMK A2980 CB/OCNL LTG E-SE
RPLL,2025-06-25 11:00,RPLL 251100Z 14003KT 100V180 9000 -RA FEW022CB SCT023 OVC100 27/27 Q1010 NOSIG RMK A2983 CB/OCNL LTG NE
RPLL,2025-06-25 12:00,RPLL 251200Z VRB02KT 9000 FEW025 OVC100 28/27 Q1010 NOSIG RMK A2983
RPLL,2025-06-25 13:00,RPLL 251300Z 09003KT 040V140 9999 FEW025 BKN100 28/27 Q1011 NOSIG RMK A2985
RPLL,2025-06-25 14:00,RPLL 251400Z 06003KT 020V080 9999 FEW025 27/26 Q1011 NOSIG RMK A2985
RPLL,2025-06-25 15:00,RPLL 251500Z 09002KT 9999 FEW025 BKN100 28/26 Q1012 NOSIG RMK A2988
RPLL,2025-06-25 16:00,RPLL 251600Z VRB02KT 9999 FEW025 BKN100 27/26 Q1011 NOSIG RMK A2985
RPLL,2025-06-25 17:00,RPLL 251700Z VRB01KT 9999 FEW025 BKN100 27/26 Q1011 NOSIG RMK A2985
RPLL,2025-06-25 18:00,RPLL 251800Z VRB02KT 9999 FEW025 BKN100 27/26 Q1010 NOSIG RMK A2983
RPLL,2025-06-25 19:00,RPLL 251900Z VRB02KT 9999 FEW025 BKN150 27/26 Q1010 NOSIG RMK A2983
RPLL,2025-06-25 20:00,RPLL 252000Z VRB02KT 9999 FEW025 27/26 Q1009 NOSIG RMK A2980
RPLL,2025-06-25 21:00,RPLL 252100Z VRB02KT 9999 FEW025 SCT100 27/26 Q1009 NOSIG RMK A2980
RPLL,2025-06-25 22:00,RPLL 252200Z VRB01KT 9999 FEW025 27/26 Q1010 NOSIG RMK A2983
RPLL,2025-06-25 23:00,RPLL 252300Z VRB02KT 9999 FEW025 29/26 Q1010 NOSIG RMK A2983
RPLL,2025-06-26 00:00,RPLL 260000Z VRB02KT 9999 FEW025 30/26 Q1010 NOSIG RMK A2983
RPLL,2025-06-26 01:00,RPLL 260100Z 27007KT 9999 FEW025 SCT100 29/26 Q1011 NOSIG RMK A2985
RPLL,2025-06-26 02:00,RPLL 260200Z 29006KT 270V350 9000 -SHRA SCT025 BKN100 29/26 Q1011 NOSIG RMK A2985
RPLL,2025-06-26 02:15,RPLL 260215Z 02007KT 340V070 6000 TSRA FEW022CB SCT023 OVC090 27/27 Q1011 NOSIG RMK A2985 CB OHD
RPLL,2025-06-26 03:00,RPLL 260300Z 27004KT 240V330 9000 -RA FEW022CB SCT023 OVC090 27/27 Q1011 RETSRA NOSIG RMK A2985 CB N SW
RPLL,2025-06-26 04:00,RPLL 260400Z 26008KT 9999 -RA FEW022CB SCT023 OVC100 27/26 Q1010 NOSIG RMK A2983 CB S-SW
RPLL,2025-06-26 05:00,RPLL 260500Z 28004KT 250V320 9999 FEW025 BKN100 30/25 Q1009 NOSIG RMK A2980
RPLL,2025-06-26 06:00,RPLL 260600Z 26008KT 210V300 9999 FEW023CB SCT025 BKN100 30/26 Q1009 NOSIG RMK A2980 CB S
RPLL,2025-06-26 07:00,RPLL 260700Z 26011KT 9999 FEW023CB SCT023 BKN100 30/25 Q1008 NOSIG RMK A2977 CB S
RPLL,2025-06-26 08:00,RPLL 260800Z 26012KT 9999 FEW025 BKN100 30/26 Q1008 NOSIG RMK A2977
RPLL,2025-06-26 09:00,RPLL 260900Z 26011KT 9999 FEW025 BKN100 30/26 Q1008 NOSIG RMK A2977
RPLL,2025-06-26 10:00,RPLL 261000Z 26009KT 9999 SCT025 BKN100 29/26 Q1009 NOSIG RMK A2980
RPLL,2025-06-26 11:00,RPLL 261100Z 23004KT 190V260 9999 SCT025 BKN100 30/26 Q1009 NOSIG RMK A2980
RPLL,2025-06-26 12:00,RPLL 261200Z 25006KT 9999 FEW025 SCT100 29/26 Q1009 NOSIG RMK A2980
RPLL,2025-06-26 13:00,RPLL 261300Z 23006KT 190V260 9999 FEW025 28/26 Q1010 NOSIG RMK A2983
RPLL,2025-06-26 14:00,RPLL 261400Z VRB02KT 9999 FEW023CB SCT100 28/26 Q1011 NOSIG RMK A2985 CB/OCNL LTG NE
RPLL,2025-06-26 15:00,RPLL 261500Z 19004KT 160V220 9999 FEW023CB SCT100 28/26 Q1011 NOSIG RMK A2985 CB/OCNL LTG N-NE
RPLL,2025-06-26 16:00,RPLL 261600Z VRB02KT 9999 FEW023CB BKN100 28/26 Q1010 NOSIG RMK A2983 CB/OCNL LTG NW-N
RPLL,2025-06-26 17:00,RPLL 261700Z VRB02KT 9999 SCT023 BKN100 28/26 Q1010 NOSIG RMK A2983
RPLL,2025-06-26 18:00,RPLL 261800Z VRB02KT 9999 SCT023 BKN100 27/25 Q1009 NOSIG RMK A2980
RPLL,2025-06-26 19:00,RPLL 261900Z VRB02KT 9999 FEW023CB BKN100 27/25 Q1009 NOSIG RMK A2980 CB/OCNL LTG NW
RPLL,2025-06-26 20:00,RPLL 262000Z 36006KT 330V040 9999 FEW022CB SCT023 OVC090 27/25 Q1010 NOSIG RMK A2983 CB/OCNL LTG W-NW
RPLL,2025-06-26 21:00,RPLL 262100Z VRB03KT 9999 FEW025 BKN100 27/25 Q1010 NOSIG RMK A2983
RPLL,2025-06-26 22:00,RPLL 262200Z VRB02KT 9999 FEW025 SCT100 27/25 Q1009 NOSIG RMK A2980
RPLL,2025-06-26 23:00,RPLL 262300Z VRB02KT 9999 FEW025 28/25 Q1010 NOSIG RMK A2983
RPLL,2025-06-27 00:00,RPLL 270000Z 06004KT 030V110 9999 FEW025 29/25 Q1009 NOSIG RMK A2980
RPLL,2025-06-27 01:00,RPLL 270100Z 27007KT 9999 FEW025 SCT100 29/25 Q1009 NOSIG RMK A2980
RPLL,2025-06-27 02:00,RPLL 270200Z 29006KT 9999 SCT025 30/27 Q1010 NOSIG RMK A2983
RPLL,2025-06-27 03:00,RPLL 270300Z 31007KT 280V350 9999 SCT025 30/26 Q1010 NOSIG RMK A2983
RPLL,2025-06-27 04:00,RPLL 270400Z 27007KT 240V300 9999 SCT025 30/26 Q1009 NOSIG RMK A2980
RPLL,2025-06-27 05:00,RPLL 270500Z VRB08KT 9999 SCT025 31/27 Q1008 NOSIG RMK A2977
RPLL,2025-06-27 06:00,RPLL 270600Z 26014KT 240V310 9999 FEW023CB SCT025 31/26 Q1007 NOSIG RMK A2974 CB SE
RPLL,2025-06-27 07:00,RPLL 270700Z 26015KT 9999 FEW023CB SCT025 BKN100 30/26 Q1007 NOSIG RMK A2974 CB SE
RPLL,2025-06-27 08:00,RPLL 270800Z 26013KT 9999 FEW025 BKN100 30/26 Q1007 NOSIG RMK A2974
RPLL,2025-06-27 09:00,RPLL 270900Z 26012KT 9999 FEW025 BKN100 30/27 Q1007 NOSIG RMK A2974
RPLL,2025-06-27 10:00,RPLL 271000Z 24009KT 9999 FEW025 BKN100 30/25 Q1008 NOSIG RMK A2977
RPLL,2025-06-27 11:00,RPLL 271100Z 24007KT 210V270 9999 FEW025 BKN100 29/26 Q1009 NOSIG RMK A2980
RPLL,2025-06-27 12:00,RPLL 271200Z 25007KT 200V280 9999 FEW025 BKN100 29/26 Q1009 NOSIG RMK A2980
RPLL,2025-06-27 13:00,RPLL 271300Z 23006KT 9999 FEW025 BKN100 29/26 Q1010 NOSIG RMK A2983
RPLL,2025-06-27 14:00,RPLL 271400Z 22004KT 180V250 9999 FEW023CB BKN100 29/26 Q1010 NOSIG RMK A2983 CB/OCNL LTG N
RPLL,2025-06-27 15:00,COR RPLL 271500Z 30008KT 160V330 9000 -SHRA FEW022CB SCT023 BKN090 28/26 Q1010 NOSIG RMK A2983 CB/OCNL LTG N
RPLL,2025-06-27 16:00,RPLL 271600Z 06005KT 030V100 9000 -RA SCT023 OVC090 26/26 Q1010 NOSIG RMK A2983
RPLL,2025-06-27 17:00,RPLL 271700Z 22004KT 180V250 9000 -RA SCT023 OVC090 26/26 Q1009 NOSIG RMK A2980
RPLL,2025-06-27 18:00,RPLL 271800Z VRB02KT 9999 FEW025 OVC100 26/26 Q1008 NOSIG RMK A2977
RPLL,2025-06-27 19:00,RPLL 271900Z VRB02KT 9999 FEW023 OVC100 26/25 Q1008 NOSIG RMK A2977
RPLL,2025-06-27 20:00,RPLL 272000Z VRB01KT 9999 FEW025 BKN100 26/26 Q1008 NOSIG RMK A2977
RPLL,2025-06-27 21:00,RPLL 272100Z 31003KT 260V350 9999 FEW025 BKN150 27/26 Q1008 NOSIG RMK A2977
RPLL,2025-06-27 22:00,RPLL 272200Z VRB02KT 9999 FEW025 27/26 Q1008 NOSIG RMK A2977
RPLL,2025-06-27 23:00,RPLL 272300Z 23003KT 9999 FEW025 27/26 Q1009 NOSIG RMK A2980
RPLL,2025-06-28 00:00,RPLL 280000Z 23003KT 190V270 9999 FEW025 SCT100 28/26 Q1010 NOSIG RMK A2983
RPLL,2025-06-28 01:00,RPLL 280100Z 28004KT 220V010 9999 SCT025 30/26 Q1009 NOSIG RMK A2980
RPLL,2025-06-28 02:00,RPLL 280200Z 29006KT 220V320 9999 SCT025 30/26 Q1009 NOSIG RMK A2980
RPLL,2025-06-28 03:00,RPLL 280300Z 30007KT 9999 SCT025 31/26 Q1008 NOSIG RMK A2977
RPLL,2025-06-28 04:00,RPLL 280400Z 29008KT 210V330 9999 SCT025 31/27 Q1008 NOSIG RMK A2977
RPLL,2025-06-28 05:00,RPLL 280500Z 26011KT 240V330 9999 SCT025 32/26 Q1007 NOSIG RMK A2974
RPLL,2025-06-28 06:00,RPLL 280600Z 27012KT 9999 SCT025 31/27 Q1006 NOSIG RMK A2971
RPLL,2025-06-28 07:00,RPLL 280700Z 26012KT 9999 FEW023CB SCT025 32/27 Q1006 NOSIG RMK A2971 CB SE
RPLL,2025-06-28 08:00,RPLL 280800Z 26016KT 9999 FEW025 31/27 Q1006 NOSIG RMK A2971
RPLL,2025-06-28 09:00,RPLL 280900Z 26012KT 9999 FEW025 BKN100 31/26 Q1006 NOSIG RMK A2971
RPLL,2025-06-28 10:00,RPLL 281000Z 26011KT 9999 FEW025 30/25 Q1006 NOSIG RMK A2971
RPLL,2025-06-28 11:00,RPLL 281100Z 26011KT 9999 FEW023CB SCT100 30/26 Q1007 NOSIG RMK A2974 CB/OCNL LTG NE
RPLL,2025-06-28 12:00,RPLL 281200Z 25010KT 9999 FEW022CB SCT100 29/26 Q1007 NOSIG RMK A2974 CB/OCNL LTG NE
RPLL,2025-06-28 13:00,RPLL 281300Z 26009KT 9999 FEW022CB SCT023 BKN090 29/26 Q1007 NOSIG RMK A2974 CB/LTG OCNL NE
RPLL,2025-06-28 14:00,RPLL 281400Z 22005KT 190V250 9999 FEW023 BKN100 28/26 Q1007 NOSIG RMK A2974
RPLL,2025-06-28 15:00,RPLL 281500Z VRB02KT 9999 SCT023 BKN100 28/26 Q1007 NOSIG RMK A2974
RPLL,2025-06-28 16:00,RPLL 281600Z 29005KT 250V330 9999 SCT023 BKN100 28/26 Q1006 NOSIG RMK A2971
RPLL,2025-06-28 17:00,RPLL 281700Z VRB02KT 9000 -SHRA SCT023 OVC100 28/26 Q1006 NOSIG RMK A2971
RPLL,2025-06-28 18:00,RPLL 281800Z 24003KT 190V320 9999 -RA SCT023 OVC100 28/26 Q1006 NOSIG RMK A2971
RPLL,2025-06-28 19:00,RPLL 281900Z VRB02KT 6000 -TSRA FEW018CB SCT020 OVC090 26/26 Q1006 NOSIG RMK A2971 CB/OCNL LTG OHD/E-S
RPLL,2025-06-28 20:00,RPLL 282000Z VRB06KT 7000 -TSRA FEW018CB BKN020 OVC090 27/26 Q1006 NOSIG RMK A2971 CB/OCNL LTG OHD/SE
RPLL,2025-06-28 21:00,RPLL 282100Z 28003KT 220V030 9999 FEW023CB OVC100 27/25 Q1006 RETS NOSIG RMK A2971 CB/OCNL LTG NE/SE
RPLL,2025-06-28 22:00,RPLL 282200Z 22007KT 200V260 9999 -RA SCT023 OVC100 27/26 Q1007 NOSIG RMK A2974
RPLL,2025-06-28 23:00,RPLL 282300Z 19003KT 160V240 9999 -RA SCT023 OVC100 26/26 Q1007 NOSIG RMK A2974
RPLL,2025-06-29 00:00,RPLL 290000Z 12003KT 030V160 9999 FEW025 BKN100 27/26 Q1007 NOSIG RMK A2974
RPLL,2025-06-29 01:00,RPLL 290100Z VRB02KT 9999 FEW025 BKN100 30/26 Q1008 NOSIG RMK A2977
RPLL,2025-06-29 02:00,RPLL 290200Z 26004KT 220V300 9999 FEW025 BKN100 30/25 Q1007 NOSIG RMK A2974
RPLL,2025-06-29 03:00,RPLL 290300Z 25016KT 9000 FEW022CB SCT023 BKN090 28/26 Q1007 NOSIG RMK A2974 CB NE-SE
RPLL,2025-06-29 04:00,COR RPLL 290400Z 26012KT 9999 FEW022CB SCT023 BKN090 29/25 Q1007 NOSIG RMK A2974 CB NE
RPLL,2025-06-29 05:00,COR RPLL 290500Z 29008KT 220V310 9999 FEW022CB SCT023 BKN100 28/26 Q1006 NOSIG RMK A2971 CB NE
RPLL,2025-06-29 06:00,RPLL 290600Z VRB05KT 9999 FEW025 BKN100 28/25 Q1006 NOSIG RMK A2971
RPLL,2025-06-29 07:00,RPLL 290700Z 30004KT 270V340 9999 -RA SCT023 BKN100 28/26 Q1006 NOSIG RMK A2971
RPLL,2025-06-29 08:00,RPLL 290800Z 25007KT 9999 -RA SCT023 BKN100 28/26 Q1005 NOSIG RMK A2968
RPLL,2025-06-29 09:00,RPLL 290900Z 22004KT 180V260 9999 SCT025 BKN100 29/26 Q1005 NOSIG RMK A2968
RPLL,2025-06-29 10:00,RPLL 291000Z 24005KT 210V270 9999 FEW025 BKN100 28/26 Q1006 NOSIG RMK A2971
RPLL,2025-06-29 11:00,RPLL 291100Z 24004KT 190V270 9999 FEW023 BKN100 28/26 Q1007 NOSIG RMK A2974
RPLL,2025-06-29 12:00,RPLL 291200Z 25004KT 200V260 9999 FEW025 SCT100 27/26 Q1006 NOSIG RMK A2971
RPLL,2025-06-29 13:00,RPLL 291300Z 25003KT 190V300 9999 FEW025 28/25 Q1006 NOSIG RMK A2971
RPLL,2025-06-29 14:00,RPLL 291400Z 22003KT 190V250 9999 FEW025 27/26 Q1007 NOSIG RMK A2974
RPLL,2025-06-29 15:00,RPLL 291500Z VRB02KT 9999 FEW025 27/26 Q1007 NOSIG RMK A2974
RPLL,2025-06-29 16:00,RPLL 291600Z VRB01KT 9999 FEW025 SCT100 27/26 Q1007 NOSIG RMK A2974
RPLL,2025-06-29 17:00,RPLL 291700Z VRB02KT 9999 FEW025 27/26 Q1006 NOSIG RMK A2971
RPLL,2025-06-29 18:00,RPLL 291800Z 07003KT 9999 FEW025 SCT150 26/26 Q1006 NOSIG RMK A2971
RPLL,2025-06-29 19:00,RPLL 291900Z VRB02KT 9999 FEW025 SCT150 27/26 Q1006 NOSIG RMK A2971
RPLL,2025-06-29 20:00,RPLL 292000Z VRB01KT 9999 FEW025 SCT100 26/26 Q1006 NOSIG RMK A2971
RPLL,2025-06-29 21:00,RPLL 292100Z VRB01KT 9999 FEW025 27/26 Q1006 NOSIG RMK A2971
RPLL,2025-06-29 22:00,RPLL 292200Z 00000KT 9999 FEW025TCU 26/26 Q1006 NOSIG RMK A2971 TCU W
RPLL,2025-06-29 23:00,RPLL 292300Z 00000KT 9999 FEW025 28/25 Q1006 NOSIG RMK A2971
RPLL,2025-06-30 00:00,RPLL 300000Z 34003KT 150V310 9999 FEW025 29/26 Q1007 NOSIG RMK A2974
RPLL,2025-06-30 01:00,RPLL 300100Z 28007KT 240V300 9000 FEW025 30/26 Q1007 NOSIG RMK A2974
RPLL,2025-06-30 02:00,RPLL 300200Z 26008KT 250V320 9999 FEW025 30/26 Q1007 NOSIG RMK A2974
RPLL,2025-06-30 03:00,RPLL 300300Z 27007KT 230V310 9999 FEW025 31/25 Q1006 NOSIG RMK A2971
RPLL,2025-06-30 04:00,RPLL 300400Z 28007KT 9999 FEW025 31/26 Q1006 NOSIG RMK A2971
RPLL,2025-06-30 05:00,RPLL 300500Z 28010KT 250V310 9999 FEW025 31/26 Q1005 NOSIG RMK A2968
RPLL,2025-06-30 06:00,RPLL 300600Z 26017KT 9999 FEW023CB SCT100 31/26 Q1005 NOSIG RMK A2968 CB SE/S
RPLL,2025-06-30 07:00,COR RPLL 300700Z 19008KT 160V220 9999 -SHRA FEW023CB SCT025 BKN100 26/25 Q1005 NOSIG RMK A2968 CB NE/SE-S
RPLL,2025-06-30 08:00,RPLL 300800Z 21004KT 160V260 9999 -RA FEW022CB SCT023 OVC100 27/26 Q1006 NOSIG RMK A2971 CB N
RPLL,2025-06-30 09:00,RPLL 300900Z VRB02KT 9999 FEW023CB SCT025 OVC100 28/27 Q1006 NOSIG RMK A2971 CB SE
RPLL,2025-06-30 10:00,RPLL 301000Z 11005KT 070V150 8000 -SHRA FEW022CB SCT023 OVC090 27/26 Q1007 NOSIG RMK A2974 CB NW
RPLL,2025-06-30 11:00,RPLL 301100Z VRB02KT 8000 -SHRA FEW022CB SCT025 OVC100 27/27 Q1008 NOSIG RMK A2977 CB W-NW
RPLL,2025-06-30 12:00,RPLL 301200Z 24008KT 210V270 8000 -RA SCT023 OVC090 26/26 Q1008 NOSIG RMK A2977
RPLL,2025-06-30 13:00,RPLL 301300Z 24004KT 190V270 9999 SCT023 OVC100 26/25 Q1008 NOSIG RMK A2977
RPLL,2025-06-30 14:00,RPLL 301400Z VRB02KT 9999 FEW025 26/26 Q1008 NOSIG RMK A2977
RPLL,2025-06-30 15:00,RPLL 301500Z VRB02KT 9999 SCT023 BKN100 26/25 Q1008 NOSIG RMK A2977
RPLL,2025-06-30 16:00,RPLL 301600Z 10003KT 070V130 9000 FEW023 BKN100 26/26 Q1008 NOSIG RMK A2977
RPLL,2025-06-30 17:00,RPLL 301700Z 10003KT 070V130 9000 FEW023 BKN100 26/25 Q1008 NOSIG RMK A2977
RPLL,2025-06-30 18:00,RPLL 301800Z VRB01KT 9000 FEW023 OVC100 26/25 Q1007 NOSIG RMK A2974
RPLL,2025-06-30 19:00,RPLL 301900Z 09002KT 9000 FEW025 26/25 Q1007 NOSIG RMK A2974
RPLL,2025-06-30 20:00,RPLL 302000Z VRB02KT 9000 FEW025 BKN150 26/26 Q1007 NOSIG RMK A2974
RPLL,2025-06-30 21:00,RPLL 302100Z 00000KT 9000 FEW025 26/25 Q1007 NOSIG RMK A2974
RPLL,2025-06-30 22:00,RPLL 302200Z VRB02KT 9999 FEW025 26/26 Q1008 NOSIG RMK A2977
RPLL,2025-06-30 23:00,RPLL 302300Z 09003KT 040V140 9999 FEW025 27/25 Q1008 NOSIG RMK A2977
RPLL,2025-07-01 00:00,RPLL 010000Z 06003KT 020V120 9999 FEW025 SCT100 29/25 Q1008 NOSIG RMK A2977
RPLL,2025-07-01 01:00,RPLL 010100Z VRB03KT 9999 FEW025 30/25 Q1009 NOSIG RMK A2980
RPLL,2025-07-01 02:00,RPLL 010200Z 26007KT 230V290 9999 FEW025 29/26 Q1009 NOSIG RMK A2980
RPLL,2025-07-01 03:00,RPLL 010300Z 28008KT 250V320 9999 FEW025 30/25 Q1008 NOSIG RMK A2977
RPLL,2025-07-01 04:00,RPLL 010400Z 28008KT 9999 FEW025 31/25 Q1008 NOSIG RMK A2977
RPLL,2025-07-01 05:00,RPLL 010500Z 29009KT 200V320 9999 FEW023CB 31/24 Q1008 NOSIG RMK A2977 CB S
RPLL,2025-07-01 06:00,RPLL 010600Z 28010KT 9999 FEW023CB SCT025 31/26 Q1007 NOSIG RMK A2974 CB S
RPLL,2025-07-01 07:00,RPLL 010700Z 21008KT 170V240 9999 FEW025 31/25 Q1007 NOSIG RMK A2974
RPLL,2025-07-01 08:00,RPLL 010800Z 22009KT 9999 FEW025 31/25 Q1007 NOSIG RMK A2974
RPLL,2025-07-01 09:00,RPLL 010900Z 22007KT 180V250 9999 FEW025 BKN100 30/25 Q1007 NOSIG RMK A2974
RPLL,2025-07-01 10:00,RPLL 011000Z 24007KT 9999 FEW025 BKN100 29/24 Q1007 NOSIG RMK A2974
RPLL,2025-07-01 11:00,RPLL 011100Z 22004KT 180V250 9000 -SHRA FEW023CB SCT025 OVC090 29/25 Q1009 NOSIG RMK A2980 CB N
RPLL,2025-07-01 12:00,COR RPLL 011200Z VRB02KT 9999 -RA FEW023TCU SCT025 BKN100 29/26 Q1009 NOSIG RMK A2980 TCU W
RPLL,2025-07-01 13:00,RPLL 011300Z 22003KT 170V270 9999 -RA SCT023 BKN090 29/26 Q1009 NOSIG RMK A2980
RPLL,2025-07-01 14:00,RPLL 011400Z VRB02KT 9999 FEW025 BKN130 29/26 Q1010 NOSIG RMK A2983
RPLL,2025-07-01 15:00,RPLL 011500Z 23004KT 9999 FEW025 BKN130 29/26 Q1010 NOSIG RMK A2983
RPLL,2025-07-01 16:00,RPLL 011600Z 23004KT 200V290 9999 FEW025 BKN130 28/26 Q1009 NOSIG RMK A2980
RPLL,2025-07-01 17:00,RPLL 011700Z 27005KT 9999 SCT025 BKN100 28/26 Q1008 NOSIG RMK A2977
RPLL,2025-07-01 18:00,RPLL 011800Z 02003KT 9000 -RA SCT023 BKN090 28/26 Q1008 NOSIG RMK A2977
RPLL,2025-07-01 19:00,RPLL 011900Z 00000KT 9999 FEW023 BKN090 27/26 Q1007 NOSIG RMK A2974
RPLL,2025-07-01 20:00,RPLL 012000Z 02003KT 9999 SCT023 BKN090 27/26 Q1007 NOSIG RMK A2974
RPLL,2025-07-01 21:00,RPLL 012100Z 06006KT 9999 SCT023 BKN090 27/26 Q1007 NOSIG RMK A2974
RPLL,2025-07-01 22:00,RPLL 012200Z VRB04KT 9999 SCT023 BKN090 27/25 Q1008 NOSIG RMK A2977
RPLL,2025-07-01 23:00,RPLL 012300Z 04004KT 9999 SCT023 OVC090 28/26 Q1008 NOSIG RMK A2977
RPLL,2025-07-02 00:00,RPLL 020000Z 01003KT 270V070 9999 SCT023 BKN100 29/26 Q1009 NOSIG RMK A2980
RPLL,2025-07-02 01:00,RPLL 020100Z 33004KT 300V360 9999 FEW025 SCT100 30/26 Q1009 NOSIG RMK A2980
RPLL,2025-07-02 02:00,RPLL 020200Z 30005KT 250V360 9999 FEW025 SCT100 31/26 Q1009 NOSIG RMK A2980
RPLL,2025-07-02 03:00,RPLL 020300Z 29006KT 260V320 9999 FEW025TCU SCT100 31/26 Q1008 NOSIG RMK A2977 TCU SE
RPLL,2025-07-02 04:00,RPLL 020400Z 31008KT 280V340 9999 FEW025 31/25 Q1008 NOSIG RMK A2977
RPLL,2025-07-02 05:00,RPLL 020500Z 31012KT 270V340 9999 FEW023CB SCT100 31/27 Q1007 NOSIG RMK A2974 CB SE
RPLL,2025-07-02 05:44,COR RPLL 020544Z 30013KT 9000 -SHRA FEW022CB SCT023 OVC0100 28/26 Q1008 NOSIG RMK A2977 CB E-S
RPLL,2025-07-02 06:00,RPLL 020600Z 30011KT 9000 -SHRA FEW022CB SCT023 OVC100 28/26 Q1008 NOSIG RMK A2977 CB SE S
RPLL,2025-07-02 07:00,RPLL 020700Z 28009KT 220V310 9999 SCT025 BKN100 29/26 Q1007 NOSIG RMK A2974
RPLL,2025-07-02 08:00,RPLL 020800Z 29009KT 260V320 9999 SCT025 BKN100 29/26 Q1007 NOSIG RMK A2974
RPLL,2025-07-02 09:00,RPLL 020900Z 27006KT 230V310 9999 SCT025 BKN100 28/24 Q1007 NOSIG RMK A2974
RPLL,2025-07-02 10:00,RPLL 021000Z 27005KT 9999 SCT025 BKN100 29/26 Q1007 NOSIG RMK A2974
RPLL,2025-07-02 11:00,RPLL 021100Z 19004KT 9999 SCT023 BKN100 29/26 Q1008 NOSIG RMK A2977
RPLL,2025-07-02 12:00,RPLL 021200Z 24004KT 9999 FEW023CB SCT100 29/26 Q1008 NOSIG RMK A2977 CB/OCNL LTG N
RPLL,2025-07-02 13:00,RPLL 021300Z 24004KT 210V270 9999 FEW025 BKN130 29/26 Q1009 NOSIG RMK A2980
RPLL,2025-07-02 14:00,RPLL 021400Z VRB02KT 9999 FEW025 BKN100 28/26 Q1009 NOSIG RMK A2980
RPLL,2025-07-02 15:00,RPLL 021500Z VRB01KT 9999 FEW025 BKN100 28/26 Q1009 NOSIG RMK A2980
RPLL,2025-07-02 16:00,RPLL 021600Z 33004KT 300V030 9999 FEW025 BKN100 28/26 Q1009 NOSIG RMK A2980
RPLL,2025-07-02 17:00,RPLL 021700Z VRB03G19KT 9999 SCT025 BKN100 28/26 Q1008 NOSIG RMK A2977
RPLL,2025-07-02 18:00,RPLL 021800Z 25005KT 9000 -SHRA FEW023CB SCT025 OVC090 26/25 Q1008 NOSIG RMK A2977 CB N-NE
RPLL,2025-07-02 19:00,RPLL 021900Z VRB02KT 9999 -RA FEW025 OVC100 26/25 Q1008 NOSIG RMK A2977
RPLL,2025-07-02 20:00,RPLL 022000Z VRB02KT 9999 -RA FEW025 OVC100 26/25 Q1008 NOSIG RMK A2977
RPLL,2025-07-02 21:00,RPLL 022100Z 26007KT 9999 SCT025 OVC100 26/25 Q1008 NOSIG RMK A2977
RPLL,2025-07-02 22:00,RPLL 022200Z 25013KT 6000 -RA SCT022 OVC090 25/25 Q1009 TEMPO 4000 RA RMK A2980
RPLL,2025-07-02 23:00,RPLL 022300Z 25005KT 7000 -RA SCT022 OVC090 25/25 Q1009 NOSIG RMK A2980
RPLL,2025-07-03 00:00,RPLL 030000Z 22004KT 170V250 8000 -RA SCT022 OVC090 26/25 Q1009 NOSIG RMK A2980
RPLL,2025-07-03 01:00,RPLL 030100Z 27005KT 240V300 9000 -RA SCT022 OVC090 27/26 Q1010 NOSIG RMK A2983
RPLL,2025-07-03 02:00,RPLL 030200Z 27006KT 240V310 9999 SCT022 OVC090 28/26 Q1010 NOSIG RMK A2983
RPLL,2025-07-03 03:00,RPLL 030300Z 24006KT 9000 -RA SCT022 OVC090 27/26 Q1010 NOSIG RMK A2983
RPLL,2025-07-03 03:14,RPLL 030314Z 23009KT 5000 RA SCT022 OVC090 26/26 Q1010 NOSIG RMK A2983
RPLL,2025-07-03 04:00,RPLL 030400Z 24009KT 8000 -RA SCT022 OVC090 27/26 Q1009 RERA NOSIG RMK A2980
RPLL,2025-07-03 05:00,RPLL 030500Z 25009KT 9000 -RA SCT022 OVC090 28/26 Q1009 NOSIG RMK A2980
RPLL,2025-07-03 06:00,RPLL 030600Z 26011KT 9000 -RA SCT022 OVC090 28/26 Q1008 NOSIG RMK A2977
RPLL,2025-07-03 07:00,RPLL 030700Z 24010KT 9000 SCT023 OVC090 28/25 Q1008 NOSIG RMK A2977
RPLL,2025-07-03 08:00,RPLL 030800Z 25009KT 9000 SCT023 OVC090 28/25 Q1008 NOSIG RMK A2977
RPLL,2025-07-03 09:00,RPLL 030900Z 23006KT 190V270 9000 SCT022 OVC090 28/25 Q1008 NOSIG RMK A2977
RPLL,2025-07-03 10:00,RPLL 031000Z 27014KT 9000 SCT022 OVC090 27/26 Q1008 NOSIG RMK A2977
RPLL,2025-07-03 10:12,RPLL 031012Z 27012KT 9000 -RA SCT022 OVC090 27/26 Q1008 NOSIG RMK A2977
RPLL,2025-07-03 11:00,RPLL 031100Z 25010KT 220V280 9000 SCT022 OVC100 27/25 Q1008 NOSIG RMK A2977
RPLL,2025-07-03 12:00,RPLL 031200Z 22005KT 180V250 9999 SCT023 BKN100 27/25 Q1009 NOSIG RMK A2980
RPLL,2025-07-03 12:35,RPLL 031235Z 23004KT 190V250 9999 -RA SCT022 OVC100 27/25 Q1009 NOSIG RMK A2980
RPLL,2025-07-03 13:00,RPLL 031300Z 22003KT 190V260 9999 SCT023 BKN100 27/25 Q1010 NOSIG RMK A2983
RPLL,2025-07-03 14:00,RPLL 031400Z VRB01KT 9999 SCT023 BKN100 27/25 Q1010 NOSIG RMK A2983
RPLL,2025-07-03 15:00,COR RPLL 031500Z 20003KT 140V220 9999 -RA SCT023 BKN100 26/26 Q1010 NOSIG RMK A2983
RPLL,2025-07-03 16:00,RPLL 031600Z VRB02KT 9999 FEW023CB SCT025 BKN100 26/26 Q1009 NOSIG RMK A2980 CB N
RPLL,2025-07-03 17:00,RPLL 031700Z VRB02KT 9999 FEW025 26/25 Q1009 NOSIG RMK A2980
RPLL,2025-07-03 18:00,RPLL 031800Z VRB02KT 9999 FEW025 26/25 Q1008 NOSIG RMK A2977
RPLL,2025-07-03 19:00,RPLL 031900Z VRB02KT 9999 FEW025 26/26 Q1008 NOSIG RMK A2977
RPLL,2025-07-03 20:00,RPLL 032000Z 00000KT 9999 FEW025 26/25 Q1007 NOSIG RMK A2974
RPLL,2025-07-03 21:00,RPLL 032100Z VRB02KT 9999 FEW025 26/25 Q1008 NOSIG RMK A2977
RPLL,2025-07-03 22:00,RPLL 032200Z VRB01KT 9999 FEW025 BKN100 26/25 Q1008 NOSIG RMK A2977
RPLL,2025-07-03 23:00,RPLL 032300Z VRB02KT 9999 SCT025 BKN100 28/26 Q1008 NOSIG RMK A2977
RPLL,2025-07-04 00:00,RPLL 040000Z 17004KT 130V210 9999 FEW025 BKN100 29/26 Q1008 NOSIG RMK A2977
RPLL,2025-07-04 01:00,RPLL 040100Z 19005KT 130V240 9999 FEW025 SCT100 30/25 Q1009 NOSIG RMK A2980
RPLL,2025-07-04 02:00,RPLL 040200Z 20005KT 120V240 9999 SCT025 BKN100 31/24 Q1009 NOSIG RMK A2980
RPLL,2025-07-04 03:00,RPLL 040300Z VRB02KT 9999 SCT025 BKN100 31/26 Q1008 NOSIG RMK A2977
RPLL,2025-07-04 04:00,RPLL 040400Z VRB02KT 9999 SCT025 BKN100 32/26 Q1007 NOSIG RMK A2974
RPLL,2025-07-04 05:00,RPLL 040500Z VRB05KT 9999 SCT025 BKN100 31/26 Q1007 NOSIG RMK A2974
RPLL,2025-07-04 06:00,RPLL 040600Z 27016KT 9999 FEW023CB SCT025 BKN100 32/27 Q1006 NOSIG RMK A2971 CB E
RPLL,2025-07-04 07:00,RPLL 040700Z 25017KT 9999 -SHRA FEW023CB SCT025 BKN100 29/25 Q1007 NOSIG RMK A2974 CB E
RPLL,2025-07-04 08:00,RPLL 040800Z 24008KT 9999 SCT023 BKN100 29/26 Q1007 NOSIG RMK A2974
RPLL,2025-07-04 09:00,RPLL 040900Z 25008KT 210V270 9999 SCT023 BKN100 30/25 Q1007 NOSIG RMK A2974
RPLL,2025-07-04 10:00,RPLL 041000Z 26012KT 9999 SCT023 BKN100 28/26 Q1007 NOSIG RMK A2974
RPLL,2025-07-04 11:00,RPLL 041100Z 26008KT 9999 SCT023 BKN100 28/26 Q1008 NOSIG RMK A2977
RPLL,2025-07-04 12:00,RPLL 041200Z 25005KT 9999 FEW025 BKN150 28/26 Q1009 NOSIG RMK A2980
RPLL,2025-07-04 13:00,RPLL 041300Z VRB02KT 9999 FEW025 28/26 Q1009 NOSIG RMK A2980
RPLL,2025-07-04 14:00,RPLL 041400Z VRB02KT 9999 FEW025 28/26 Q1009 NOSIG RMK A2980
RPLL,2025-07-04 15:00,RPLL 041500Z VRB01KT 9999 FEW025 28/26 Q1009 NOSIG RMK A2980
RPLL,2025-07-04 16:00,RPLL 041600Z VRB01KT 9999 FEW025 28/26 Q1009 NOSIG RMK A2980
RPLL,2025-07-04 17:00,RPLL 041700Z VRB01KT 9999 FEW025 SCT100 28/26 Q1008 NOSIG RMK A2977
RPLL,2025-07-04 18:00,RPLL 041800Z 16003KT 9999 FEW025 SCT100 27/26 Q1008 NOSIG RMK A2977
RPLL,2025-07-04 19:00,RPLL 041900Z VRB01KT 9999 FEW025 27/25 Q1006 NOSIG RMK A2971
RPLL,2025-07-04 20:00,RPLL 042000Z VRB02KT 9999 FEW025 27/25 Q1006 NOSIG RMK A2971
RPLL,2025-07-04 21:00,RPLL 042100Z VRB02KT 9999 FEW025 27/26 Q1006 NOSIG RMK A2971
RPLL,2025-07-04 22:00,RPLL 042200Z VRB02KT 9999 FEW025 27/26 Q1007 NOSIG RMK A2974
RPLL,2025-07-04 23:00,RPLL 042300Z VRB02KT 9999 FEW025 29/27 Q1007 NOSIG RMK A2974
RPLL,2025-07-05 00:00,RPLL 050000Z 14003KT 070V220 9999 FEW025 BKN100 30/26 Q1008 NOSIG RMK A2977
RPLL,2025-07-05 01:00,RPLL 050100Z VRB02KT 9999 FEW025 BKN100 32/26 Q1008 NOSIG RMK A2977
RPLL,2025-07-05 02:00,RPLL 050200Z VRB05KT 9999 FEW025 BKN100 31/26 Q1007 NOSIG RMK A2974
RPLL,2025-07-05 03:00,RPLL 050300Z 26012KT 7000 -TSRA FEW022CB SCT023 OVC080 27/27 Q1008 TEMPO 4000 TSRA RMK A2977 CB N/OHD
RPLL,2025-07-05 04:00,RPLL 050400Z 25015KT 8000 -RA FEW022CB SCT023 OVC080 27/26 Q1008 RETS RMK A2977 CB NE-E
RPLL,2025-07-05 05:00,RPLL 050500Z 26007KT 220V290 9000 -RA SCT022 OVC080 27/26 Q1008 NOSIG RMK A2977
RPLL,2025-07-05 06:00,RPLL 050600Z VRB01KT 9000 -RA SCT022 OVC080 27/26 Q1008 NOSIG RMK A2977
RPLL,2025-07-05 07:00,RPLL 050700Z VRB02KT 9000 -RA SCT023 OVC090 28/26 Q1007 NOSIG RMK A2974
RPLL,2025-07-05 08:00,RPLL 050800Z 23004KT 160V260 9999 SCT025 OVC100 28/26 Q1007 NOSIG RMK A2974
RPLL,2025-07-05 09:00,RPLL 050900Z VRB02KT 9999 SCT025 OVC100 29/26 Q1007 NOSIG RMK A2974
RPLL,2025-07-05 10:00,RPLL 051000Z 21004KT 180V260 9999 SCT025 OVC100 29/26 Q1007 NOSIG RMK A2974
RPLL,2025-07-05 11:00,RPLL 051100Z 23005KT 9999 FEW025 BKN150 28/26 Q1008 NOSIG RMK A2977
RPLL,2025-07-05 12:00,RPLL 051200Z VRB02KT 9999 FEW025 SCT150 28/26 Q1008 NOSIG RMK A2977
RPLL,2025-07-05 13:00,RPLL 051300Z VRB01KT 9999 FEW025 SCT100 28/26 Q1009 NOSIG RMK A2980
RPLL,2025-07-05 14:00,RPLL 051400Z 00000KT 9999 SCT025 OVC100 27/26 Q1009 NOSIG RMK A2980
RPLL,2025-07-05 15:00,RPLL 051500Z 20003KT 9999 FEW025 BKN100 28/26 Q1009 NOSIG RMK A2980
RPLL,2025-07-05 16:00,COR RPLL 051600Z VRB01KT 9999 FEW025 BKN100 27/26 Q1008 NOSIG RMK A2977
RPLL,2025-07-05 17:00,RPLL 051700Z VRB02KT 9999 SCT025 BKN100 28/25 Q1008 NOSIG RMK A2977
RPLL,2025-07-05 18:00,RPLL 051800Z VRB01KT 9999 FEW025 27/25 Q1007 NOSIG RMK A2974
RPLL,2025-07-05 19:00,RPLL 051900Z VRB02KT 9999 FEW025 SCT150 27/25 Q1007 NOSIG RMK A2974
RPLL,2025-07-05 20:00,RPLL 052000Z VRB01KT 9999 FEW025 26/25 Q1007 NOSIG RMK A2974
RPLL,2025-07-05 21:00,RPLL 052100Z VRB01KT 9999 FEW025 26/25 Q1007 NOSIG RMK A2974
RPLL,2025-07-05 22:00,RPLL 052200Z VRB02KT 9999 FEW025 SCT100 27/25 Q1008 NOSIG RMK A2977
RPLL,2025-07-05 23:00,RPLL 052300Z VRB02KT 9999 SCT025 SCT100 28/25 Q1008 NOSIG RMK A2977
RPLL,2025-07-06 00:00,RPLL 060000Z VRB02KT 9999 SCT025 BKN100 29/25 Q1009 NOSIG RMK A2980
RPLL,2025-07-06 01:00,RPLL 060100Z 27009KT 9999 SCT025 BKN100 29/26 Q1010 NOSIG RMK A2983
RPLL,2025-07-06 02:00,RPLL 060200Z 23007KT 170V260 9999 FEW025 BKN100 31/26 Q1009 NOSIG RMK A2980
RPLL,2025-07-06 03:00,RPLL 060300Z 23011KT 200V260 9999 SCT023 OVC090 31/25 Q1010 NOSIG RMK A2983
RPLL,2025-07-06 03:24,RPLL 060324Z 23008KT 9999 -RA SCT023 OVC080 28/26 Q1010 NOSIG RMK A2983
RPLL,2025-07-06 04:00,RPLL 060400Z 26008KT 9999 SCT025 OVC090 29/26 Q1010 NOSIG RMK A2983
RPLL,2025-07-06 05:00,RPLL 060500Z 28008KT 260V320 9999 SCT025 BKN100 29/26 Q1009 NOSIG RMK A2980
RPLL,2025-07-06 06:00,RPLL 060600Z 24009KT 200V260 9999 FEW025 BKN100 31/25 Q1008 NOSIG RMK A2977
RPLL,2025-07-06 07:00,RPLL 060700Z 22011KT 190V250 9999 FEW025 31/25 Q1007 NOSIG RMK A2974
RPLL,2025-07-06 08:00,RPLL 060800Z 26011KT 230V290 9999 FEW025 31/25 Q1007 NOSIG RMK A2974
RPLL,2025-07-06 09:00,RPLL 060900Z 27012KT 9999 SCT025 31/26 Q1008 NOSIG RMK A2977
RPLL,2025-07-06 10:00,RPLL 061000Z 24008KT 200V260 9999 FEW025 30/25 Q1008 NOSIG RMK A2977
RPLL,2025-07-06 11:00,RPLL 061100Z 24007KT 9999 FEW025 29/25 Q1009 NOSIG RMK A2980
RPLL,2025-07-06 12:00,RPLL 061200Z 23005KT 200V270 9999 FEW025 29/25 Q1010 NOSIG RMK A2983
RPLL,2025-07-06 13:00,RPLL 061300Z 30005KT 260V320 9999 -SHRA FEW025 BKN100 27/26 Q1010 NOSIG RMK A2983
RPLL,2025-07-06 14:00,RPLL 061400Z VRB02KT 9999 FEW025 27/26 Q1010 NOSIG RMK A2983
RPLL,2025-07-06 15:00,RPLL 061500Z 00000KT 9999 FEW025 SCT100 27/26 Q1011 NOSIG RMK A2985
RPLL,2025-07-06 16:00,RPLL 061600Z VRB02KT 9999 FEW025 27/26 Q1010 NOSIG RMK A2983
RPLL,2025-07-06 17:00,RPLL 061700Z VRB01KT 9999 SCT023 27/26 Q1009 NOSIG RMK A2980
RPLL,2025-07-06 18:00,RPLL 061800Z VRB01KT 9999 FEW025 27/26 Q1009 NOSIG RMK A2980
RPLL,2025-07-06 19:00,RPLL 061900Z VRB01KT 9999 FEW025 27/26 Q1008 NOSIG RMK A2977
RPLL,2025-07-06 20:00,RPLL 062000Z VRB02KT 9999 FEW023CB 27/26 Q1009 NOSIG RMK A2980 CB/OCNL LTG N
RPLL,2025-07-06 21:00,RPLL 062100Z 03004KT 350V130 9999 VCSH FEW022CB SCT023 BKN100 27/26 Q1008 NOSIG RMK A2977 CB/OCNL LTG/VCSH N
RPLL,2025-07-06 22:00,RPLL 062200Z 22004KT 190V250 9999 FEW025 SCT100 27/26 Q1008 NOSIG RMK A2977
RPLL,2025-07-06 23:00,RPLL 062300Z 23005KT 200V260 9999 FEW025 SCT100 28/26 Q1009 NOSIG RMK A2980
RPLL,2025-07-07 00:00,RPLL 070000Z 27006KT 220V260 9999 FEW025 SCT100 29/25 Q1009 NOSIG RMK A2980
RPLL,2025-07-07 01:00,RPLL 070100Z 27007KT 9999 FEW025 30/26 Q1009 NOSIG RMK A2980
RPLL,2025-07-07 02:00,RPLL 070200Z 25010KT 210V280 9999 SCT025 31/25 Q1009 NOSIG RMK A2980
RPLL,2025-07-07 03:00,RPLL 070300Z 27014KT 9999 SCT025 31/25 Q1008 NOSIG RMK A2977
RPLL,2025-07-07 03:30,RPLL 070330Z 25009KT 9999 -SHRA FEW025 SCT100 30/26 Q1008 NOSIG RMK A2977
RPLL,2025-07-07 04:00,RPLL 070400Z 26012KT 9999 FEW025 BKN100 30/26 Q1009 NOSIG RMK A2980
RPLL,2025-07-07 05:00,RPLL 070500Z 26011KT 9999 FEW025 BKN100 31/27 Q1008 NOSIG RMK A2977
RPLL,2025-07-07 06:00,RPLL 070600Z 26017KT 9999 FEW025 31/27 Q1008 NOSIG RMK A2977
RPLL,2025-07-07 07:00,RPLL 070700Z 26016KT 9999 FEW025 31/26 Q1008 NOSIG RMK A2977
RPLL,2025-07-07 08:00,RPLL 070800Z 27015KT 9999 FEW025 31/27 Q1008 NOSIG RMK A2977
RPLL,2025-07-07 09:00,RPLL 070900Z 27014KT 9999 FEW025 SCT100 31/27 Q1008 NOSIG RMK A2977
RPLL,2025-07-07 10:00,RPLL 071000Z 26014KT 9999 FEW025 SCT100 30/26 Q1008 NOSIG RMK A2977
RPLL,2025-07-07 11:00,RPLL 071100Z 25010KT 9999 FEW025 SCT100 29/27 Q1008 NOSIG RMK A2977
RPLL,2025-07-07 12:00,RPLL 071200Z 25009KT 210V270 9999 SCT023 29/26 Q1009 NOSIG RMK A2980
RPLL,2025-07-07 13:00,RPLL 071300Z 23005KT 200V260 9999 SCT023 29/26 Q1009 NOSIG RMK A2980
RPLL,2025-07-07 14:00,RPLL 071400Z 25008KT 210V280 9999 FEW023 29/26 Q1010 NOSIG RMK A2983
RPLL,2025-07-07 15:00,RPLL 071500Z 23005KT 200V260 9999 FEW023 29/26 Q1009 NOSIG RMK A2980
RPLL,2025-07-07 16:00,RPLL 071600Z 22005KT 9999 FEW023 28/26 Q1009 NOSIG RMK A2980
RPLL,2025-07-07 17:00,RPLL 071700Z VRB02KT 9999 SCT023 28/26 Q1009 NOSIG RMK A2980
RPLL,2025-07-07 18:00,RPLL 071800Z 23003KT 180V270 9999 FEW023 28/26 Q1008 NOSIG RMK A2977
RPLL,2025-07-07 19:00,RPLL 071900Z VRB02KT 9999 FEW023 28/26 Q1008 NOSIG RMK A2977
RPLL,2025-07-07 20:00,RPLL 072000Z 21003KT 9999 FEW025 28/26 Q1008 NOSIG RMK A2977
RPLL,2025-07-07 21:00,RPLL 072100Z VRB02KT 9999 FEW025 28/26 Q1008 NOSIG RMK A2977
RPLL,2025-07-07 22:00,RPLL 072200Z VRB02KT 9999 FEW025 SCT100 28/26 Q1008 NOSIG RMK A2977
RPLL,2025-07-07 23:00,COR RPLL 072300Z 24005KT 200V270 9000 -SHRA FEW025 BKN100 29/26 Q1009 NOSIG RMK A2977
RPLL,2025-07-08 00:00,RPLL 080000Z 26011KT 9999 FEW025 30/26 Q1009 NOSIG RMK A2980
RPLL,2025-07-08 01:00,RPLL 080100Z 26013KT 9999 FEW025 30/26 Q1009 NOSIG RMK A2980
RPLL,2025-07-08 02:00,RPLL 080200Z 26016KT 9999 FEW025 SCT100 29/27 Q1009 NOSIG RMK A2980
RPLL,2025-07-08 03:00,RPLL 080300Z 26012KT 9999 FEW025 32/27 Q1008 NOSIG RMK A2977
RPLL,2025-07-08 04:00,RPLL 080400Z 26013KT 9000 -SHRA FEW025 BKN100 28/26 Q1008 NOSIG RMK A2977
RPLL,2025-07-08 05:00,RPLL 080500Z 27010KT 9999 FEW025 BKN100 30/28 Q1007 NOSIG RMK A2974
RPLL,2025-07-08 06:00,RPLL 080600Z 28012KT 9999 FEW025 BKN100 29/26 Q1007 NOSIG RMK A2974
RPLL,2025-07-08 07:00,RPLL 080700Z 26013KT 9999 FEW025 BKN100 30/27 Q1006 NOSIG RMK A2971
RPLL,2025-07-08 08:00,RPLL 080800Z 25016KT 9999 FEW025 SCT100 29/26 Q1006 NOSIG RMK A2971
RPLL,2025-07-08 09:00,RPLL 080900Z 25015KT 9999 FEW025 SCT100 29/25 Q1006 NOSIG RMK A2971
RPLL,2025-07-08 10:00,RPLL 081000Z 27008KT 9999 FEW023CB SCT100 28/27 Q1006 NOSIG RMK A2971 CB N
RPLL,2025-07-08 10:12,RPLL 081012Z 30007KT 240V350 9999 -SHRA FEW023CB SCT025 BKN100 29/27 Q1006 NOSIG RMK A2971 CB NE/SE
RPLL,2025-07-08 11:00,RPLL 081100Z 26005KT 220V290 9999 -TSRA FEW022CB SCT023 BKN100 28/27 Q1007 TEMPO 5000 TSRA RMK A2974 CB/OCNL LTG OHD/S
RPLL,2025-07-08 11:39,RPLL 081139Z 01010KT 340V050 5000 -TSRA FEW020CB SCT022 OVC090 26/26 Q1008 TEMPO TSRA RMK A2977 CB/OCNL LTG OHD/E
RPLL,2025-07-08 12:00,COR RPLL 081200Z 31003KT 230V030 6000 -TSRA SCT020CB BKN022 OVC090 26/26 Q1008 TEMPO 5000 TSRA RMK A2977 CB/FRQ OHD/E/S-SW
RPLL,2025-07-08 13:00,COR RPLL 081300Z 24003KT 200V290 9000 -RA FEW022CB BKN023 OVC090 26/26 Q1009 RETS TEMPO 6000 -SHRA RMK A2980 CB/OCNL LTG S-SW
RPLL,2025-07-08 14:00,RPLL 081400Z 23006KT 9000 -RA SCT022 OVC090 26/26 Q1009 RMK A2980
RPLL,2025-07-08 15:00,RPLL 081500Z 21005KT 180V240 8000 -RA SCT022 OVC090 25/25 Q1010 NOSIG RMK A2983
RPLL,2025-07-08 16:00,RPLL 081600Z 25008KT 8000 -RA SCT022 OVC090 25/25 Q1009 NOSIG RMK A2980
RPLL,2025-07-08 17:00,RPLL 081700Z 25006KT 9000 -RA FEW022 OVC090 25/25 Q1007 NOSIG RMK A2974
RPLL,2025-07-08 18:00,RPLL 081800Z VRB02KT 9999 -RA SCT023 OVC090 25/25 Q1007 NOSIG RMK A2974
RPLL,2025-07-08 19:00,RPLL 081900Z 23004KT 180V270 9999 -RA FEW025 OVC100 26/26 Q1006 NOSIG RMK A2971
RPLL,2025-07-08 20:00,RPLL 082000Z VRB02KT 9999 FEW025 BKN100 26/25 Q1005 NOSIG RMK A2968
RPLL,2025-07-08 21:00,RPLL 082100Z VRB02KT 9999 SCT023 BKN100 26/25 Q1006 NOSIG RMK A2971
RPLL,2025-07-08 22:00,RPLL 082200Z VRB02KT 9999 -RA BKN023 OVC100 26/25 Q1007 NOSIG RMK A2974
RPLL,2025-07-08 23:00,RPLL 082300Z VRB02KT 9999 -RA SCT023 OVC090 26/26 Q1007 NOSIG RMK A2974
RPLL,2025-07-09 00:00,RPLL 090000Z 26005KT 220V300 9999 SCT023 OVC100 28/27 Q1007 NOSIG RMK A2974
RPLL,2025-07-09 01:00,RPLL 090100Z 26009KT 9999 SCT023 OVC100 29/28 Q1007 NOSIG RMK A2974
RPLL,2025-07-09 02:00,RPLL 090200Z 24011G22KT 210V270 9999 -RA SCT023 BKN100 27/27 Q1007 NOSIG RMK A2974
RPLL,2025-07-09 03:00,RPLL 090300Z 26015KT 9999 FEW022CB SCT023 BKN100 31/27 Q1007 NOSIG RMK A2974 CB NE/E
RPLL,2025-07-09 04:00,RPLL 090400Z 26013KT 9999 TS FEW022CB SCT023 BKN100 30/26 Q1007 TEMPO 8000 -TSRA RMK A2974 CB N/NW
RPLL,2025-07-09 05:00,RPLL 090500Z 26011KT 9000 -SHRA FEW022CB SCT023 BKN100 29/27 Q1006 RETS NOSIG RMK A2971 CB N
RPLL,2025-07-09 06:00,RPLL 090600Z 26013KT 9999 -RA SCT023 BKN100 29/27 Q1005 NOSIG RMK A2968
RPLL,2025-07-09 07:00,RPLL 090700Z 26013KT 9999 -RA SCT023 OVC100 30/27 Q1005 NOSIG RMK A2968
RPLL,2025-07-09 08:00,RPLL 090800Z 26015KT 9999 SCT023 OVC100 30/27 Q1004 NOSIG RMK A2965
RPLL,2025-07-09 09:00,RPLL 090900Z 27014KT 8000 -RA SCT022 OVC090 29/26 Q1004 NOSIG RMK A2965
RPLL,2025-07-09 10:00,RPLL 091000Z 26011KT 9000 SCT023 OVC100 29/27 Q1004 NOSIG RMK A2965
RPLL,2025-07-09 11:00,COR RPLL 091100Z 25007KT 9999 -SHRA FEW022CB SCT023 BKN100 29/26 Q1005 NOSIG RMK A2968 CB N
RPLL,2025-07-09 12:00,RPLL 091200Z 23006KT 9999 FEW025 BKN100 29/26 Q1005 NOSIG RMK A2968
RPLL,2025-07-09 13:00,RPLL 091300Z 24005KT 9999 FEW025 BKN100 28/26 Q1005 NOSIG RMK A2968
RPLL,2025-07-09 14:00,RPLL 091400Z 24006KT 210V270 9999 SCT025 28/26 Q1006 NOSIG RMK A2971
RPLL,2025-07-09 15:00,RPLL 091500Z 22003KT 190V250 9999 SCT025 BKN100 28/26 Q1006 NOSIG RMK A2971
RPLL,2025-07-09 16:00,RPLL 091600Z VRB05KT 7000 -SHRA FEW023CB SCT025 OVC090 28/27 Q1006 NOSIG RMK A2971 CB N
RPLL,2025-07-09 17:00,RPLL 091700Z 25004KT 210V270 9999 FEW023CB SCT025 28/27 Q1006 NOSIG RMK A2971 CB/OCNL LTG N-NE
RPLL,2025-07-09 18:00,RPLL 091800Z 24014KT 9000 -RA FEW023CB SCT025 OVC090 27/26 Q1005 NOSIG RMK A2968 CB SW  NW
RPLL,2025-07-09 19:00,RPLL 091900Z 22003KT 170V280 9999 FEW023CB SCT025 BKN100 26/25 Q1004 NOSIG RMK A2965 CB/LTG OCNL NW
RPLL,2025-07-09 20:00,RPLL 092000Z VRB03KT 9999 FEW025 BKN100 27/26 Q1004 NOSIG RMK A2965
RPLL,2025-07-09 21:00,RPLL 092100Z 00000KT 9000 -RA SCT022 OVC090 26/26 Q1004 NOSIG RMK A2965
RPLL,2025-07-09 22:00,RPLL 092200Z 25007KT 220V280 9000 -RA SCT022 OVC090 27/26 Q1004 NOSIG RMK A2965
RPLL,2025-07-09 23:00,RPLL 092300Z 24005KT 190V260 9000 -RA SCT022 OVC090 28/26 Q1004 NOSIG RMK A2965
RPLL,2025-07-10 00:00,RPLL 100000Z 25012KT 9999 SCT023 OVC100 30/26 Q1004 NOSIG RMK A2965
RPLL,2025-07-10 01:00,RPLL 100100Z 25015KT 9999 FEW025 SCT100 31/26 Q1004 NOSIG RMK A2965
RPLL,2025-07-10 02:00,RPLL 100200Z 25018G28KT 9999 FEW025 SCT100 31/25 Q1005 NOSIG RMK A2968
RPLL,2025-07-10 03:00,RPLL 100300Z 26017KT 9999 FEW025 SCT100 31/26 Q1005 NOSIG RMK A2968
RPLL,2025-07-10 04:00,COR RPLL 100400Z 27017KT 9999 FEW025 SCT100 32/26 Q1004 NOSIG RMK A2965
RPLL,2025-07-10 05:00,RPLL 100500Z 26016KT 9999 FEW025 32/27 Q1004 NOSIG RMK A2965
RPLL,2025-07-10 06:00,RPLL 100600Z 27017KT 9999 FEW025 32/26 Q1004 NOSIG RMK A2965
RPLL,2025-07-10 07:00,RPLL 100700Z 26019KT 9999 FEW025TCU 32/26 Q1003 NOSIG RMK A2962 TCU S
RPLL,2025-07-10 08:00,RPLL 100800Z 26013KT 9999 FEW025 31/25 Q1003 NOSIG RMK A2962
RPLL,2025-07-10 09:00,RPLL 100900Z 26014KT 9999 FEW025 31/25 Q1003 NOSIG RMK A2962
RPLL,2025-07-10 10:00,RPLL 101000Z 25009KT 9999 FEW025 30/26 Q1004 NOSIG RMK A2965
RPLL,2025-07-10 11:00,RPLL 101100Z 23006KT 200V270 9999 FEW025 SCT100 30/26 Q1005 NOSIG RMK A2968
RPLL,2025-07-10 12:00,COR RPLL 101200Z 21003KT 170V260 9999 FEW025 29/26 Q1005 NOSIG RMK A2968
RPLL,2025-07-10 12:25,COR RPLL 101225Z 24015G25KT 9999 -SHRA SCT023 BKN100 28/25 Q1005 TEMPO 7000 -TSRA RMK A2968
RPLL,2025-07-10 13:00,COR RPLL 101300Z 22003KT 180V260 9999 FEW025 SCT100 27/24 Q1006 NOSIG RMK A2971
RPLL,2025-07-10 14:00,RPLL 101400Z VRB01KT 9999 FEW025 27/24 Q1005 NOSIG RMK A2968
RPLL,2025-07-10 15:00,RPLL 101500Z VRB02KT 9999 FEW025 28/25 Q1005 NOSIG RMK A2968
RPLL,2025-07-10 16:00,RPLL 101600Z VRB02KT 9999 FEW025 28/26 Q1005 NOSIG RMK A2968
RPLL,2025-07-10 17:00,COR RPLL 101700Z 19003KT 140V240 9999 FEW025 28/26 Q1004 NOSIG RMK A2965
RPLL,2025-07-10 18:00,RPLL 101800Z 170V240 9999 FEW025 SCT100 28/26 Q1004 NOSIG RMK A2965
RPLL,2025-07-10 19:00,RPLL 101900Z 23005KT 200V260 9999 FEW025 SCT100 27/26 Q1004 NOSIG RMK A2965
RPLL,2025-07-10 20:00,RPLL 102000Z VRB15KT 9999 FEW025 SCT100 27/26 Q1004 NOSIG RMK A2965
RPLL,2025-07-10 21:00,COR RPLL 102100Z 20003KT 160V240 9999 FEW025 BKN100 28/25 Q1004 NOSIG RMK A2965
RPLL,2025-07-10 22:00,RPLL 102200Z 22004KT 160V260 9999 FEW025TCU 27/25 Q1004 NOSIG RMK A2965 TCU NW
RPLL,2025-07-10 23:00,RPLL 102300Z VRB02KT 9999 FEW025 SCT100 28/25 Q1005 NOSIG RMK A2968
RPLL,2025-07-11 00:00,RPLL 110000Z 19005KT 150V220 9999 FEW025 BKN100 30/25 Q1005 NOSIG RMK A2968
RPLL,2025-07-11 01:00,RPLL 110100Z 23008KT 170V270 9999 BKN023 30/26 Q1006 NOSIG RMK A2971
RPLL,2025-07-11 02:00,RPLL 110200Z 27009KT 9999 BKN023 30/27 Q1006 NOSIG RMK A2971
RPLL,2025-07-11 02:20,RPLL 110220Z 24008KT 9000 -SHRA SCT023 BKN090 27/26 Q1006 NOSIG RMK A2971
RPLL,2025-07-11 03:00,RPLL 110300Z 25009KT 200V280 9999 FEW025 BKN090 29/26 Q1006 NOSIG RMK A2971
RPLL,2025-07-11 04:00,COR RPLL 110400Z 29010KT 250V320 9999 FEW025 BKN100 31/25 Q1006 NOSIG RMK A2971
RPLL,2025-07-11 05:00,RPLL 110500Z 29008KT 230V320 9999 FEW025 SCT100 30/27 Q1006 NOSIG RMK A2971
RPLL,2025-07-11 06:00,RPLL 110600Z 29009KT 250V340 9999 FEW025 SCT100 32/27 Q1005 NOSIG RMK A2968
RPLL,2025-07-11 07:00,RPLL 110700Z 26014KT 9999 FEW025 SCT100 30/26 Q1004 NOSIG RMK A2965
RPLL,2025-07-11 08:00,RPLL 110800Z 26014KT 9999 SCT025 32/26 Q1005 NOSIG RMK A2968
RPLL,2025-07-11 09:00,RPLL 110900Z 25011KT 220V280 9999 -SHRA FEW023CB SCT025 BKN090 29/26 Q1005 NOSIG RMK A2968 CB E-SE
RPLL,2025-07-11 10:00,RPLL 111000Z 26011KT 9999 -RA FEW023CB SCT025 BKN090 28/27 Q1006 NOSIG RMK A2971 CB NE-E
RPLL,2025-07-11 11:00,RPLL 111100Z 25007KT 220V280 9999 -RA SCT023 BKN100 28/26 Q1007 NOSIG RMK A2974
RPLL,2025-07-11 12:00,RPLL 111200Z VRB03KT 9999 SCT025 BKN100 28/26 Q1007 NOSIG RMK A2974
RPLL,2025-07-11 13:00,RPLL 111300Z 36004KT 260V040 9999 FEW025 SCT100 28/26 Q1008 NOSIG RMK A2977
RPLL,2025-07-11 14:00,RPLL 111400Z VRB01KT 9999 FEW025 SCT100 28/26 Q1008 NOSIG RMK A2977
RPLL,2025-07-11 15:00,RPLL 111500Z 12003KT 080V160 9999 FEW025 BKN100 28/26 Q1008 NOSIG RMK A2977
RPLL,2025-07-11 16:00,RPLL 111600Z VRB01KT 9999 FEW025 28/26 Q1008 NOSIG RMK A2977
RPLL,2025-07-11 17:00,RPLL 111700Z VRB01KT 9999 FEW025 27/26 Q1008 NOSIG RMK A2977
RPLL,2025-07-11 18:00,RPLL 111800Z VRB01KT 9999 FEW025 27/26 Q1007 NOSIG RMK A2974
RPLL,2025-07-11 19:00,RPLL 111900Z 22002KT 9999 SCT023 SCT100 27/26 Q1007 NOSIG RMK A2974
RPLL,2025-07-11 20:00,RPLL 112000Z VRB01KT 9999 FEW025 27/27 Q1007 NOSIG RMK A2974
RPLL,2025-07-11 21:00,RPLL 112100Z 00000KT 9000 SCT025 SCT100 27/27 Q1007 NOSIG RMK A2974
RPLL,2025-07-11 22:00,RPLL 112200Z VRB02KT 9000 FEW025TCU 27/27 Q1008 NOSIG RMK A2977 TCU E
RPLL,2025-07-11 23:00,RPLL 112300Z 24004KT 9000 FEW025 BKN100 27/27 Q1009 NOSIG RMK A2980
RPLL,2025-07-12 00:00,RPLL 120000Z 27003KT 220V300 9000 FEW025 BKN100 29/26 Q1009 NOSIG RMK A2980
RPLL,2025-07-12 01:00,RPLL 120100Z 25008KT 230V290 9000 FEW023 BKN100 29/26 Q1009 NOSIG RMK A2980
RPLL,2025-07-12 02:00,RPLL 120200Z 27009KT 250V310 9999 SCT023 31/27 Q1009 NOSIG RMK A2980
RPLL,2025-07-12 03:00,RPLL 120300Z 28009KT 9999 -SHRA SCT023 BKN090 29/28 Q1009 NOSIG RMK A2980
RPLL,2025-07-12 04:00,RPLL 120400Z 26009KT 9999 -RA FEW023 BKN090 28/26 Q1008 NOSIG RMK A2977
RPLL,2025-07-12 05:00,RPLL 120500Z 27012KT 9999 FEW025 30/27 Q1008 NOSIG RMK A2977
RPLL,2025-07-12 06:00,RPLL 120600Z 26013KT 9999 FEW025 BKN100 31/27 Q1007 NOSIG RMK A2974
RPLL,2025-07-12 07:00,RPLL 120700Z 25013KT 9000 -SHRA FEW023CB SCT025 BKN090 29/26 Q1008 NOSIG RMK A2977 CB S
RPLL,2025-07-12 08:00,RPLL 120800Z 25009KT 9999 FEW025 BKN100 29/27 Q1007 NOSIG RMK A2974
RPLL,2025-07-12 09:00,RPLL 120900Z 26010KT 9999 FEW025 BKN100 29/27 Q1008 NOSIG RMK A2977
RPLL,2025-07-12 10:00,COR RPLL 121000Z 26007KT 9999 -SHRA SCT023 BKN090 28/27 Q1008 NOSIG RMK A2977
RPLL,2025-07-12 11:00,RPLL 121100Z 25007KT 220V290 9999 -RA SCT022 BKN100 29/26 Q1008 NOSIG RMK A2977
RPLL,2025-07-12 12:00,RPLL 121200Z 23005KT 9999 FEW025 BKN130 28/26 Q1008 NOSIG RMK A2977
RPLL,2025-07-12 13:00,RPLL 121300Z 22003KT 190V250 9999 FEW025 SCT100 28/26 Q1009 NOSIG RMK A2980
RPLL,2025-07-12 14:00,RPLL 121400Z 21003KT 170V240 9999 SCT025 BKN100 28/26 Q1009 NOSIG RMK A2980
RPLL,2025-07-12 15:00,RPLL 121500Z 13003KT 090V160 9999 SCT025 BKN100 28/26 Q1010 NOSIG RMK A2983
RPLL,2025-07-12 16:00,RPLL 121600Z VRB01KT 9999 FEW025 27/26 Q1009 NOSIG RMK A2980
RPLL,2025-07-12 17:00,RPLL 121700Z VRB02KT 9999 FEW025 27/26 Q1009 NOSIG RMK A2980
RPLL,2025-07-12 18:00,RPLL 121800Z VRB01KT 9999 FEW025 SCT100 27/26 Q1008 NOSIG RMK A2977
RPLL,2025-07-12 19:00,RPLL 121900Z VRB02KT 9999 SCT023 BKN100 27/26 Q1008 NOSIG RMK A2977
RPLL,2025-07-12 20:00,RPLL 122000Z VRB01KT 9999 FEW025 27/26 Q1008 NOSIG RMK A2977
RPLL,2025-07-12 21:00,RPLL 122100Z 20003KT 180V240 9999 FEW025 27/26 Q1008 NOSIG RMK A2977
RPLL,2025-07-12 22:00,RPLL 122200Z 00000KT 9999 SCT025 SCT100 27/26 Q1009 NOSIG RMK A2980
RPLL,2025-07-12 23:00,RPLL 122300Z 18004KT 150V210 9999 SCT025 BKN100 27/26 Q1009 NOSIG RMK A2980
RPLL,2025-07-13 00:00,RPLL 130000Z VRB03KT 9999 FEW025 SCT100 29/27 Q1009 NOSIG RMK A2980
RPLL,2025-07-13 01:00,RPLL 130100Z 29004KT 260V340 9999 BKN025 29/26 Q1009 NOSIG RMK A2980
RPLL,2025-07-13 02:00,RPLL 130200Z 28006KT 210V340 9999 SCT025 30/26 Q1009 NOSIG RMK A2980
RPLL,2025-07-13 03:00,RPLL 130300Z 28009KT 9999 FEW025 31/26 Q1008 NOSIG RMK A2977
RPLL,2025-07-13 04:00,RPLL 130400Z 29010KT 9999 FEW025 31/27 Q1008 NOSIG RMK A2977
RPLL,2025-07-13 05:00,RPLL 130500Z 27012KT 9999 FEW025 SCT100 31/26 Q1008 NOSIG RMK A2977
RPLL,2025-07-13 06:00,RPLL 130600Z 26014KT 9999 FEW023CB SCT100 31/26 Q1007 NOSIG RMK A2974 CB S
RPLL,2025-07-13 07:00,RPLL 130700Z 25013KT 9999 FEW023CB BKN100 31/27 Q1007 NOSIG RMK A2974 CB S
RPLL,2025-07-13 08:00,RPLL 130800Z 25014KT 9999 FEW025 BKN100 30/26 Q1007 NOSIG RMK A2974
RPLL,2025-07-13 09:00,RPLL 130900Z 25011KT 9999 FEW025 BKN100 30/26 Q1007 NOSIG RMK A2974
RPLL,2025-07-13 10:00,RPLL 131000Z 26010KT 9999 FEW025 SCT100 29/26 Q1007 NOSIG RMK A2974
RPLL,2025-07-13 11:00,RPLL 131100Z 26011KT 9999 FEW025 SCT100 29/26 Q1007 NOSIG RMK A2974
RPLL,2025-07-13 12:00,RPLL 131200Z 25009KT 9999 FEW025 BKN100 29/26 Q1008 NOSIG RMK A2977
RPLL,2025-07-13 13:00,RPLL 131300Z 22004KT 160V250 9999 FEW025 BKN100 29/26 Q1008 NOSIG RMK A2977
RPLL,2025-07-13 14:00,RPLL 131400Z 23003KT 180V280 9999 FEW025 28/26 Q1009 NOSIG RMK A2980
RPLL,2025-07-13 15:00,COR RPLL 131500Z 22004KT 190V250 9999 FEW025 28/26 Q1008 NOSIG RMK A2977
RPLL,2025-07-13 16:00,RPLL 131600Z VRB02KT 9999 FEW025 28/26 Q1008 NOSIG RMK A2977
RPLL,2025-07-13 17:00,RPLL 131700Z 21003KT 180V240 9999 FEW025 28/26 Q1008 NOSIG RMK A2977
RPLL,2025-07-13 18:00,RPLL 131800Z VRB02KT 9999 FEW025 28/26 Q1008 NOSIG RMK A2977
RPLL,2025-07-13 19:00,RPLL 131900Z VRB01KT 9999 FEW025 27/26 Q1008 NOSIG RMK A2977
RPLL,2025-07-13 20:00,RPLL 132000Z 23003KT 9999 FEW025 27/26 Q1007 NOSIG RMK A2974
RPLL,2025-07-13 21:00,RPLL 132100Z 26004KT 9999 SCT025 27/26 Q1007 NOSIG RMK A2974
RPLL,2025-07-13 22:00,RPLL 132200Z 22003KT 180V260 9999 FEW025 SCT100 28/26 Q1007 NOSIG RMK A2974
RPLL,2025-07-13 23:00,RPLL 132300Z 25005KT 9999 FEW025 SCT100 28/26 Q1008 NOSIG RMK A2977
RPLL,2025-07-14 00:00,RPLL 140000Z 26007KT 9999 FEW025 SCT100 29/27 Q1008 NOSIG RMK A2977
RPLL,2025-07-14 01:00,RPLL 140100Z 27008KT 240V310 9999 FEW025 SCT100 30/27 Q1008 NOSIG RMK A2977
RPLL,2025-07-14 02:00,RPLL 140200Z 27010KT 230V300 9999 FEW025 SCT100 31/26 Q1008 NOSIG RMK A2977
RPLL,2025-07-14 03:00,RPLL 140300Z 27012KT 9999 FEW025 SCT100 31/25 Q1008 NOSIG RMK A2977
RPLL,2025-07-14 04:00,RPLL 140400Z 27011KT 240V300 9999 FEW025 31/25 Q1008 NOSIG RMK A2977
RPLL,2025-07-14 05:00,RPLL 140500Z 27012KT 240V300 9999 FEW025 32/26 Q1007 NOSIG RMK A2974
RPLL,2025-07-14 06:00,RPLL 140600Z 27013KT 9999 FEW025 SCT100 31/26 Q1007 NOSIG RMK A2974
RPLL,2025-07-14 07:00,RPLL 140700Z 25014KT 9999 FEW025 32/26 Q1006 NOSIG RMK A2971
RPLL,2025-07-14 08:00,RPLL 140800Z 26013KT 9999 FEW025 SCT100 31/26 Q1006 NOSIG RMK A2971
RPLL,2025-07-14 09:00,RPLL 140900Z 26013KT 9999 FEW025 SCT100 31/26 Q1006 NOSIG RMK A2971
RPLL,2025-07-14 10:00,RPLL 141000Z 25013KT 9999 FEW025 SCT100 30/26 Q1006 NOSIG RMK A2971
RPLL,2025-07-14 11:00,RPLL 141100Z 25011KT 9999 FEW025 SCT100 30/26 Q1006 NOSIG RMK A2971
RPLL,2025-07-14 12:00,RPLL 141200Z 25010KT 9999 FEW025 29/27 Q1007 NOSIG RMK A2974
RPLL,2025-07-14 13:00,RPLL 141300Z 23006KT 200V260 9999 FEW025 29/26 Q1008 NOSIG RMK A2977
RPLL,2025-07-14 14:00,RPLL 141400Z 23004KT 9999 FEW025 29/26 Q1008 NOSIG RMK A2977
RPLL,2025-07-14 15:00,RPLL 141500Z 23005KT 200V260 9999 FEW025 28/26 Q1008 NOSIG RMK A2977
RPLL,2025-07-14 16:00,RPLL 141600Z 23004KT 170V260 9999 FEW025 28/26 Q1008 NOSIG RMK A2977
RPLL,2025-07-14 17:00,RPLL 141700Z 24004KT 190V270 9999 FEW025 28/26 Q1007 NOSIG RMK A2974
RPLL,2025-07-14 18:00,RPLL 141800Z 23004KT 190V260 9999 FEW025 28/25 Q1007 NOSIG RMK A2974
RPLL,2025-07-14 19:00,RPLL 141900Z 24004KT 210V270 9999 SCT025 27/26 Q1006 NOSIG RMK A2971
RPLL,2025-07-14 20:00,RPLL 142000Z 23005KT 200V270 9999 SCT025 BKN100 28/26 Q1006 NOSIG RMK A2971
RPLL,2025-07-14 21:00,RPLL 142100Z 24007KT 9999 SCT025 BKN100 28/26 Q1006 NOSIG RMK A2974
RPLL,2025-07-14 22:00,RPLL 142200Z 22005KT 180V250 9999 SCT025 BKN100 27/25 Q1007 NOSIG RMK A2974
RPLL,2025-07-14 23:00,RPLL 142300Z 22004KT 170V260 9999 FEW025 BKN100 28/26 Q1007 NOSIG RMK A2974
RPLL,2025-07-15 00:00,COR RPLL 150000Z 23006KT 190V250 9999 FEW025 BKN100 29/26 Q1007 NOSIG RMK A2974
RPLL,2025-07-15 01:00,RPLL 150100Z 23006KT 190V250 9999 FEW025 BKN100 29/26 Q1007 NOSIG RMK A2974
RPLL,2025-07-15 02:00,RPLL 150200Z 27007KT 9999 FEW025 BKN100 30/26 Q1007 NOSIG RMK A2974
RPLL,2025-07-15 03:00,RPLL 150300Z 25011KT 9999 FEW025 BKN100 30/26 Q1007 NOSIG RMK A2974
RPLL,2025-07-15 04:00,RPLL 150400Z 26013KT 9999 FEW025 BKN100 30/26 Q1007 NOSIG RMK A2974
RPLL,2025-07-15 05:00,RPLL 150500Z 26013KT 9999 FEW025 SCT100 30/26 Q1007 NOSIG RMK A2974
RPLL,2025-07-15 06:00,COR RPLL 150600Z 27013KT 9999 FEW025 BKN100 31/26 Q1006 NOSIG RMK A2971
RPLL,2025-07-15 07:00,RPLL 150700Z 27015KT 9999 FEW025 BKN100 30/27 Q1005 NOSIG RMK A2968
RPLL,2025-07-15 08:00,RPLL 150800Z 26014KT 9999 FEW025 BKN100 30/27 Q1005 NOSIG RMK A2968
RPLL,2025-07-15 09:00,RPLL 150900Z 26013KT 9999 FEW025 OVC100 29/26 Q1006 NOSIG RMK A2971
RPLL,2025-07-15 10:00,RPLL 151000Z 27012KT 8000 -SHRA FEW023CB SCT025 OVC090 28/27 Q1006 NOSIG RMK A2971 CB W
RPLL,2025-07-15 11:00,RPLL 151100Z 27012KT 230V290 9000 -RA SCT023 OVC090 26/26 Q1007 NOSIG RMK A2974
RPLL,2025-07-15 12:00,RPLL 151200Z 26004KT 150V300 9999 FEW025 BKN090 27/26 Q1008 NOSIG RMK A2977
RPLL,2025-07-15 13:00,RPLL 151300Z 00000KT 9999 FEW025 BKN100 27/27 Q1008 NOSIG RMK A2977
RPLL,2025-07-15 14:00,RPLL 151400Z 23004KT 200V260 9999 FEW025 BKN100 28/27 Q1008 NOSIG RMK A2977
RPLL,2025-07-15 15:00,RPLL 151500Z 23003KT 9999 FEW025 BKN100 27/26 Q1008 NOSIG RMK A2977
RPLL,2025-07-15 16:00,RPLL 151600Z 23004KT 190V310 9999 FEW025 27/26 Q1008 NOSIG RMK A2977
RPLL,2025-07-15 17:00,RPLL 151700Z 20003KT 150V260 9999 FEW025 27/26 Q1007 NOSIG RMK A2974
RPLL,2025-07-15 18:00,RPLL 151800Z 22003KT 160V250 9999 FEW025 SCT100 27/26 Q1007 NOSIG RMK A2974
RPLL,2025-07-15 19:00,RPLL 151900Z 25003KT 200V270 9999 FEW025 27/26 Q1006 NOSIG RMK A2971
RPLL,2025-07-15 20:00,RPLL 152000Z VRB02KT 9999 FEW025 27/26 Q1006 NOSIG RMK A2971
RPLL,2025-07-15 21:00,RPLL 152100Z 25003KT 200V280 9999 BKN025 26/26 Q1006 NOSIG RMK A2971
RPLL,2025-07-15 22:00,RPLL 152200Z VRB01KT 9999 SCT025 BKN100 27/26 Q1006 NOSIG RMK A2971
RPLL,2025-07-15 23:00,RPLL 152300Z 22005KT 190V250 9999 SCT025 OVC100 27/26 Q1007 NOSIG RMK A2974
RPLL,2025-07-16 00:00,RPLL 160000Z 24004KT 200V270 9999 SCT025 BKN100 28/26 Q1007 NOSIG RMK A2974
RPLL,2025-07-16 01:00,RPLL 160100Z 26011G22KT 210V300 9999 FEW025 SCT100 30/26 Q1007 NOSIG RMK A2974
RPLL,2025-07-16 02:00,RPLL 160200Z 27009KT 240V310 9999 FEW025 BKN100 30/27 Q1007 NOSIG RMK A2974
RPLL,2025-07-16 03:00,RPLL 160300Z 29007KT 9999 FEW025 BKN100 30/27 Q1007 NOSIG RMK A2974
RPLL,2025-07-16 04:00,RPLL 160400Z 26010KT 9999 FEW025 BKN100 30/26 Q1007 NOSIG RMK A2974
RPLL,2025-07-16 05:00,RPLL 160500Z 26012KT 9999 FEW025 BKN100 31/27 Q1007 NOSIG RMK A2974
RPLL,2025-07-16 06:00,COR RPLL 160600Z 27012KT 9999 FEW025 BKN100 30/27 Q1006 NOSIG RMK A2971
RPLL,2025-07-16 07:00,RPLL 160700Z 26011KT 9999 FEW023 BKN100 30/26 Q1005 NOSIG RMK A2968
RPLL,2025-07-16 08:00,RPLL 160800Z 26011KT 9999 FEW025 BKN100 30/26 Q1005 NOSIG RMK A2968
RPLL,2025-07-16 09:00,RPLL 160900Z 25011KT 9999 FEW025 OVC100 30/26 Q1005 NOSIG RMK A2968
RPLL,2025-07-16 10:00,RPLL 161000Z 25011KT 9999 FEW025 OVC100 29/26 Q1005 NOSIG RMK A2968
RPLL,2025-07-16 11:00,RPLL 161100Z 26009KT 9999 FEW025 SCT100 29/27 Q1006 NOSIG RMK A2971
RPLL,2025-07-16 12:00,RPLL 161200Z 26010KT 240V300 9999 FEW025 SCT130 29/27 Q1006 NOSIG RMK A2971
RPLL,2025-07-16 13:00,RPLL 161300Z 25012KT 9999 FEW025 BKN100 29/26 Q1006 NOSIG RMK A2971
RPLL,2025-07-16 14:00,RPLL 161400Z 23006KT 180V270 9999 FEW025 BKN100 29/26 Q1006 NOSIG RMK A2971
RPLL,2025-07-16 15:00,RPLL 161500Z 36006KT 330V060 8000 -SHRA SCT023 OVC090 28/26 Q1007 TEMPO 5000 SHRA RMK A2974
RPLL,2025-07-16 16:00,RPLL 161600Z 24005KT 9999 FEW025 SCT100 27/27 Q1006 NOSIG RMK A2971
RPLL,2025-07-16 17:00,RPLL 161700Z 25006KT 210V280 9999 FEW025 BKN100 27/26 Q1006 NOSIG RMK A2971
RPLL,2025-07-16 18:00,RPLL 161800Z 22003KT 9999 FEW025 SCT100 27/26 Q1005 NOSIG RMK A2968
RPLL,2025-07-16 19:00,RPLL 161900Z VRB01KT 9999 BKN025 27/27 Q1004 NOSIG RMK A2965
RPLL,2025-07-16 20:00,RPLL 162000Z VRB02KT 9999 FEW025 SCT100 27/27 Q1003 NOSIG RMK A2962
RPLL,2025-07-16 21:00,RPLL 162100Z 20003KT 170V230 9999 FEW025 27/27 Q1003 NOSIG RMK A2962
RPLL,2025-07-16 22:00,RPLL 162200Z VRB02KT 9999 FEW025 OVC100 27/26 Q1004 NOSIG RMK A2965
RPLL,2025-07-16 23:00,RPLL 162300Z VRB02KT 9999 FEW025 OVC100 27/27 Q1005 NOSIG RMK A2968
RPLL,2025-07-17 00:00,RPLL 170000Z 27004KT 230V340 9999 FEW023 OVC100 28/26 Q1005 NOSIG RMK A2968
RPLL,2025-07-17 01:00,RPLL 170100Z 27004KT 240V330 9999 FEW023 OVC100 28/26 Q1005 NOSIG RMK A2968
RPLL,2025-07-17 02:00,RPLL 170200Z 26005KT 170V290 9999 FEW025 OVC100 29/26 Q1006 NOSIG RMK A2971
RPLL,2025-07-17 03:00,RPLL 170300Z 31004KT 270V350 9999 FEW025 OVC100 30/26 Q1005 NOSIG RMK A2968
RPLL,2025-07-17 04:00,RPLL 170400Z 26009KT 9999 FEW025 OVC100 29/26 Q1004 NOSIG RMK A2965
RPLL,2025-07-17 05:00,RPLL 170500Z 26010KT 230V300 9999 FEW025 OVC100 29/27 Q1003 NOSIG RMK A2962
RPLL,2025-07-17 06:00,RPLL 170600Z 26012KT 9999 FEW025 OVC100 28/27 Q1003 NOSIG RMK A2962
RPLL,2025-07-17 06:37,RPLL 170637Z 25009KT 210V270 9999 -SHRA FEW025 OVC100 28/27 Q1002 NOSIG RMK A2959
RPLL,2025-07-17 07:00,RPLL 170700Z 26009KT 9999 -SHRA SCT023 OVC100 28/27 Q1002 NOSIG RMK A2959
RPLL,2025-07-17 08:00,RPLL 170800Z 24005KT 190V270 9999 -RA SCT023 OVC090 28/27 Q1002 NOSIG RMK A2959
RPLL,2025-07-17 09:00,RPLL 170900Z 23004KT 190V270 9999 -RA SCT023 OVC090 28/27 Q1003 NOSIG RMK A2962
RPLL,2025-07-17 09:11,RPLL 170911Z 24006KT 210V280 4000 RA SCT022 OVC090 27/27 Q1003 TEMPO 7000 -RA RMK A2962
RPLL,2025-07-17 10:00,RPLL 171000Z VRB02KT 5000 RA BKN022 OVC090 27/27 Q1003 NOSIG RMK A2962
RPLL,2025-07-17 11:00,RPLL 171100Z VRB01KT 9000 -RA SCT025 OVC100 26/26 Q1003 RERA NOSIG RMK A2962
RPLL,2025-07-17 12:00,RPLL 171200Z VRB01KT 9000 -RA SCT023 OVC100 27/27 Q1003 NOSIG RMK A2962
RPLL,2025-07-17 13:00,RPLL 171300Z 23004KT 9000 -RA SCT022 OVC090 27/27 Q1003 NOSIG RMK A2962
RPLL,2025-07-17 14:00,RPLL 171400Z 24005KT 200V310 9000 -RA SCT023 OVC100 27/27 Q1002 NOSIG RMK A2959
RPLL,2025-07-17 15:00,RPLL 171500Z VRB02KT 9000 -RA SCT022 OVC090 27/27 Q1003 NOSIG RMK A2962
RPLL,2025-07-17 16:00,RPLL 171600Z VRB02KT 9000 -RA SCT022 OVC090 27/27 Q1002 NOSIG RMK A2959
RPLL,2025-07-17 17:00,RPLL 171700Z VRB02KT 9000 -RA SCT023 OVC100 27/27 Q1001 NOSIG RMK A2956
RPLL,2025-07-17 18:00,RPLL 171800Z 00000KT 9000 -RA SCT022 OVC090 27/27 Q1000 NOSIG RMK A2953
RPLL,2025-07-17 19:00,RPLL 171900Z VRB02KT 9000 -RA SCT023 OVC100 27/27 Q1000 NOSIG RMK A2953
RPLL,2025-07-17 20:00,RPLL 172000Z 27004KT 240V320 9000 -RA SCT022 OVC090 27/27 Q0999 NOSIG RMK A2950
RPLL,2025-07-17 21:00,RPLL 172100Z 23006KT 200V260 9999 -RA SCT023 OVC100 27/27 Q0999 NOSIG RMK A2950
RPLL,2025-07-17 22:00,RPLL 172200Z 23005KT 9000 -RA SCT023 OVC100 27/27 Q1000 NOSIG RMK A2953
RPLL,2025-07-17 23:00,RPLL 172300Z 25011KT 9000 -RA SCT022 OVC080 27/27 Q1000 NOSIG RMK A2953
RPLL,2025-07-18 00:00,RPLL 180000Z 24009KT 7000 -RA SCT020 OVC080 27/26 Q1001 NOSIG RMK A2956
RPLL,2025-07-18 01:00,RPLL 180100Z 23007KT 8000 -RA SCT022 OVC080 26/26 Q1001 NOSIG RMK A2956
RPLL,2025-07-18 02:00,RPLL 180200Z 27006KT 190V260 8000 -RA SCT022 OVC080 26/26 Q1001 NOSIG RMK A2956
RPLL,2025-07-18 03:00,RPLL 180300Z 23007KT 8000 -RA SCT022 OVC080 27/27 Q1000 NOSIG RMK A2953
RPLL,2025-07-18 04:00,RPLL 180400Z 24008KT 9000 -RA SCT022 OVC080 27/26 Q0999 NOSIG RMK A2950
RPLL,2025-07-18 05:00,RPLL 180500Z 25013KT 9000 -RA SCT022 OVC080 28/26 Q0999 NOSIG RMK A2950
RPLL,2025-07-18 06:00,RPLL 180600Z 24012KT 9000 -RA SCT022 OVC080 28/26 Q0999 NOSIG RMK A2950
RPLL,2025-07-18 07:00,RPLL 180700Z 25014KT 9000 -RA SCT022 OVC080 27/26 Q0998 NOSIG RMK A2947
RPLL,2025-07-18 08:00,RPLL 180800Z 25013KT 9000 -RA SCT022 OVC080 28/27 Q0998 NOSIG RMK A2947
RPLL,2025-07-18 09:00,RPLL 180900Z 25015KT 9000 -RA SCT022 OVC080 27/26 Q0998 NOSIG RMK A2947
RPLL,2025-07-18 10:00,RPLL 181000Z 25014KT 9000 -RA SCT022 OVC080 27/26 Q0998 NOSIG RMK A2947
RPLL,2025-07-18 11:00,RPLL 181100Z 25011G21KT 220V280 9000 -RA FEW023 OVC100 27/25 Q0999 NOSIG RMK A2950
RPLL,2025-07-18 12:00,RPLL 181200Z 25015KT 9000 -RA SCT023 OVC100 27/26 Q0999 NOSIG RMK A2950
RPLL,2025-07-18 13:00,RPLL 181300Z 28014KT 250V310 8000 -RA SCT022 OVC080 27/25 Q1000 NOSIG RMK A2953
RPLL,2025-07-18 14:00,RPLL 181400Z 28006KT 9999 -RA SCT023 OVC100 26/25 Q1000 NOSIG RMK A2953
RPLL,2025-07-18 15:00,RPLL 181500Z VRB02KT 9000 -RA SCT022 OVC080 26/25 Q1000 NOSIG RMK A2953
RPLL,2025-07-18 16:00,RPLL 181600Z 10003KT 060V130 9000 -RA SCT022 OVC080 26/26 Q0999 NOSIG RMK A2950
RPLL,2025-07-18 17:00,RPLL 181700Z VRB02KT 9000 -RA SCT022 OVC080 26/26 Q0998 NOSIG RMK A2947
RPLL,2025-07-18 18:00,RPLL 181800Z 23009KT 190V270 8000 -RA SCT020 OVC080 26/26 Q0997 RMK A2944
RPLL,2025-07-18 19:00,RPLL 181900Z 23011KT 5000 RA BKN018 OVC080 25/25 Q0998 TEMPO 7000 -RA RMK A2947
RPLL,2025-07-18 20:00,RPLL 182000Z 22005KT 180V250 6000 RA BKN018 OVC080 26/26 Q0998 TEMPO -RA RMK A2947
RPLL,2025-07-18 21:00,RPLL 182100Z 22008KT 9000 -RA BKN020 OVC090 26/26 Q0998 RERA NOSIG RMK A2947
RPLL,2025-07-18 22:00,RPLL 182200Z 25007KT 190V300 3000 +RA BKN015 OVC080 26/26 Q0998 TEMPO 6000 RA RMK A2947
RPLL,2025-07-18 22:16,RPLL 182216Z 22009KT 190V250 8000 -RA BKN020 OVC090 26/26 Q0998 RERA NOSIG RMK A2947
RPLL,2025-07-18 23:00,RPLL 182300Z 23009KT 9000 -RA SCT023 OVC100 27/25 Q0998 NOSIG RMK A2947
RPLL,2025-07-19 00:00,RPLL 190000Z 21006KT 9000 -RA SCT023 OVC100 27/26 Q0999 NOSIG RMK A2950
RPLL,2025-07-19 00:38,RPLL 190038Z 27013KT 5000 RA BKN020 OVC080 25/25 Q1000 NOSIG RMK A2953
RPLL,2025-07-19 01:00,RPLL 190100Z 28008KT 6000 -RA BKN022 OVC090 26/26 Q1000 RERA NOSIG RMK A2953
RPLL,2025-07-19 02:00,RPLL 190200Z 25012KT 9999 SCT023 OVC100 29/26 Q0999 NOSIG RMK A2950
RPLL,2025-07-19 03:00,COR RPLL 190300Z 25021G33KT 6000 RA BKN020 OVC080 27/25 Q1000 NOSIG RMK A2953
RPLL,2025-07-19 04:00,RPLL 190400Z 24013KT 7000 -RA BKN022 OVC090 26/25 Q1000 RERA NOSIG RMK A2953
RPLL,2025-07-19 05:00,RPLL 190500Z 23009KT 8000 -RA SCT023 OVC090 26/26 Q1000 TEMPO RA RMK A2953
RPLL,2025-07-19 06:00,RPLL 190600Z 26017G31KT 3000 +RA BKN015 OVC070 25/25 Q1000 NOSIG RMK A2953
RPLL,2025-07-19 06:31,RPLL 190631Z 24010KT 7000 -RA SCT022 OVC080 25/25 Q0999 RERA NOSIG RMK A2950
RPLL,2025-07-19 07:00,RPLL 190700Z 23007KT 190V280 8000 -RA SCT022 OVC080 25/25 Q0999 NOSIG RMK A2950
RPLL,2025-07-19 08:00,RPLL 190800Z 16004KT 090V200 8000 -RA SCT022 OVC080 25/25 Q0998 NOSIG RMK A2947
RPLL,2025-07-19 09:00,RPLL 190900Z 18003KT 130V230 9000 -RA SCT022 OVC080 26/26 Q0999 NOSIG RMK A2950
RPLL,2025-07-19 10:00,RPLL 191000Z 19004KT 160V240 9000 -RA SCT022 OVC090 27/26 Q1000 NOSIG RMK A2953
RPLL,2025-07-19 11:00,RPLL 191100Z VRB02KT 9999 SCT023 OVC090 26/26 Q1000 NOSIG RMK A2953
RPLL,2025-07-19 12:00,RPLL 191200Z 20003KT 130V230 9999 FEW023CB SCT025 OVC100 27/26 Q1001 NOSIG RMK A2956 CB/LTG OCNL NW N
RPLL,2025-07-19 13:00,COR RPLL 191300Z 28013KT 260V320 2000 +TSRA FEW018CB SCT022 OVC070 25/25 Q1003 TEMPO 5000 TSRA RMK A2962 CB OHD
RPLL,2025-07-19 14:00,RPLL 191400Z 29007KT 2000 +RA SCT020 OVC070 25/25 Q1004 RETS NOSIG RMK A2965
RPLL,2025-07-19 15:00,RPLL 191500Z 27004KT 230V360 9000 -RA SCT020 OVC080 25/25 Q1003 NOSIG RMK A2962
RPLL,2025-07-19 16:00,RPLL 191600Z 33005KT 260V020 2000 +RA FEW015CB SCT018 OVC070 25/25 Q1003 TEMPO 5000 TSRA RMK A2962 CB W-NW W/ OCNL LTG
RPLL,2025-07-19 17:00,RPLL 191700Z 19004KT 160V230 9000 -RA FEW022CB SCT023 OVC090 25/25 Q1002 NOSIG RMK A2959 CB W W/ OCNL LTG
RPLL,2025-07-19 18:00,RPLL 191800Z 13003KT 090V210 9000 -RA FEW022CB SCT023 OVC090 25/25 Q1001 NOSIG RMK A2956 CB SE-S W/ OCNL LTG
RPLL,2025-07-19 19:00,RPLL 191900Z VRB02KT 9000 -RA SCT023 OVC090 26/26 Q1001 NOSIG RMK A2956
RPLL,2025-07-19 20:00,RPLL 192000Z 23003KT 110V270 9000 -RA SCT022 OVC090 27/26 Q1001 NOSIG RMK A2956
RPLL,2025-07-19 21:00,RPLL 192100Z VRB02KT 9999 SCT025 OVC100 26/26 Q1002 NOSIG RMK A2959
RPLL,2025-07-19 22:00,RPLL 192200Z 22007KT 180V250 9000 -RA SCT023 OVC090 27/26 Q1002 NOSIG RMK A2959
RPLL,2025-07-19 23:00,RPLL 192300Z 23008KT 9000 -RA SCT023 OVC090 27/26 Q1003 NOSIG RMK A2962
RPLL,2025-07-20 00:00,RPLL 200000Z 22006KT 190V250 8000 -RA SCT023 OVC090 26/25 Q1004 NOSIG RMK A2965
RPLL,2025-07-20 01:00,RPLL 200100Z 23007KT 200V260 9000 SCT023 OVC090 29/27 Q1003 NOSIG RMK A2962
RPLL,2025-07-20 02:00,RPLL 200200Z 24011KT 200V260 9999 SCT023 BKN090 31/26 Q1003 NOSIG RMK A2962
RPLL,2025-07-20 03:00,RPLL 200300Z 25016KT 9999 FEW025 SCT100 31/25 Q1003 NOSIG RMK A2962
RPLL,2025-07-20 04:00,RPLL 200400Z 26018KT 210V280 9999 FEW025 SCT100 30/26 Q1003 NOSIG RMK A2962
RPLL,2025-07-20 05:00,RPLL 200500Z 23009KT 200V260 9999 SCT023 OVC100 28/25 Q1004 NOSIG RMK A2965
RPLL,2025-07-20 06:00,RPLL 200600Z 22009KT 170V270 9999 FEW023 BKN100 29/26 Q1003 NOSIG RMK A2962
RPLL,2025-07-20 06:35,RPLL 200635Z 24014G26KT 200V270 9000 -RA SCT023 OVC100 29/26 Q1003 NOSIG RMK A2962
RPLL,2025-07-20 07:00,RPLL 200700Z 22010KT 180V240 6000 RA FEW023 OVC090 27/26 Q1003 NOSIG RMK A2962
RPLL,2025-07-20 08:00,RPLL 200800Z 23008KT 9000 -RA SCT023 OVC090 28/25 Q1003 RERA NOSIG RMK A2962
RPLL,2025-07-20 09:00,RPLL 200900Z 22007KT 180V250 9000 SCT023 OVC100 28/26 Q1003 NOSIG RMK A2962
RPLL,2025-07-20 10:00,RPLL 201000Z 24011KT 200V280 8000 -RA SCT023 OVC090 28/26 Q1004 NOSIG RMK A2965
RPLL,2025-07-20 11:00,RPLL 201100Z VRB02KT 8000 -RA SCT023 OVC090 26/26 Q1004 TEMPO 5000 RA RMK A2965
RPLL,2025-07-20 12:00,RPLL 201200Z 16003KT 070V200 9000 SCT025 BKN100 27/27 Q1005 NOSIG RMK A2968
RPLL,2025-07-20 13:00,RPLL 201300Z 21007KT 9000 FEW023CB OVC100 27/26 Q1005 NOSIG RMK A2968 CB/OCNL LTG NE
RPLL,2025-07-20 14:00,RPLL 201400Z 22006KT 170V240 9000 SCT025 OVC100 28/26 Q1006 NOSIG RMK A2971
RPLL,2025-07-20 15:00,RPLL 201500Z 21004KT 150V250 9000 SCT025 OVC100 27/25 Q1006 NOSIG RMK A2971
RPLL,2025-07-20 16:00,RPLL 201600Z 20003KT 140V240 9000 FEW025 BKN100 27/25 Q1005 NOSIG RMK A2968
RPLL,2025-07-20 17:00,RPLL 201700Z 21004KT 150V250 9000 SCT025 OVC100 27/26 Q1005 NOSIG RMK A2968
RPLL,2025-07-20 18:00,RPLL 201800Z 22003KT 180V250 9000 SCT025 BKN100 27/25 Q1005 NOSIG RMK A2968
RPLL,2025-07-20 19:00,RPLL 201900Z VRB02KT 9000 FEW025 SCT100 26/25 Q1005 NOSIG RMK A2968
RPLL,2025-07-20 20:00,RPLL 202000Z 24003KT 210V300 9000 FEW025 BKN100 27/25 Q1005 NOSIG RMK A2965
RPLL,2025-07-20 21:00,RPLL 202100Z VRB02KT 9999 FEW025 27/26 Q1004 NOSIG RMK A2965
RPLL,2025-07-20 22:00,RPLL 202200Z VRB01KT 9000 FEW025 27/26 Q1005 NOSIG RMK A2968
RPLL,2025-07-20 22:21,RPLL 202221Z 23004KT 180V260 9000 -SHRA FEW025 BKN100 27/26 Q1006 NOSIG RMK A2971
RPLL,2025-07-20 23:00,RPLL 202300Z 24004KT 210V270 9000 -SHRA SCT023 OVC100 28/26 Q1006 NOSIG RMK A2971
RPLL,2025-07-21 00:00,RPLL 210000Z 21007KT 160V240 5000 RA SCT022 OVC090 26/26 Q1006 NOSIG RMK A2971
RPLL,2025-07-21 01:00,COR RPLL 210100Z 23006KT 190V260 6000 RA FEW020CB SCT022 OVC090 26/26 Q1007 NOSIG RMK A2974 CB W
RPLL,2025-07-21 02:00,RPLL 210200Z 16004KT 130V200 2000 +RA FEW020CB BKN022 OVC080 25/25 Q1007 TEMPO 5000 TSRA RMK A2974 CB N/NE
RPLL,2025-07-21 02:26,COR RPLL 210226Z 19006KT 150V220 5000 TSRA FEW020CB BKN022 OVC080 26/26 Q1006 RERA NOSIG RMK A2971 CB N/NE/OHD
RPLL,2025-07-21 03:00,RPLL 210300Z 18004KT 130V210 8000 -RA FEW020CB SCT022 OVC080 26/26 Q1006 RETSRA NOSIG RMK A2971 CB N/NE
RPLL,2025-07-21 04:00,RPLL 210400Z 16003KT 120V210 8000 -RA FEW020CB SCT022 OVC090 26/26 Q1006 NOSIG RMK A2971 CB NE
RPLL,2025-07-21 04:27,COR RPLL 210427Z 17005KT 100V240 4000 +RA FEW020CB BKN022 OVC080 26/26 Q1006 TEMPO 5000 TSRA RMK A2971 CB N/NE
RPLL,2025-07-21 05:00,RPLL 210500Z 22004KT 180V260 8000 -RA FEW020CB SCT022 OVC090 26/26 Q1006 RERA NOSIG RMK A2971 CB NE
RPLL,2025-07-21 06:00,RPLL 210600Z 23003KT 150V270 9000 -RA SCT023 OVC090 27/26 Q1005 NOSIG RMK A2968
RPLL,2025-07-21 07:00,RPLL 210700Z 23008G22KT 180V260 9000 -RA FEW020CB SCT022 OVC090 27/26 Q1005 NOSIG RMK A2968 CB W
RPLL,2025-07-21 07:34,RPLL 210734Z 22012G23KT 4000 +RA FEW020CB BKN022 OVC080 25/25 Q1005 TEMPO 5000 TSRA RMK A2968 CB S
RPLL,2025-07-21 08:00,RPLL 210800Z VRB02KT 5000 RA FEW020CB BKN022 OVC080 25/25 Q1005 RERA NOSIG RMK A2968 CB S
RPLL,2025-07-21 09:00,RPLL 210900Z 07003KT 010V130 6000 RA SCT022 OVC080 25/25 Q1005 NOSIG RMK A2968
RPLL,2025-07-21 10:00,RPLL 211000Z 13004KT 070V170 8000 -RA FEW020CB SCT022 OVC080 26/26 Q1005 NOSIG RMK A2968 CB NW
RPLL,2025-07-21 11:00,RPLL 211100Z VRB02KT 7000 -RA FEW020CB SCT022 OVC080 26/26 Q1005 NOSIG RMK A2968 CB/OCNL LTG N-NE
RPLL,2025-07-21 12:00,RPLL 211200Z VRB02KT 7000 -RA FEW020CB SCT022 OVC080 26/26 Q1006 NOSIG RMK A2971 CB/OCNL LTG NW
RPLL,2025-07-21 13:00,RPLL 211300Z VRB02KT 8000 -TSRA FEW020CB SCT022 OVC080 26/26 Q1006 NOSIG RMK A2971 CB/OCNL LTG W-NW/OHD
RPLL,2025-07-21 14:00,RPLL 211400Z 07004KT 040V100 8000 -TSRA FEW020CB SCT022 OVC080 26/26 Q1007 NOSIG RMK A2974 CB/OCNL LTG W/OHD
RPLL,2025-07-21 15:00,RPLL 211500Z 10004KT 060V140 7000 -TSRA FEW020CB SCT022 OVC070 26/26 Q1007 NOSIG RMK A2974 CB/OCNL LTG OHD W
RPLL,2025-07-21 16:00,RPLL 211600Z 05004KT 010V110 2000 +TSRA FEW018CB SCT020 OVC070 25/25 Q1006 NOSIG RMK A2971 CB OHD
RPLL,2025-07-21 17:00,RPLL 211700Z 31006KT 260V030 5000 TSRA FEW018CB SCT020 OVC070 25/25 Q1006 NOSIG RMK A2971 CB/OCNL LTG W
RPLL,2025-07-21 18:00,RPLL 211800Z 18003KT 120V230 5000 TSRA FEW018CB SCT020 OVC070 25/25 Q1006 NOSIG RMK A2971 CB/OCNL LTG OHD W
RPLL,2025-07-21 19:00,RPLL 211900Z 26006KT 7000 -TSRA FEW018CB SCT020 OVC070 25/25 Q1005 TEMPO 5000 TSRA RMK A2968 CB OHD  S-W
RPLL,2025-07-21 20:00,RPLL 212000Z 24004KT 190V300 5000 TSRA FEW018CB SCT020 OVC070 24/24 Q1005 NOSIG RMK A2965 CB OHD  SW-NW
RPLL,2025-07-21 21:00,RPLL 212100Z 27004KT 7000 -TSRA FEW020CB SCT022 OVC080 25/25 Q1005 RERA NOSIG RMK A2968 CB SW
RPLL,2025-07-21 22:00,RPLL 212200Z 18003KT 110V220 5000 TSRA FEW020CB SCT022 OVC080 25/25 Q1005 NOSIG RMK A2968 CB W
RPLL,2025-07-21 23:00,RPLL 212300Z 06002KT 1000 +TSRA FEW018CB SCT020 OVC070 25/25 Q1005 TEMPO 5000 RMK A2968 CB W
RPLL,2025-07-22 00:00,COR RPLL 220000Z 03005KT 320V080 1000 +TSRA FEW018CB SCT020 OVC070 25/25 Q1006 TEMPO 5000 RMK A2971 CB/OCNL LTG OHD W
RPLL,2025-07-22 01:00,RPLL 220100Z VRB02KT 5000 -RA SCT020 OVC080 25/25 Q1005 RETS NOSIG RMK A2968
RPLL,2025-07-22 02:00,RPLL 220200Z 28005KT 250V330 6000 -RA SCT020 OVC080 26/26 Q1005 NOSIG RMK A2968
RPLL,2025-07-22 03:00,RPLL 220300Z 30005KT 270V330 6000 -RA SCT020 OVC080 26/26 Q1006 TEMPO 5000 RA RMK A2971
RPLL,2025-07-22 04:00,RPLL 220400Z 25006KT 230V290 7000 -RA SCT020 OVC080 27/27 Q1005 NOSIG RMK A2968
RPLL,2025-07-22 05:00,RPLL 220500Z 26008KT 7000 -RA SCT020 OVC080 26/26 Q1004 NOSIG RMK A2965
RPLL,2025-07-22 06:00,RPLL 220600Z 29006KT 9000 FEW025 BKN100 28/27 Q1004 NOSIG RMK A2965
RPLL,2025-07-22 06:30,RPLL 220630Z 27015G25KT 200V290 0500 +SHRA SCT018 OVC070 26/26 Q1003 TEMPO 2000 RMK A2962
RPLL,2025-07-22 07:00,COR RPLL 220700Z 30010KT 0500 +TSRA FEW015CB SCT020 OVC070 25/25 Q1003 TEMPO 2000 RMK A2962 CB OHD E
RPLL,2025-07-22 08:00,RPLL 220800Z 28006KT 0500 +TSRA FEW015CB SCT020 OVC070 25/25 Q1003 TEMPO 2000 RMK A2962 CB OHD SW
RPLL,2025-07-22 09:00,RPLL 220900Z 27009KT 250V310 5000 RA SCT020 OVC070 26/26 Q1004 RETSRA NOSIG RMK A2965
RPLL,2025-07-22 10:00,RPLL 221000Z 26006KT 6000 -RA SCT020 OVC070 26/26 Q1004 NOSIG RMK A2965
RPLL,2025-07-22 11:00,RPLL 221100Z 23004KT 150V290 8000 -RA SCT022 OVC080 25/25 Q1004 TEMPO 5000 RA RMK A2965
RPLL,2025-07-22 12:00,RPLL 221200Z 25014KT 7000 -RA SCT022 OVC080 25/25 Q1004 TEMPO 5000 RA RMK A2965
RPLL,2025-07-22 13:00,RPLL 221300Z 26012KT 8000 -RA FEW023 OVC090 26/26 Q1005 NOSIG RMK A2968
RPLL,2025-07-22 14:00,RPLL 221400Z 33003KT 260V040 8000 -RA FEW022 OVC070 26/26 Q1005 NOSIG RMK A2968
RPLL,2025-07-22 15:00,RPLL 221500Z 25007KT 8000 -RA FEW022 OVC080 26/26 Q1005 NOSIG RMK A2968
RPLL,2025-07-22 16:00,RPLL 221600Z 25008KT 9000 SCT022 OVC080 26/26 Q1004 NOSIG RMK A2965
RPLL,2025-07-22 17:00,RPLL 221700Z 24009KT 9000 SCT0222 OVC080 27/26 Q1003 NOSIG RMK A2962
RPLL,2025-07-22 18:00,RPLL 221800Z 28006KT 9000 -RA SCT022 OVC080 25/25 Q1003 NOSIG RMK A2962
RPLL,2025-07-22 19:00,RPLL 221900Z 23006KT 9000 -RA SCT022 OVC080 26/26 Q1002 NOSIG RMK A2959
RPLL,2025-07-22 20:00,RPLL 222000Z 22005KT 190V250 9000 SCT023 OVC090 26/25 Q1002 NOSIG RMK A2959
RPLL,2025-07-22 20:15,RPLL 222015Z 27005KT 230V290 7000 -RA SCT022 OVC080 26/26 Q1002 TEMPO 5000 RA RMK A2959
RPLL,2025-07-22 21:00,RPLL 222100Z 25012KT 220V280 4000 RA SCT018 OVC070 25/25 Q1002 NOSIG RMK A2959
RPLL,2025-07-22 22:00,RPLL 222200Z 24006KT 210V270 8000 -RA SCT020 OVC080 25/25 Q1002 RERA NOSIG RMK A2959
RPLL,2025-07-22 23:00,RPLL 222300Z 25010KT 9000 -RA SCT022 OVC080 25/25 Q1002 NOSIG RMK A2959
RPLL,2025-07-23 00:00,RPLL 230000Z 23005KT 200V260 9000 -RA SCT022 OVC090 25/25 Q1003 NOSIG RMK A2962
RPLL,2025-07-23 01:00,RPLL 230100Z 24006KT 210V270 3000 +RA SCT022 OVC090 25/25 Q1003 TEMPO 5000 RA RMK A2962
RPLL,2025-07-23 02:00,RPLL 230200Z 24012KT 3000 +RA BKN020 OVC080 25/25 Q1003 NOSIG RMK A2962
RPLL,2025-07-23 03:00,RPLL 230300Z 25011KT 9000 -RA SCT022 OVC080 25/25 Q1003 RERA NOSIG RMK A2962
RPLL,2025-07-23 04:00,RPLL 230400Z 26008KT 230V300 8000 -RA SCT022 OVC080 26/26 Q1002 NOSIG RMK A2959
RPLL,2025-07-23 05:00,RPLL 230500Z 24007KT 200V260 9000 -RA SCT022 OVC090 27/26 Q1002 NOSIG RMK A2959
RPLL,2025-07-23 06:00,RPLL 230600Z 26007KT 210V290 9000 -RA SCT022 OVC090 26/26 Q1001 NOSIG RMK A2956
RPLL,2025-07-23 07:00,RPLL 230700Z 27007KT 230V300 9000 -RA SCT022 OVC090 25/25 Q1001 NOSIG RMK A2956
RPLL,2025-07-23 08:00,RPLL 230800Z 25005KT 8000 -RA SCT022 OVC080 26/26 Q1000 NOSIG RMK A2983
RPLL,2025-07-23 08:28,RPLL 230828Z 25008KT 5000 RA SCT022 OVC080 26/26 Q1000 NOSIG RMK A2953
RPLL,2025-07-23 09:00,RPLL 230900Z 27010KT 5000 RA SCT022 OVC080 25/25 Q1001 NOSIG RMK A2956
RPLL,2025-07-23 10:00,RPLL 231000Z 26006KT 5000 RA BKN022 OVC080 26/26 Q1001 NOSIG RMK A2956
RPLL,2025-07-23 11:00,COR RPLL 231100Z 23009KT 9000 -RA BKN022 OVC090 26/26 Q1001 RERA NOSIG RMK A2956
RPLL,2025-07-23 12:00,RPLL 231200Z 23007KT 9999 FEW025 OVC100 26/26 Q1001 NOSIG RMK A2956
RPLL,2025-07-23 13:00,RPLL 231300Z 22005KT 190V250 9000 -RA SCT022 OVC080 26/26 Q1001 NOSIG RMK A2956
RPLL,2025-07-23 14:00,RPLL 231400Z 19003KT 150V220 9000 -RA SCT022 OVC080 26/26 Q1002 NOSIG RMK A2959
RPLL,2025-07-23 15:00,RPLL 231500Z VRB01KT 9000 -RA SCT022 OVC090 26/26 Q1002 NOSIG RMK A2959
RPLL,2025-07-23 16:00,RPLL 231600Z 21003KT 150V250 9000 -RA SCT022 OVC090 26/26 Q1002 TEMPO 5000 RA RMK A2959
RPLL,2025-07-23 17:00,RPLL 231700Z VRB01KT 8000 -RA SCT022 OVC080 26/26 Q1001 NOSIG RMK A2956
RPLL,2025-07-23 18:00,RPLL 231800Z 26007KT 210V280 5000 RA SCT020 OVC070 25/25 Q1000 TEMPO 2000 +RA RMK A2953
RPLL,2025-07-23 19:00,RPLL 231900Z 26006KT 210V310 6000 -RA BKN022 OVC080 25/25 Q1000 NOSIG RMK A2953
RPLL,2025-07-23 20:00,RPLL 232000Z 23007KT 6000 -RA BKN022 OVC080 25/25 Q1000 NOSIG RMK A2953
RPLL,2025-07-23 21:00,RPLL 232100Z 18003KT 150V210 9000 -RA SCT023 OVC090 25/25 Q1000 NOSIG RMK A2953
RPLL,2025-07-23 22:00,RPLL 232200Z 14003KT 100V180 9000 -RA SCT023 OVC100 25/25 Q1000 NOSIG RMK A2953
RPLL,2025-07-23 23:00,RPLL 232300Z 13004KT 080V160 9000 -RA SCT023 OVC100 25/25 Q1001 NOSIG RMK A2956
RPLL,2025-07-24 00:00,RPLL 240000Z 13003KT 080V180 8000 -RA SCT020 OVC080 26/26 Q1001 NOSIG RMK A2965
RPLL,2025-07-24 01:00,RPLL 240100Z 16003KT 110V200 9000 -RA SCT022 OVC080 26/26 Q1001 NOSIG RMK A2956
RPLL,2025-07-24 02:00,RPLL 240200Z VRB02KT 6000 -RA SCT022 OVC080 26/26 Q1001 NOSIG RMK A2956
RPLL,2025-07-24 03:00,RPLL 240300Z 18003KT 120V220 8000 -RA FEW020CB SCT022 OVC090 26/26 Q1001 TEMPO 4000 TSRA RMK A2956 CB OHD S
RPLL,2025-07-24 04:00,RPLL 240400Z 20004KT 150V240 9000 -RA SCT023 OVC090 26/26 Q1000 NOSIG RMK A2953
RPLL,2025-07-24 04:39,RPLL 240439Z 18006KT 6000 RA SCT022 OVC080 26/26 Q1001 NOSIG RMK A2956
RPLL,2025-07-24 05:00,RPLL 240500Z 18004KT 150V220 7000 RA SCT022 OVC080 26/26 Q1001 NOSIG RMK A2956
RPLL,2025-07-24 06:00,RPLL 240600Z VRB03KT 8000 -RA SCT022 OVC080 26/26 Q1000 RERA NOSIG RMK A2953
RPLL,2025-07-24 07:00,RPLL 240700Z 18004KT 140V220 8000 -RA SCT022 OVC090 26/26 Q0999 NOSIG RMK A2950
RPLL,2025-07-24 08:00,RPLL 240800Z 20005KT 080V240 5000 RA SCT022 OVC080 25/25 Q0999 NOSIG RMK A2950
RPLL,2025-07-24 09:00,RPLL 240900Z 16004KT 120V200 8000 RA SCT022 OVC080 26/26 Q0999 NOSIG RMK A2950
RPLL,2025-07-24 10:00,RPLL 241000Z 23009KT 8000 -RA SCT022 OVC090 27/26 Q0999 RERA NOSIG RMK A2950
RPLL,2025-07-24 11:00,RPLL 241100Z 21005KT 170V250 9999 -RA SCT023 OVC100 27/26 Q0999 NOSIG RMK A2950
RPLL,2025-07-24 12:00,RPLL 241200Z 25009G19KT 4000 RA BKN018 OVC070 26/26 Q1000 TEMPO 7000 -RA RMK A2953
RPLL,2025-07-24 12:14,RPLL 241214Z 20005KT 160V240 9000 -RA BKN022 OVC090 26/26 Q1000 RERA RMK A2953
RPLL,2025-07-24 13:00,RPLL 241300Z 23011KT 9000 FEW023 BKN090 26/26 Q1000 NOSIG RMK A2953
RPLL,2025-07-24 14:00,RPLL 241400Z 21003KT 140V250 9000 FEW025 BKN100 26/25 Q1001 NOSIG RMK A2956
RPLL,2025-07-24 15:00,RPLL 241500Z 23009KT 9000 SCT023 BKN090 26/25 Q1001 NOSIG RMK A2956
RPLL,2025-07-24 16:00,RPLL 241600Z 24010G21KT 8000 -RA SCT022 OVC080 26/26 Q1000 TEMPO 5000 RA RMK A2953
RPLL,2025-07-24 17:00,RPLL 241700Z 24010G21KT 9999 SCT025 26/26 Q1000 NOSIG RMK A2953
RPLL,2025-07-24 18:00,RPLL 241800Z 19005KT 9999 SCT025 BKN100 26/26 Q1000 NOSIG RMK A2953
RPLL,2025-07-24 19:00,RPLL 241900Z 18005KT 150V210 9999 -RA SCT023 OVC100 26/26 Q0999 NOSIG RMK A2950
RPLL,2025-07-24 20:00,RPLL 242000Z 22008KT 190V250 7000 -RA SCT023 OVC090 26/26 Q1000 NOSIG RMK A2953
RPLL,2025-07-24 21:00,RPLL 242100Z 23008KT 9999 -RA SCT023 OVC100 26/26 Q1001 NOSIG RMK A2956
RPLL,2025-07-24 22:00,RPLL 242200Z 23007KT 190V250 5000 -RA BKN023 OVC090 27/26 Q1001 NOSIG RMK A2956
RPLL,2025-07-24 23:00,RPLL 242300Z 24008KT 190V260 1000 +RA BKN018 OVC070 26/26 Q1002 TEMPO 5000 RA RMK A2959
RPLL,2025-07-24 23:26,RPLL 242326Z 24009KT 5000 -RA BKN020 OVC080 25/25 Q1002 RERA NOSIG RMK A2959
RPLL,2025-07-25 00:00,RPLL 250000Z 24009KT 210V270 7000 -RA SCT022 OVC080 25/25 Q1002 NOSIG RMK A2959
RPLL,2025-07-25 01:00,RPLL 250100Z 23009KT 9999 SCT023 OVC100 27/26 Q1002 NOSIG RMK A2959
RPLL,2025-07-25 02:00,RPLL 250200Z 25010KT 220V280 8000 -RA SCT022 OVC090 26/26 Q1003 NOSIG RMK A2962
RPLL,2025-07-25 03:00,RPLL 250300Z 27010KT 7000 -RA SCT022 OVC080 27/27 Q1003 NOSIG RMK A2962
RPLL,2025-07-25 04:00,RPLL 250400Z 26011KT 7000 -RA SCT022 OVC080 27/27 Q1003 NOSIG RMK A2962
RPLL,2025-07-25 05:00,RPLL 250500Z 26012G22KT 240V300 7000 -RA SCT022 OVC080 28/27 Q1002 NOSIG RMK A2959
RPLL,2025-07-25 06:00,RPLL 250600Z 26012KT 9999 SCT025 OVC100 29/27 Q1002 NOSIG RMK A2959
RPLL,2025-07-25 07:00,RPLL 250700Z 26013KT 9000 -RA SCT023 OVC090 29/26 Q1002 NOSIG RMK A2959
RPLL,2025-07-25 08:00,RPLL 250800Z 25014KT 9999 SCT025 OVC100 29/27 Q1001 NOSIG RMK A2956
RPLL,2025-07-25 09:00,RPLL 250900Z 24011KT 9999 SCT025 OVC100 28/26 Q1002 NOSIG RMK A2959
RPLL,2025-07-25 10:00,RPLL 251000Z 28002KT 9999 SCT025 OVC100 27/27 Q1002 NOSIG RMK A2959
RPLL,2025-07-25 11:00,RPLL 251100Z 22005KT 190V250 8000 -RA SCT023 OVC090 28/27 Q1003 NOSIG RMK A2962
RPLL,2025-07-25 12:00,RPLL 251200Z 22009KT 190V250 7000 -RA SCT023 OVC090 27/27 Q1004 NOSIG RMK A2965
RPLL,2025-07-25 13:00,RPLL 251300Z 25004KT 160V300 5000 RA SCT020 OVC080 26/26 Q1005 TEMPO 7000 -RA RMK A2968
RPLL,2025-07-25 14:00,RPLL 251400Z 22010KT 7000 -RA SCT022 OVC090 26/26 Q1006 RERA NOSIG RMK A2971
RPLL,2025-07-25 15:00,RPLL 251500Z 20004KT 140V240 9000 -RA SCT023 OVC090 26/26 Q1005 NOSIG RMK A2968
RPLL,2025-07-25 16:00,RPLL 251600Z 19006KT 150V230 9000 -RA SCT023 OVC090 26/26 Q1005 NOSIG RMK A2968
RPLL,2025-07-25 17:00,RPLL 251700Z VRB02KT 9999 SCT023 OVC100 26/25 Q1005 NOSIG RMK A2968
RPLL,2025-07-25 18:00,RPLL 251800Z 12003KT 080V150 9999 SCT023 BKN100 26/26 Q1005 NOSIG RMK A2968
RPLL,2025-07-25 19:00,RPLL 251900Z VRB02KT 9999 FEW025 BKN100 26/26 Q1004 NOSIG RMK A2965
RPLL,2025-07-25 20:00,RPLL 252000Z VRB02KT 9999 FEW025 BKN100 26/26 Q1004 NOSIG RMK A2965
RPLL,2025-07-25 21:00,RPLL 252100Z VRB02KT 9999 FEW025 SCT100 26/26 Q1004 NOSIG RMK A2965
RPLL,2025-07-25 22:00,RPLL 252200Z 21003KT 180V260 9999 SCT025 BKN100 27/26 Q1005 NOSIG RMK A2968
RPLL,2025-07-25 23:00,RPLL 252300Z 20005KT 170V230 9999 SCT025 BKN100 27/26 Q1005 NOSIG RMK A2968
RPLL,2025-07-26 00:00,RPLL 260000Z 21005KT 170V260 9999 SCT025 BKN100 28/26 Q1006 NOSIG RMK A2971
RPLL,2025-07-26 01:00,RPLL 260100Z 22010G20KT 180V260 7000 -RA SCT020 OVC080 27/26 Q1006 NOSIG RMK A2971
RPLL,2025-07-26 02:00,RPLL 260200Z 24007KT 9000 -RA SCT023 OVC090 27/26 Q1006 NOSIG RMK A2971
RPLL,2025-07-26 03:00,RPLL 260300Z 25011KT 220V280 9999 SCT025 BKN100 29/26 Q1006 NOSIG RMK A2971
RPLL,2025-07-26 04:00,RPLL 260400Z 24010KT 180V270 9999 SCT025 BKN100 31/26 Q1005 NOSIG RMK A2968
RPLL,2025-07-26 05:00,RPLL 260500Z 23009KT 190V270 9999 SCT025 BKN100 30/26 Q1005 NOSIG RMK A2968
RPLL,2025-07-26 06:00,RPLL 260600Z 26018G30KT 9000 -RA SCT022 OVC090 27/27 Q1005 NOSIG RMK A2968
RPLL,2025-07-26 07:00,RPLL 260700Z 24015KT 210V270 9000 -RA SCT022 OVC090 27/26 Q1006 NOSIG RMK A2971
RPLL,2025-07-26 08:00,RPLL 260800Z 25014KT 7000 -RA SCT022 OVC080 26/26 Q1006 NOSIG RMK A2971
RPLL,2025-07-26 09:00,RPLL 260900Z 26008KT 9999 SCT023 BKN100 27/26 Q1005 NOSIG RMK A2968
RPLL,2025-07-26 10:00,RPLL 261000Z VRB04KT 9000 -RA SCT023 OVC090 27/27 Q1006 NOSIG RMK A2971
RPLL,2025-07-26 11:00,RPLL 261100Z VRB01KT 9999 FEW025 BKN100 27/27 Q1006 NOSIG RMK A2971
RPLL,2025-07-26 12:00,RPLL 261200Z VRB02KT 9999 FEW025 BKN100 27/27 Q1007 NOSIG RMK A2974
RPLL,2025-07-26 13:00,RPLL 261300Z VRB02KT 9999 FEW025 BKN100 27/27 Q1007 NOSIG RMK A2974
RPLL,2025-07-26 14:00,RPLL 261400Z 00000KT 9999 SCT025 BKN100 28/26 Q1008 NOSIG RMK A2977
RPLL,2025-07-26 15:00,RPLL 261500Z VRB02KT 9000 SCT025 BKN100 27/27 Q1008 NOSIG RMK A2977
RPLL,2025-07-26 16:00,RPLL 261600Z 20003KT 140V310 9000 FEW025 BKN100 27/26 Q1008 NOSIG RMK A2977
RPLL,2025-07-26 17:00,RPLL 261700Z 21004KT 180V240 9000 FEW025 27/26 Q1007 NOSIG RMK A2974
RPLL,2025-07-26 18:00,RPLL 261800Z 21003KT 170V250 9000 FEW025 27/26 Q1007 NOSIG RMK A2974
RPLL,2025-07-26 19:00,RPLL 261900Z 21003KT 170V250 9000 FEW025 27/26 Q1006 NOSIG RMK A2971
RPLL,2025-07-26 20:00,RPLL 262000Z 23005KT 190V250 9000 FEW025 27/26 Q1006 NOSIG RMK A2971
RPLL,2025-07-26 21:00,RPLL 262100Z 20003KT 160V230 9000 FEW025 27/26 Q1005 NOSIG RMK A2968
RPLL,2025-07-26 22:00,RPLL 262200Z 20003KT 160V230 9000 SCT025 27/26 Q1006 NOSIG RMK A2971
RPLL,2025-07-26 23:00,RPLL 262300Z 24008KT 200V280 8000 -SHRA SCT022 BKN090 28/26 Q1006 NOSIG RMK A2971
RPLL,2025-07-27 00:00,RPLL 270000Z VRB02KT 9000 -RA SCT022 OVC090 27/27 Q1006 NOSIG RMK A2971
RPLL,2025-07-27 01:00,RPLL 270100Z 24009KT 200V260 9000 SCT023 BKN090 28/26 Q1007 NOSIG RMK A2974
RPLL,2025-07-27 02:00,RPLL 270200Z 24009KT 190V270 9999 SCT023 BKN100 31/26 Q1006 NOSIG RMK A2971
RPLL,2025-07-27 03:00,RPLL 270300Z 26011KT 240V300 9999 SCT023 BKN100 30/27 Q1006 NOSIG RMK A2971
RPLL,2025-07-27 04:00,RPLL 270400Z 25015KT 220V280 9999 SCT025 31/26 Q1005 NOSIG RMK A2968
RPLL,2025-07-27 05:00,RPLL 270500Z 26015KT 9999 SCT023 BKN100 30/26 Q1005 NOSIG RMK A2968
RPLL,2025-07-27 06:00,RPLL 270600Z 25013KT 8000 -SHRA SCT023 OVC100 27/27 Q1005 NOSIG RMK A2968
RPLL,2025-07-27 07:00,RPLL 270700Z 26013KT 220V280 9999 FEW025 BKN100 30/27 Q1004 NOSIG RMK A2965
RPLL,2025-07-27 08:00,RPLL 270800Z 27016KT 9999 FEW025 SCT100 30/27 Q1004 NOSIG RMK A2965
RPLL,2025-07-27 08:31,RPLL 270831Z 26016G27KT 230V290 9000 -SHRA SCT023 BKN090 27/26 Q1004 NOSIG RMK A2965
RPLL,2025-07-27 09:00,RPLL 270900Z 26013KT 9999 SCT025 BKN100 28/26 Q1005 NOSIG RMK A2968
RPLL,2025-07-27 10:00,RPLL 271000Z 25012KT 9999 SCT023 BKN100 28/26 Q1005 NOSIG RMK A2968
RPLL,2025-07-27 11:00,RPLL 271100Z 23008KT 170V260 9000 -SHRA SCT023 BKN090 27/26 Q1006 TEMPO 5000 SHRA RMK A2971
RPLL,2025-07-27 12:00,COR RPLL 271200Z 22004KT 190V250 9999 FEW023CB SCT025 BKN100 27/26 Q1006 NOSIG RMK A2971 CB/OCNL LTG NE/W
RPLL,2025-07-27 13:00,RPLL 271300Z 22004KT 180V260 9999 FEW023CB SCT025 BKN100 27/26 Q1007 NOSIG RMK A2974 CB/OCNL LTG W-NE
RPLL,2025-07-27 14:00,RPLL 271400Z 24006KT 210V270 8000 -TSRA FEW022CB SCT023 OVC090 27/26 Q1007 TEMPO 5000 TSRA RMK A2974 CB W-N
RPLL,2025-07-27 15:00,RPLL 271500Z 28011KT 230V300 8000 -RA SCT023 OVC090 27/27 Q1007 RETS TEMPO 5000 RA RMK A2974
RPLL,2025-07-27 16:00,RPLL 271600Z 27015G25KT 240V300 8000 -RA SCT023 OVC090 27/26 Q1007 NOSIG RMK A2974
RPLL,2025-07-27 17:00,RPLL 271700Z 27011KT 8000 -RA SCT023 OVC090 27/27 Q1007 NOSIG RMK A2974
RPLL,2025-07-27 18:00,RPLL 271800Z 24007KT 8000 -RA SCT023 OVC090 27/27 Q1006 NOSIG RMK A2971
RPLL,2025-07-27 19:00,RPLL 271900Z 26005KT 9000 -RA SCT023 OVC090 26/25 Q1005 NOSIG RMK A2968
RPLL,2025-07-27 20:00,RPLL 272000Z 24004KT 200V270 9999 FEW025 BKN100 26/26 Q1004 NOSIG RMK A2965
RPLL,2025-07-27 21:00,RPLL 272100Z 25004KT 210V270 9000 -RA SCT023 OVC090 27/26 Q1005 NOSIG RMK A2968
RPLL,2025-07-27 22:00,RPLL 272200Z 22005KT 190V250 8000 -RA SCT023 OVC090 28/26 Q1005 NOSIG RMK A2968
RPLL,2025-07-27 23:00,RPLL 272300Z 26007KT 8000 -RA SCT023 OVC090 27/27 Q1005 NOSIG RMK A2968
RPLL,2025-07-28 00:00,RPLL 280000Z 26017KT 5000 TSRA FEW020CB SCT022 OVC090 26/26 Q1006 NOSIG RMK A2971 CB OHD
RPLL,2025-07-28 01:00,RPLL 280100Z 25013KT 8000 -RA SCT023 OVC090 29/26 Q1006 RETSRA NOSIG RMK A2971
RPLL,2025-07-28 02:00,RPLL 280200Z 24013KT 9999 SCT023 OVC100 29/26 Q1006 NOSIG RMK A2971
RPLL,2025-07-28 03:00,RPLL 280300Z 25016KT 9999 FEW023 OVC100 30/26 Q1005 NOSIG RMK A2968
RPLL,2025-07-28 04:00,RPLL 280400Z 26019KT 9999 FEW023 OVC100 31/26 Q1005 NOSIG RMK A2968
RPLL,2025-07-28 05:00,RPLL 280500Z 25020G31KT 9999 FEW025 BKN100 31/26 Q1004 NOSIG RMK A2965
RPLL,2025-07-28 06:00,RPLL 280600Z 25020KT 9999 FEW025 BKN100 31/25 Q1004 NOSIG RMK A2965
RPLL,2025-07-28 07:00,RPLL 280700Z 26019KT 9999 FEW025 BKN100 30/26 Q1004 NOSIG RMK A2965
RPLL,2025-07-28 08:00,RPLL 280800Z 25018G29KT 220V280 9999 FEW025 BKN100 31/25 Q1004 NOSIG RMK A2965
RPLL,2025-07-28 09:00,RPLL 280900Z 25017KT 9999 FEW025 BKN100 30/26 Q1004 NOSIG RMK A2965
RPLL,2025-07-28 10:00,RPLL 281000Z 26012KT 9000 -SHRA SCT023 BKN100 29/26 Q1005 NOSIG RMK A2968
RPLL,2025-07-28 11:00,RPLL 281100Z 25011KT 9000 SCT023 BKN100 29/26 Q1005 NOSIG RMK A2968
RPLL,2025-07-28 12:00,RPLL 281200Z 25011KT 9000 SCT023 BKN100 29/25 Q1006 NOSIG RMK A2971
RPLL,2025-07-28 13:00,RPLL 281300Z 24009KT 210V270 9000 SCT025 BKN100 29/25 Q1006 NOSIG RMK A2971
RPLL,2025-07-28 14:00,RPLL 281400Z 24008KT 300V260 9999 SCT025 BKN100 29/25 Q1006 NOSIG RMK A2971
RPLL,2025-07-28 15:00,RPLL 281500Z 25007KT 9999 SCT025 BKN100 28/25 Q1007 NOSIG RMK A2974
RPLL,2025-07-28 16:00,RPLL 281600Z 24007KT 220V280 9999 SCT025 BKN100 29/25 Q1006 NOSIG RMK A2971
RPLL,2025-07-28 17:00,RPLL 281700Z 24006KT 9999 SCT025 BKN100 28/25 Q1005 NOSIG RMK A2968
RPLL,2025-07-28 18:00,RPLL 281800Z 24010KT 210V270 9000 SCT023 BKN100 29/25 Q1005 NOSIG RMK A2968
RPLL,2025-07-28 19:00,RPLL 281900Z 23007KT 200V260 9000 SCT023 BKN100 28/25 Q1004 NOSIG RMK A2965
RPLL,2025-07-28 20:00,RPLL 282000Z 23007KT 9000 FEW025 28/25 Q1004 NOSIG RMK A2965
RPLL,2025-07-28 21:00,RPLL 282100Z 24007KT 210V270 9000 FEW025 SCT100 28/25 Q1004 NOSIG RMK A2965
RPLL,2025-07-28 22:00,RPLL 282200Z 23008KT 190V260 9000 SCT025 BKN100 28/26 Q1004 NOSIG RMK A2965
RPLL,2025-07-28 23:00,RPLL 282300Z 24009KT 200V260 9999 SCT025 BKN100 29/26 Q1005 NOSIG RMK A2968
RPLL,2025-07-29 00:00,RPLL 290000Z 25015G25KT 9999 FEW025 BKN100 30/26 Q1005 NOSIG RMK A2968
RPLL,2025-07-29 00:24,RPLL 290024Z 25012KT 9999 -SHRA FEW025 BKN100 30/27 Q1006 NOSIG RMK A2971
RPLL,2025-07-29 01:00,RPLL 290100Z 25013KT 9999 FEW025 BKN100 29/27 Q1006 NOSIG RMK A2971
RPLL,2025-07-29 02:00,RPLL 290200Z 24020G31KT 210V270 9999 FEW025 BKN100 31/26 Q1005 NOSIG RMK A2968
RPLL,2025-07-29 03:00,RPLL 290300Z 26020KT 9999 FEW025 32/25 Q1006 NOSIG RMK A2971
RPLL,2025-07-29 04:00,RPLL 290400Z 26020KT 9999 FEW025 32/25 Q1005 NOSIG RMK A2968
RPLL,2025-07-29 05:00,RPLL 290500Z 26021KT 9999 FEW025 32/25 Q1005 NOSIG RMK A2968
RPLL,2025-07-29 06:00,COR RPLL 290600Z 26021G32KT 9999 FEW025 SCT100 32/25 Q1005 NOSIG RMK A2968
RPLL,2025-07-29 07:00,RPLL 290700Z 25020G32KT 9999 FEW025 SCT100 32/25 Q1004 NOSIG RMK A2965
RPLL,2025-07-29 08:00,RPLL 290800Z 25016KT 9999 FEW025 SCT100 32/24 Q1004 NOSIG RMK A2965
RPLL,2025-07-29 09:00,RPLL 290900Z 24016G28KT 9999 FEW025 BKN100 31/25 Q1005 NOSIG RMK A2968
RPLL,2025-07-29 10:00,RPLL 291000Z 23010KT 210V270 9999 FEW025 BKN100 31/25 Q1005 NOSIG RMK A2968
RPLL,2025-07-29 11:00,RPLL 291100Z 23009KT 200V270 9999 FEW025 SCT100 30/26 Q1006 NOSIG RMK A2971
RPLL,2025-07-29 12:00,RPLL 291200Z 23009KT 190V250 9999 FEW025 29/26 Q1006 NOSIG RMK A2971
RPLL,2025-07-29 13:00,RPLL 291300Z 23008KT 9999 FEW025 29/26 Q1007 NOSIG RMK A2974
RPLL,2025-07-29 14:00,RPLL 291400Z 23010KT 9999 FEW025 29/26 Q1007 NOSIG RMK A2974
RPLL,2025-07-29 15:00,RPLL 291500Z 23011KT 9999 FEW025 29/26 Q1007 NOSIG RMK A2974
RPLL,2025-07-29 16:00,RPLL 291600Z 24006KT 210V270 9999 FEW025 SCT100 29/26 Q1007 NOSIG RMK A2974
RPLL,2025-07-29 17:00,RPLL 291700Z 23006KT 180V280 9999 FEW025 29/26 Q1007 NOSIG RMK A2974
RPLL,2025-07-29 18:00,RPLL 291800Z 24007KT 9999 FEW025 29/26 Q1006 NOSIG RMK A2971
RPLL,2025-07-29 19:00,RPLL 291900Z 23006KT 9999 FEW025 28/25 Q1006 NOSIG RMK A2971
RPLL,2025-07-29 20:00,RPLL 292000Z 23006KT 200V260 9999 FEW025 28/25 Q1006 NOSIG RMK A2971
RPLL,2025-07-29 21:00,RPLL 292100Z 23007KT 210V270 9999 FEW025 28/25 Q1006 NOSIG RMK A2971
RPLL,2025-07-29 22:00,RPLL 292200Z 23009KT 200V260 9999 FEW025 28/25 Q1006 NOSIG RMK A2971
RPLL,2025-07-29 23:00,RPLL 292300Z 25007KT 9999 FEW025 SCT100 29/24 Q1007 NOSIG RMK A2974
RPLL,2025-07-30 00:00,RPLL 300000Z 23009KT 9999 FEW025 BKN100 30/24 Q1007 NOSIG RMK A2974
RPLL,2025-07-30 01:00,RPLL 300100Z 24012KT 9999 FEW025 BKN100 30/25 Q1007 NOSIG RMK A2974
RPLL,2025-07-30 02:00,COR RPLL 300200Z 24015KT 200V280 9999 FEW025 BKN100 31/25 Q1007 NOSIG RMK A2974
RPLL,2025-07-30 03:00,RPLL 300300Z 25012KT 9999 FEW025 BKN100 31/25 Q1007 NOSIG RMK A2974
RPLL,2025-07-30 04:00,RPLL 300400Z 26016KT 230V290 9999 FEW025 BKN100 32/24 Q1007 NOSIG RMK A2974
RPLL,2025-07-30 05:00,RPLL 300500Z 26018KT 9999 FEW025 BKN100 32/25 Q1006 NOSIG RMK A2971
RPLL,2025-07-30 06:00,RPLL 300600Z 26018KT 9999 FEW025 BKN100 32/25 Q1006 NOSIG RMK A2971
RPLL,2025-07-30 07:00,RPLL 300700Z 24013KT 210V270 9999 FEW025 SCT100 32/24 Q1005 NOSIG RMK A2968
RPLL,2025-07-30 08:00,RPLL 300800Z 24014KT 200V260 9999 FEW025 SCT100 32/24 Q1005 NOSIG RMK A2968
RPLL,2025-07-30 09:00,RPLL 300900Z 23014KT 200V270 9999 FEW025 SCT100 31/24 Q1005 NOSIG RMK A2968
RPLL,2025-07-30 10:00,RPLL 301000Z 33015G25KT 9999 FEW025 BKN100 30/24 Q1006 NOSIG RMK A2971
RPLL,2025-07-30 11:00,RPLL 301100Z 24009KT 210V280 9999 FEW025 SCT100 30/25 Q1006 NOSIG RMK A2971
RPLL,2025-07-30 12:00,RPLL 301200Z 24012KT 9999 FEW025 BKN100 30/25 Q1007 NOSIG RMK A2974
RPLL,2025-07-30 13:00,RPLL 301300Z 24012KT 200V260 9999 FEW025 BKN100 30/25 Q1007 NOSIG RMK A2974
RPLL,2025-07-30 14:00,RPLL 301400Z 24010KT 200V270 9999 FEW025 BKN100 30/25 Q1008 NOSIG RMK A2977
RPLL,2025-07-30 15:00,RPLL 301500Z 23010KT 9999 FEW025 BKN100 30/25 Q1008 NOSIG RMK A2977
RPLL,2025-07-30 16:00,RPLL 301600Z 23009KT 9999 FEW025 SCT100 29/24 Q1007 NOSIG RMK A2974
RPLL,2025-07-30 17:00,RPLL 301700Z 24008KT 210V270 9999 FEW025 29/23 Q1006 NOSIG RMK A2971
RPLL,2025-07-30 18:00,RPLL 301800Z 24008KT 9999 FEW025 29/23 Q1006 NOSIG RMK A2971
RPLL,2025-07-30 19:00,RPLL 301900Z 24009KT 9999 FEW025 BKN100 29/23 Q1006 NOSIG RMK A2971
RPLL,2025-07-30 20:00,RPLL 302000Z 24008KT 9999 FEW025 BKN100 29/23 Q1006 NOSIG RMK A2971
RPLL,2025-07-30 21:00,RPLL 302100Z 24008KT 9999 FEW025 SCT100 29/23 Q1006 NOSIG RMK A2971
RPLL,2025-07-30 22:00,RPLL 302200Z 24007KT 9999 FEW025 SCT100 29/23 Q1007 NOSIG RMK A2974
RPLL,2025-07-30 23:00,RPLL 302300Z 24011KT 9999 FEW025 SCT100 30/23 Q1008 NOSIG RMK A2977
RPLL,2025-07-31 00:00,RPLL 310000Z 24014KT 210V270 9999 FEW025 31/23 Q1008 NOSIG RMK A2977
RPLL,2025-07-31 01:00,RPLL 310100Z 24014KT 200V260 9999 FEW025 31/24 Q1008 NOSIG RMK A2977
RPLL,2025-07-31 02:00,RPLL 310200Z 25017KT 9999 FEW025 32/24 Q1008 NOSIG RMK A2977
RPLL,2025-07-31 03:00,RPLL 310300Z 25014KT 9999 FEW025 SCT100 32/24 Q1008 NOSIG RMK A2977
RPLL,2025-07-31 04:00,RPLL 310400Z 25018KT 9999 FEW025 BKN100 33/24 Q1007 NOSIG RMK A2974
RPLL,2025-07-31 05:00,RPLL 310500Z 25018KT 9999 FEW025 BKN100 33/24 Q1006 NOSIG RMK A2971
RPLL,2025-07-31 06:00,RPLL 310600Z 26019KT 9999 FEW025 SCT100 32/25 Q1006 NOSIG RMK A2971
RPLL,2025-07-31 07:00,RPLL 310700Z 27015KT 9999 FEW025 33/25 Q1006 NOSIG RMK A2971
RPLL,2025-07-31 08:00,RPLL 310800Z 26015KT 9999 FEW025 SCT100 32/24 Q1006 NOSIG RMK A2971
RPLL,2025-07-31 09:00,RPLL 310900Z 25015KT 220V280 9999 FEW015 BKN100 31/24 Q1006 NOSIG RMK A2971
RPLL,2025-07-31 10:00,RPLL 311000Z 24011KT 9999 FEW025 BKN100 31/24 Q1007 NOSIG RMK A2974
RPLL,2025-07-31 11:00,RPLL 311100Z 24010KT 200V260 9999 FEW025 BKN100 30/24 Q1008 NOSIG RMK A2977
RPLL,2025-07-31 12:00,RPLL 311200Z 23009KT 9999 FEW025 SCT100 30/24 Q1008 NOSIG RMK A2977
RPLL,2025-07-31 13:00,RPLL 311300Z 25004KT 200V320 9999 FEW025 29/24 Q1008 NOSIG RMK A2977
RPLL,2025-07-31 14:00,RPLL 311400Z VRB02KT 9999 FEW025 29/24 Q1009 NOSIG RMK A2980
RPLL,2025-07-31 15:00,RPLL 311500Z 22005KT 180V270 9999 FEW025 29/25 Q1008 NOSIG RMK A2977
RPLL,2025-07-31 16:00,RPLL 311600Z 25005KT 200V280 9999 FEW025 29/24 Q1008 NOSIG RMK A2977
RPLL,2025-07-31 17:00,RPLL 311700Z 24006KT 9999 FEW025 28/24 Q1007 NOSIG RMK A2974
RPLL,2025-07-31 18:00,RPLL 311800Z 24005KT 200V270 9999 FEW025 29/24 Q1007 NOSIG RMK A2974
RPLL,2025-07-31 19:00,RPLL 311900Z 23004KT 9999 FEW025 29/24 Q1007 NOSIG RMK A2974
RPLL,2025-07-31 20:00,RPLL 312000Z 23004KT 200V260 9999 FEW025 28/24 Q1007 NOSIG RMK A2974
RPLL,2025-07-31 21:00,RPLL 312100Z VRB02KT 9999 FEW025 28/25 Q1007 NOSIG RMK A2974
RPLL,2025-07-31 22:00,RPLL 312200Z 24005KT 9999 FEW025 28/24 Q1007 NOSIG RMK A2974
RPLL,2025-07-31 23:00,RPLL 312300Z 24006KT 200V270 9999 FEW025 29/25 Q1008 NOSIG RMK A2977
RPLL,2025-08-01 00:00,RPLL 010000Z 26008KT 9999 FEW025 30/25 Q1008 NOSIG RMK A2977
RPLL,2025-08-01 01:00,RPLL 010100Z 28011KT 9999 FEW025 31/25 Q1008 NOSIG RMK A2977
RPLL,2025-08-01 02:00,RPLL 010200Z 27015KT 9999 FEW025 31/26 Q1008 NOSIG RMK A2977
RPLL,2025-08-01 03:00,RPLL 010300Z 27016KT 9999 FEW025 32/26 Q1008 NOSIG RMK A2977
RPLL,2025-08-01 04:00,RPLL 010400Z 27016KT 9999 FEW025 32/26 Q1008 NOSIG RMK A2977
RPLL,2025-08-01 05:00,RPLL 010500Z 27017KT 9999 FEW025 32/26 Q1007 NOSIG RMK A2974
RPLL,2025-08-01 06:00,RPLL 010600Z 26016KT 9999 FEW025 SCT100 32/26 Q1007 NOSIG RMK A2974
RPLL,2025-08-01 07:00,RPLL 010700Z 26016KT 9999 FEW025 32/26 Q1007 NOSIG RMK A2974
RPLL,2025-08-01 08:00,RPLL 010800Z 27013KT 9999 FEW025 31/25 Q1007 NOSIG RMK A2974
RPLL,2025-08-01 09:00,RPLL 010900Z 27013KT 9999 FEW025 31/26 Q1007 NOSIG RMK A2974
RPLL,2025-08-01 10:00,RPLL 011000Z 27011KT 9999 FEW025 30/26 Q1007 NOSIG RMK A2974
RPLL,2025-08-01 11:00,RPLL 011100Z 26009KT 9999 FEW025 29/26 Q1008 NOSIG RMK A2977
RPLL,2025-08-01 12:00,RPLL 011200Z 23007KT 9999 FEW025 30/25 Q1009 NOSIG RMK A2980 METAR RPLB 011200Z 21009KT 9999 BKN018 29/26 Q1009 NOSIG RMK A2980
RPLL,2025-08-01 13:00,RPLL 011300Z 23006KT 200V260 9999 FEW025 29/25 Q1010 NOSIG RMK A2983
RPLL,2025-08-01 14:00,RPLL 011400Z 23005KT 190V250 9999 FEW025 29/25 Q1010 NOSIG RMK A2983
RPLL,2025-08-01 15:00,RPLL 011500Z 23004KT 200V260 9999 FEW025 29/26 Q1010 NOSIG RMK A2983
RPLL,2025-08-01 16:00,RPLL 011600Z 23005KT 9999 FEW025 28/25 Q1010 NOSIG RMK A2983
RPLL,2025-08-01 17:00,RPLL 011700Z 23004KT 9999 FEW025 28/25 Q1009 NOSIG RMK A2980
RPLL,2025-08-01 18:00,COR RPLL 011800Z VRB01KT 9999 FEW025 28/25 Q1009 NOSIG RMK A2980
RPLL,2025-08-01 19:00,RPLL 011900Z 23003KT 9999 FEW025 27/25 Q1009 NOSIG RMK A2980
RPLL,2025-08-01 20:00,RPLL 012000Z VRB02KT 9999 FEW025 27/25 Q1009 NOSIG RMK A2980
RPLL,2025-08-01 21:00,RPLL 012100Z VRB02KT 9999 FEW025 27/25 Q1009 NOSIG RMK A2980
RPLL,2025-08-01 22:00,RPLL 012200Z 19003KT 140V230 9999 FEW025 27/25 Q1009 NOSIG RMK A2980
RPLL,2025-08-01 23:00,RPLL 012300Z 23003KT 190V340 9999 FEW025 28/25 Q1009 NOSIG RMK A2980
RPLL,2025-08-02 00:00,RPLL 020000Z 25008KT 220V280 9999 FEW025 30/26 Q1010 NOSIG RMK A2983
RPLL,2025-08-02 01:00,RPLL 020100Z 27008KT 250V310 9999 FEW025 30/26 Q1010 NOSIG RMK A2983
RPLL,2025-08-02 02:00,RPLL 020200Z 27012KT 240V300 9999 FEW025 31/26 Q1010 NOSIG RMK A2983
RPLL,2025-08-02 03:00,RPLL 020300Z 27013KT 9999 FEW025 31/25 Q1010 NOSIG RMK A2983
RPLL,2025-08-02 04:00,RPLL 020400Z 27013KT 9999 FEW025 32/25 Q1009 NOSIG RMK A2980
RPLL,2025-08-02 05:00,RPLL 020500Z 27012KT 9999 FEW025 32/25 Q1009 NOSIG RMK A2980
RPLL,2025-08-02 06:00,RPLL 020600Z 26015KT 9999 FEW025 32/25 Q1008 NOSIG RMK A2977
RPLL,2025-08-02 07:00,RPLL 020700Z 27014KT 9999 FEW025 32/25 Q1008 NOSIG RMK A2977
RPLL,2025-08-02 08:00,RPLL 020800Z 26015KT 9999 FEW025 32/24 Q1008 NOSIG RMK A2977
RPLL,2025-08-02 09:00,RPLL 020900Z 26013KT 9999 FEW025 31/24 Q1008 NOSIG RMK A2977
RPLL,2025-08-02 10:00,RPLL 021000Z 26012KT 9999 FEW025 30/26 Q1009 NOSIG RMK A2980
RPLL,2025-08-02 11:00,RPLL 021100Z 26011KT 230V300 9999 FEW025 29/26 Q1009 NOSIG RMK A2980
RPLL,2025-08-02 12:00,RPLL 021200Z 26012KT 9999 FEW025 29/25 Q1010 NOSIG RMK A2983
RPLL,2025-08-02 13:00,RPLL 021300Z 25010KT 9999 FEW025 29/26 Q1010 NOSIG RMK A2983
RPLL,2025-08-02 14:00,RPLL 021400Z 26009KT 9999 FEW025 29/27 Q1011 NOSIG RMK A2985
RPLL,2025-08-02 15:00,RPLL 021500Z 25006KT 9999 FEW025 28/26 Q1011 NOSIG RMK A2985
RPLL,2025-08-02 16:00,RPLL 021600Z VRB02KT 9999 FEW025 28/26 Q1010 NOSIG RMK A2983
RPLL,2025-08-02 17:00,RPLL 021700Z VRB02KT 9999 FEW025 28/26 Q1010 NOSIG RMK A2983
RPLL,2025-08-02 18:00,RPLL 021800Z 27002KT 9999 FEW025 27/25 Q1009 NOSIG RMK A2980
RPLL,2025-08-02 19:00,RPLL 021900Z 26003KT 9999 FEW025 27/26 Q1009 NOSIG RMK A2980
RPLL,2025-08-02 20:00,RPLL 022000Z VRB01KT 9999 FEW025 27/26 Q1009 NOSIG RMK A2980
RPLL,2025-08-02 21:00,RPLL 022100Z VRB02KT 9999 FEW025 27/26 Q1009 NOSIG RMK A2980
RPLL,2025-08-02 22:00,RPLL 022200Z VRB01KT 9999 FEW025 27/26 Q1010 NOSIG RMK A2983
RPLL,2025-08-02 23:00,RPLL 022300Z 21003KT 170V250 9999 FEW025 28/26 Q1010 NOSIG RMK A2983
RPLL,2025-08-03 00:00,RPLL 030000Z 28004KT 190V320 9999 FEW025 29/25 Q1010 NOSIG RMK A2983
RPLL,2025-08-03 01:00,RPLL 030100Z 29005G17KT 230V330 9999 FEW025 30/24 Q1011 NOSIG RMK A2985
RPLL,2025-08-03 02:00,RPLL 030200Z 29003KT 250V340 9999 FEW025 30/25 Q1010 NOSIG RMK A2983
RPLL,2025-08-03 03:00,RPLL 030300Z 29009KT 9999 FEW025 31/25 Q1010 NOSIG RMK A2983
RPLL,2025-08-03 04:00,RPLL 030400Z 28009KT 260V320 9999 FEW025 31/26 Q1010 NOSIG RMK A2983
RPLL,2025-08-03 05:00,RPLL 030500Z 30009KT 260V340 9999 FEW025 31/27 Q1009 NOSIG RMK A2980
RPLL,2025-08-03 06:00,RPLL 030600Z 27004KT 230V300 9999 FEW025 32/24 Q1009 NOSIG RMK A2980
RPLL,2025-08-03 07:00,RPLL 030700Z 26012KT 9999 FEW025 32/26 Q1009 NOSIG RMK A2980
RPLL,2025-08-03 08:00,RPLL 030800Z 26011KT 9999 FEW025 31/26 Q1009 NOSIG RMK A2980
RPLL,2025-08-03 09:00,RPLL 030900Z 26011KT 9999 FEW025 31/25 Q1009 NOSIG RMK A2980
RPLL,2025-08-03 10:00,RPLL 031000Z 25009KT 9999 FEW025 30/25 Q1009 NOSIG RMK A2980
RPLL,2025-08-03 11:00,RPLL 031100Z 24006KT 210V270 9999 FEW025 29/24 Q1010 NOSIG RMK A2983
RPLL,2025-08-03 12:00,RPLL 031200Z 23004KT 190V260 9999 FEW025 29/25 Q1010 NOSIG RMK A2983
RPLL,2025-08-03 13:00,RPLL 031300Z 25005KT 210V290 9999 FEW025 28/25 Q1011 NOSIG RMK A2985
RPLL,2025-08-03 14:00,RPLL 031400Z 23005KT 9999 FEW025 29/25 Q1011 NOSIG RMK A2985
RPLL,2025-08-03 15:00,RPLL 031500Z 25006KT 9999 FEW025 28/25 Q1011 NOSIG RMK A2985
RPLL,2025-08-03 16:00,RPLL 031600Z 26007KT 230V290 9999 FEW025 28/25 Q1011 NOSIG RMK A2985
RPLL,2025-08-03 17:00,RPLL 031700Z 25004KT 9999 FEW025 28/25 Q1011 NOSIG RMK A2985
RPLL,2025-08-03 18:00,RPLL 031800Z 22004KT 9999 FEW025 27/25 Q1010 NOSIG RMK A2983
RPLL,2025-08-03 19:00,RPLL 031900Z 24004KT 9999 FEW025 27/25 Q1010 NOSIG RMK A2983
RPLL,2025-08-03 20:00,RPLL 032000Z VRB02KT 9999 FEW025 27/25 Q1010 NOSIG RMK A2983
RPLL,2025-08-03 21:00,RPLL 032100Z VRB02KT 9999 FEW025 27/25 Q1010 NOSIG RMK A2983
RPLL,2025-08-03 22:00,RPLL 032200Z 22003KT 180V260 9999 FEW025 27/25 Q1010 NOSIG RMK A2983
RPLL,2025-08-03 23:00,RPLL 032300Z 24004KT 9999 FEW025 28/26 Q1010 NOSIG RMK A2983
RPLL,2025-08-04 00:00,RPLL 040000Z 27007KT 9999 FEW025 29/26 Q1011 NOSIG RMK A2985
RPLL,2025-08-04 01:00,RPLL 040100Z 28005KT 250V310 9999 FEW025 30/25 Q1010 NOSIG RMK A2983
RPLL,2025-08-04 02:00,RPLL 040200Z 29005KT 240V340 9999 FEW025 31/24 Q1010 NOSIG RMK A2983
RPLL,2025-08-04 03:00,RPLL 040300Z 29008KT 9999 FEW025 32/25 Q1010 NOSIG RMK A2983
RPLL,2025-08-04 04:00,RPLL 040400Z 29009KT 260V320 9999 FEW025 32/25 Q1009 NOSIG RMK A2980
RPLL,2025-08-04 05:00,COR RPLL 040500Z 29008KT 200V310 9999 FEW025 32/24 Q1009 NOSIG RMK A2980
RPLL,2025-08-04 06:00,COR RPLL 040600Z 29010KT 260V320 9999 FEW025 32/25 Q1009 NOSIG RMK A2980
RPLL,2025-08-04 07:00,RPLL 040700Z 26013KT 9999 FEW025 32/24 Q1008 NOSIG RMK A2977
RPLL,2025-08-04 08:00,RPLL 040800Z 27014KT 9999 FEW025 32/24 Q1008 NOSIG RMK A2977
RPLL,2025-08-04 09:00,RPLL 040900Z 27014KT 9999 FEW025 31/25 Q1008 NOSIG RMK A2977
RPLL,2025-08-04 10:00,RPLL 041000Z 26013KT 9999 FEW025 30/25 Q1009 NOSIG RMK A2980
RPLL,2025-08-04 11:00,RPLL 041100Z 24009KT 9999 FEW025 30/25 Q1010 NOSIG RMK A2983
RPLL,2025-08-04 12:00,RPLL 041200Z 24006KT 210V270 9999 FEW025 30/26 Q1010 NOSIG RMK A2983
RPLL,2025-08-04 13:00,RPLL 041300Z 24006KT 210V270 9999 FEW025 29/26 Q1011 NOSIG RMK A2985
RPLL,2025-08-04 14:00,RPLL 041400Z 23004KT 150V260 9999 FEW025 29/26 Q1011 NOSIG RMK A2985
RPLL,2025-08-04 15:00,RPLL 041500Z VRB02KT 9999 FEW025 29/26 Q1011 NOSIG RMK A2985
RPLL,2025-08-04 16:00,RPLL 041600Z VRB01KT 9999 FEW025 28/26 Q1010 NOSIG RMK A2983
RPLL,2025-08-04 17:00,RPLL 041700Z VRB02KT 9999 FEW025 28/26 Q1010 NOSIG RMK A2983
RPLL,2025-08-04 18:00,RPLL 041800Z VRB01KT 9999 FEW025 28/25 Q1009 NOSIG RMK A2980
RPLL,2025-08-04 19:00,RPLL 041900Z VRB02KT 9999 FEW025 28/25 Q1009 NOSIG RMK A2980
RPLL,2025-08-04 20:00,RPLL 042000Z 00000KT 9999 FEW025 27/25 Q1009 NOSIG RMK A2980
RPLL,2025-08-04 21:00,RPLL 042100Z VRB02KT 9999 FEW025 28/26 Q1009 NOSIG RMK A2980
RPLL,2025-08-04 22:00,RPLL 042200Z VRB01KT 9999 FEW025 27/26 Q1009 NOSIG RMK A2980
RPLL,2025-08-04 23:00,RPLL 042300Z 18003KT 140V210 9999 FEW025 29/26 Q1009 NOSIG RMK A2980
RPLL,2025-08-05 00:00,RPLL 050000Z VRB02KT 9999 FEW025 30/26 Q1010 NOSIG RMK A2983
RPLL,2025-08-05 01:00,RPLL 050100Z 26003KT 220V310 9999 FEW025 30/26 Q1010 NOSIG RMK A2983
RPLL,2025-08-05 02:00,RPLL 050200Z VRB05KT 9999 FEW025 31/26 Q1010 NOSIG RMK A2983
RPLL,2025-08-05 03:00,RPLL 050300Z 26007KT 9000 FEW025 31/26 Q1010 NOSIG RMK A2983
RPLL,2025-08-05 04:00,RPLL 050400Z 26009KT 240V300 9000 FEW025 32/27 Q1010 NOSIG RMK A2983
RPLL,2025-08-05 05:00,RPLL 050500Z 29009KT 210V320 9000 FEW025 32/26 Q1009 NOSIG RMK A2980
RPLL,2025-08-05 06:00,RPLL 050600Z 29010KT 9000 FEW025TCU 33/26 Q1008 NOSIG RMK A2977 TCU NE
RPLL,2025-08-05 07:00,RPLL 050700Z 26007KT 230V300 9000 FEW023CB SCT025 BKN100 31/26 Q1008 NOSIG RMK A2977 CB NE
RPLL,2025-08-05 07:31,RPLL 050731Z 26007KT 7000 -SHRA FEW023CB SCT025 BKN100 30/27 Q1009 NOSIG RMK A2977 CB N
RPLL,2025-08-05 08:00,RPLL 050800Z 26008KT 8000 SCT025 BKN100 30/26 Q1008 NOSIG RMK A2977
RPLL,2025-08-05 09:00,RPLL 050900Z 24007KT 200V260 9000 FEW025 SCT100 31/25 Q1008 NOSIG RMK A2977
RPLL,2025-08-05 10:00,RPLL 051000Z 26006KT 220V280 9000 FEW025 SCT100 30/26 Q1009 NOSIG RMK A2980
RPLL,2025-08-05 11:00,RPLL 051100Z 26005KT 9999 FEW025 SCT100 29/26 Q1010 NOSIG RMK A2983
RPLL,2025-08-05 12:00,RPLL 051200Z VRB03KT 9000 FEW025 SCT100 30/26 Q1010 NOSIG RMK A2983
RPLL,2025-08-05 13:00,RPLL 051300Z 21003KT 180V260 9000 FEW025 29/26 Q1010 NOSIG RMK A2983
RPLL,2025-08-05 14:00,RPLL 051400Z VRB02KT 9000 FEW025 29/26 Q1011 NOSIG RMK A2985
RPLL,2025-08-05 15:00,RPLL 051500Z 00000KT 9000 FEW025 BKN100 29/26 Q1011 NOSIG RMK A2985
RPLL,2025-08-05 16:00,RPLL 051600Z VRB03KT 9000 SCT025 BKN100 29/26 Q1010 NOSIG RMK A2983
RPLL,2025-08-05 17:00,RPLL 051700Z 02004KT 340V050 9000 SCT025 BKN100 29/24 Q1010 NOSIG RMK A2983
RPLL,2025-08-05 18:00,RPLL 051800Z 03006KT 9999 FEW025 28/24 Q1009 NOSIG RMK A2980
RPLL,2025-08-05 19:00,RPLL 051900Z 34003KT 290V020 9999 FEW025 28/24 Q1009 NOSIG RMK A2980
RPLL,2025-08-05 20:00,RPLL 052000Z 02006KT 9999 FEW025 28/25 Q1009 NOSIG RMK A2980
RPLL,2025-08-05 21:00,RPLL 052100Z 01006KT 9999 FEW025 28/25 Q1009 NOSIG RMK A2980
RPLL,2025-08-05 22:00,RPLL 052200Z 01006KT 330V040 9999 FEW025 28/25 Q1009 NOSIG RMK A2980
RPLL,2025-08-05 23:00,RPLL 052300Z 01006KT 9999 FEW025 28/25 Q1010 NOSIG RMK A2983
RPLL,2025-08-06 00:00,RPLL 060000Z 02008KT 350V050 9999 FEW025 BKN100 29/25 Q1010 NOSIG RMK A2983
RPLL,2025-08-06 01:00,RPLL 060100Z 02006KT 340V060 9999 FEW025 BKN100 29/25 Q1010 NOSIG RMK A2983
RPLL,2025-08-06 02:00,RPLL 060200Z 03007KT 9999 FEW025 BKN100 30/25 Q1010 NOSIG RMK A2983
RPLL,2025-08-06 03:00,RPLL 060300Z VRB01KT 9999 FEW025 BKN100 31/24 Q1010 NOSIG RMK A2983
RPLL,2025-08-06 04:00,RPLL 060400Z 270011KT 9999 FEW025 BKN100 31/24 Q1010 NOSIG RMK A2983
RPLL,2025-08-06 04:23,RPLL 060423Z 28009KT 9999 TS FEW023CB FEW025 BKN100 30/26 Q1009 NOSIG RMK A2980 CB N/OHD
RPLL,2025-08-06 05:00,RPLL 060500Z 02013KT 9000 -TSRA FEW022CB SCT023 BKN100 27/24 Q1009 TEMPO 5000 TSRA RMK A2980 CB N/OHD
RPLL,2025-08-06 05:35,RPLL 060535Z 06006KT 7000 TSRA FEW022CB SCT023 OVC090 25/25 Q1008 NOSIG RMK A2977 CB N/OHD
RPLL,2025-08-06 06:00,COR RPLL 060600Z 35004KT 9000 -RA FEW022CB SCT023 OVC090 26/25 Q1008 RETSRA NOSIG RMK A2977 CB S
RPLL,2025-08-06 07:00,RPLL 060700Z VRB02KT 9999 SCT023 OVC100 29/24 Q1008 NOSIG RMK A2977
RPLL,2025-08-06 08:00,COR RPLL 060800Z 12003KT 070V180 9000 SCT023 OVC090 28/25 Q1008 NOSIG RMK A2977
RPLL,2025-08-06 09:00,RPLL 060900Z VRB02KT 9000 SCT023 OVC090 29/25 Q1008 NOSIG RMK A2977
RPLL,2025-08-06 10:00,RPLL 061000Z 32004KT 280V360 9999 SCT023 BKN100 29/25 Q1008 NOSIG RMK A2977
RPLL,2025-08-06 10:34,RPLL 061034Z 36007KT 320V030 8000 -RA BKN022 OVC090 28/26 Q1009 TEMPO 5000 RA RMK A2980
RPLL,2025-08-06 11:00,RPLL 061100Z 29008KT 250V350 9000 -RA FEW022CB BKN023 OVC090 25/25 Q1009 NOSIG RMK A2980 CB NW
RPLL,2025-08-06 12:00,RPLL 061200Z 03007KT 340V070 9000 SCT023 BKN100 27/26 Q1009 NOSIG RMK A2980
RPLL,2025-08-06 13:00,RPLL 061300Z 01009KT 340V040 9999 SCT023 BKN100 27/25 Q1010 NOSIG RM A2983
RPLL,2025-08-06 14:00,RPLL 061400Z 01008KT 340V050 9999 FEW025 27/24 Q1010 NOSIG RMK A2983
RPLL,2025-08-06 15:00,RPLL 061500Z 01006KT 9999 SCT025 27/24 Q1010 NOSIG RMK A2983
RPLL,2025-08-06 16:00,RPLL 061600Z 01007KT 330V040 9999 FEW025 SCT100 26/24 Q1009 NOSIG RMK A2980
RPLL,2025-08-06 17:00,RPLL 061700Z 01005KT 350V050 9999 FEW025 26/23 Q1008 NOSIG RMK A2977
RPLL,2025-08-06 18:00,RPLL 061800Z 01005KT 320V050 9999 FEW025 26/23 Q1008 NOSIG RMK A2977
RPLL,2025-08-06 19:00,RPLL 061900Z 29003KT 210V010 9999 FEW025 26/23 Q1007 NOSIG RMK A2974
RPLL,2025-08-06 20:00,RPLL 062000Z 29004KT 270V340 9999 FEW025 26/24 Q1008 NOSIG RMK A2977
RPLL,2025-08-06 21:00,RPLL 062100Z 30004KT 240V340 9999 FEW025 26/24 Q1008 NOSIG RMK A2977
RPLL,2025-08-06 22:00,RPLL 062200Z 32004KT 290V040 9999 FEW025 SCT150 26/24 Q1008 NOSIG RMK A2977
RPLL,2025-08-06 23:00,RPLL 062300Z 30003KT 260V330 9999 FEW025 SCT100 27/25 Q1009 NOSIG RMK A2980
RPLL,2025-08-07 00:00,RPLL 070000Z 32003KT 260V360 9999 FEW025 SCT100 28/24 Q1009 NOSIG RMK A2980
RPLL,2025-08-07 01:00,RPLL 070100Z VRB02KT 9999 FEW025 BKN100 28/25 Q1009 NOSIG RMK A2980
RPLL,2025-08-07 02:00,RPLL 070200Z 27006KT 230V300 9999 SCT025 29/25 Q1009 NOSIG RMK A2980
RPLL,2025-08-07 03:00,RPLL 070300Z 28008KT 240V310 9999 SCT025 30/26 Q1009 NOSIG RMK A2980
RPLL,2025-08-07 04:00,RPLL 070400Z 27011KT 9999 SCT025 31/26 Q1009 NOSIG RMK A2980
RPLL,2025-08-07 05:00,RPLL 070500Z 26013KT 9999 SCT025 31/27 Q1008 NOSIG RMK A2977
RPLL,2025-08-07 06:00,RPLL 070600Z 26016KT 9999 FEW023CB SCT025 BKN100 31/27 Q1007 NOSIG RMK A2974 CB N
RPLL,2025-08-07 07:00,RPLL 070700Z 25015KT 9999 SCT025 BKN100 30/26 Q1007 NOSIG RMK A2974
RPLL,2025-08-07 08:00,RPLL 070800Z 26014KT 9999 SCT023 BKN100 30/26 Q1007 NOSIG RMK A2974
RPLL,2025-08-07 09:00,RPLL 070900Z 31009KT 280V340 9000 SCT023 BKN100 29/25 Q1007 NOSIG RMK A2974
RPLL,2025-08-07 10:00,RPLL 071000Z 29007KT 270V330 9999 FEW025 BKN100 29/25 Q1007 NOSIG RMK A2974
RPLL,2025-08-07 11:00,RPLL 071100Z 23004KT 190V250 9999 SCT025 BKN100 29/25 Q1008 NOSIG RMK A2977
RPLL,2025-08-07 12:00,RPLL 071200Z 22004KT 180V250 9999 SCT023 BKN100 29/26 Q1008 NOSIG RMK A2977
RPLL,2025-08-07 13:00,RPLL 071300Z VRB02KT 9000 -RA SCT023 BKN090 28/26 Q1009 NOSIG RMK A2980
RPLL,2025-08-07 14:00,RPLL 071400Z 28004KT 250V340 8000 -RA SCT023 OVC090 26/25 Q1009 NOSIG RMK A2980
RPLL,2025-08-07 15:00,RPLL 071500Z 26004KT 7000 -RA SCT023 OVC090 25/25 Q1009 NOSIG RMK A2980
RPLL,2025-08-07 16:00,RPLL 071600Z 01004KT 9999 -RA SCT023 BKN100 26/25 Q1009 NOSIG RMK A2980
RPLL,2025-08-07 17:00,RPLL 071700Z VRB02KT 9999 FEW025 SCT100 27/25 Q1008 NOSIG RK A2977
RPLL,2025-08-07 18:00,RPLL 071800Z 36003KT 290V070 9999 FEW025 SCT100 27/24 Q1008 NOSIG RMK A2977
RPLL,2025-08-07 19:00,RPLL 071900Z 32004KT 280V360 9999 FEW025 SCT130 26/25 Q1008 NOSIG RMK A2977
RPLL,2025-08-07 20:00,RPLL 072000Z 33003KT 280V070 9999 FEW025 26/24 Q1008 NOSIG RMK A2977
RPLL,2025-08-07 21:00,RPLL 072100Z 33004KT 300V360 9999 FEW025 26/24 Q1008 NOSIG RMK A2977
RPLL,2025-08-07 22:00,RPLL 072200Z VRB03KT 9999 FEW025 26/25 Q1008 NOSIG RMK A2977
RPLL,2025-08-07 23:00,RPLL 072300Z VRB04KT 9999 FEW025 27/24 Q1009 NOSIG RMK A2980
RPLL,2025-08-08 00:00,RPLL 080000Z 04004KT 360V100 9999 FEW025 SCT100 29/25 Q1009 NOSIG RMK A2980
RPLL,2025-08-08 01:00,RPLL 080100Z 27005KT 230V320 9999 FEW025 SCT100 29/25 Q1010 NOSIG RMK A2983
RPLL,2025-08-08 02:00,RPLL 080200Z 28002KT 260V020 9999 FEW025 SCT100 29/25 Q1010 NOSIG RMK A2983
RPLL,2025-08-08 03:00,RPLL 080300Z 28007KT 250V320 9999 FEW025 SCT100 30/25 Q1010 NOSIG RMK A2983
RPLL,2025-08-08 04:00,RPLL 080400Z 27010KT 250V310 9999 FEW025 SCT100 31/24 Q1009 NOSIG RMK A2980
RPLL,2025-08-08 05:00,RPLL 080500Z 27011KT 240V300 9999 FEW025 SCT100 31/26 Q1009 NOSIG RMK A2980
RPLL,2025-08-08 06:00,RPLL 080600Z 26015KT 9999 FEW023CB SCT025 BKN100 30/25 Q1008 NOSIG RMK A2977 CB SE
RPLL,2025-08-08 07:00,RPLL 080700Z 26012KT 230V290 9999 FEW025 BKN100 30/25 Q1008 NOSIG RMK A2977
RPLL,2025-08-08 08:00,RPLL 080800Z 26012KT 9999 FEW025 SCT100 30/25 Q1008 NOSIG RMK A2977
RPLL,2025-08-08 09:00,RPLL 080900Z 25011KT 9999 FEW025 30/24 Q1008 NOSIG RMK A2977
RPLL,2025-08-08 10:00,RPLL 081000Z 25011KT 9999 FEW025 29/25 Q1008 NOSIG RMK A2977
RPLL,2025-08-08 11:00,RPLL 081100Z 24008KT 9999 FEW025 29/24 Q1009 NOSIG RMK A2980
RPLL,2025-08-08 12:00,RPLL 081200Z 25008KT 200V270 9999 FEW025 BKN100 29/25 Q1010 NOSIG RMK A2983
RPLL,2025-08-08 13:00,RPLL 081300Z 22005KT 190V250 9999 FEW025 SCT150 28/25 Q1010 NOSIG RMK A2983
RPLL,2025-08-08 14:00,RPLL 081400Z 23004KT 200V260 9999 FEW025 SCT150 28/25 Q1011 NOSIG RMK A2985
RPLL,2025-08-08 15:00,RPLL 081500Z 23004KT 190V270 9999 FEW025 28/25 Q1010 NOSIG RMK A2983
RPLL,2025-08-08 16:00,RPLL 081600Z 23003KT 190V260 9999 FEW025 28/25 Q1010 NOSIG RMK A2983
RPLL,2025-08-08 17:00,RPLL 081700Z VRB02KT 9999 FEW025 BKN150 27/25 Q1009 NOSIG RMK A2980
RPLL,2025-08-08 18:00,RPLL 081800Z VRB02KT 9999 FEW025 BKN100 27/26 Q1009 NOSIG RMK A2980
RPLL,2025-08-08 19:00,RPLL 081900Z VRB01KT 9999 FEW025 BKN100 27/26 Q1009 NOSIG RMK A2980
RPLL,2025-08-08 20:00,RPLL 082000Z VRB02KT 9999 FEW025 BKN100 27/26 Q1009 NOSIG RMK A2980
RPLL,2025-08-08 21:00,RPLL 082100Z VRB01KT 9999 FEW025 27/26 Q1010 NOSIG RMK A2983
RPLL,2025-08-08 22:00,RPLL 082200Z VRB02KT 9999 FEW025 BKN100 27/25 Q1010 NOSIG RMK A2983
RPLL,2025-08-08 23:00,RPLL 082300Z 18003KT 140V200 9999 FEW025 SCT100 27/25 Q1011 NOSIG RMK A2985
RPLL,2025-08-09 00:00,RPLL 090000Z VRB02KT 9999 FEW025 SCT100 28/25 Q1011 NOSIG RMK A2985
RPLL,2025-08-09 01:00,RPLL 090100Z 27004KT 230V300 9999 FEW025 SCT100 29/24 Q1011 NOSIG RMK A2985
RPLL,2025-08-09 02:00,RPLL 090200Z 29005KT 250V360 9999 FEW025 SCT100 30/24 Q1011 NOSIG RMK A2985
RPLL,2025-08-09 03:00,RPLL 090300Z 29006KT 260V340 9999 FEW025 SCT100 30/24 Q1011 NOSIG RMK A2985
RPLL,2025-08-09 04:00,RPLL 090400Z 29006KT 250V320 9999 FEW025 SCT100 30/24 Q1010 NOSIG RMK A2983
RPLL,2025-08-09 05:00,RPLL 090500Z 28009KT 9999 FEW025 SCT100 30/25 Q1010 NOSIG RMK A2983
RPLL,2025-08-09 06:00,RPLL 090600Z 29009KT 9999 FEW025 SCT100 31/24 Q1009 NOSIG RMK A2980
RPLL,2025-08-09 07:00,RPLL 090700Z 27011KT 9999 FEW025 SCT100 30/24 Q1008 NOSIG RMK A2977
RPLL,2025-08-09 08:00,RPLL 090800Z 27012KT 9999 FEW025 30/25 Q1008 NOSIG RMK A2977
RPLL,2025-08-09 09:00,RPLL 090900Z 27010KT 9999 FEW025 30/25 Q1008 NOSIG RMK A2977
RPLL,2025-08-09 10:00,RPLL 091000Z 25009KT 9999 FEW025 29/25 Q1009 NOSIG RMK A2980
RPLL,2025-08-09 11:00,RPLL 091100Z 25008KT 220V280 9999 FEW025 29/25 Q1010 NOSIG RMK A2983
RPLL,2025-08-09 12:00,RPLL 091200Z 26006KT 9999 FEW025 28/25 Q1010 NOSIG RMK A2983
RPLL,2025-08-09 13:00,RPLL 091300Z 22003KT 190V260 9999 FEW025 29/25 Q1011 NOSIG RMK A2985
RPLL,2025-08-09 14:00,RPLL 091400Z 22004KT 190V250 9999 FEW025 29/25 Q1011 NOSIG RMK A2985
RPLL,2025-08-09 15:00,RPLL 091500Z VRB01KT 9999 FEW025 28/25 Q1011 NOSIG RMK A2985
RPLL,2025-08-09 16:00,RPLL 091600Z 19003KT 160V220 9999 FEW025 28/25 Q1011 NOSIG RMK A2985
RPLL,2025-08-09 17:00,RPLL 091700Z VRB01KT 9999 FEW025 28/25 Q1010 NOSIG RMK A2983
RPLL,2025-08-09 18:00,RPLL 091800Z VRB01KT 9999 FEW025 27/25 Q1010 NOSIG RMK A2983
RPLL,2025-08-09 19:00,RPLL 091900Z VRB01KT 9999 FEW025 27/25 Q1010 NOSIG RMK A2983
RPLL,2025-08-09 20:00,RPLL 092000Z 00000KT 9999 FEW025 26/25 Q1009 NOSIG RMK A2980
RPLL,2025-08-09 21:00,RPLL 092100Z VRB01KT 9999 FEW025 27/25 Q1010 NOSIG RMK A2983
RPLL,2025-08-09 22:00,RPLL 092200Z 17002KT 9999 FEW025 27/25 Q1010 NOSIG RMK A2983
RPLL,2025-08-09 23:00,RPLL 092300Z VRB02KT 9999 FEW025 29/25 Q1010 NOSIG RMK A2983
RPLL,2025-08-10 00:00,RPLL 100000Z VRB03KT 9999 FEW025 30/24 Q1010 NOSIG RMK A2983
RPLL,2025-08-10 01:00,RPLL 100100Z 25003KT 200V310 9999 FEW025 30/25 Q1010 NOSIG RMK A2983
RPLL,2025-08-10 02:00,RPLL 100200Z 28006KT 9999 FEW025 SCT100 30/25 Q1010 NOSIG RMK A2983
RPLL,2025-08-10 03:00,RPLL 100300Z 28009KT 9999 FEW025 31/26 Q1010 NOSIG RMK A2983
RPLL,2025-08-10 04:00,RPLL 100400Z 28008KT 9999 FEW025 32/26 Q1010 NOSIG RMK A2983
RPLL,2025-08-10 05:00,RPLL 100500Z 28008KT 9999 FEW025 33/25 Q1009 NOSIG RMK A2980
RPLL,2025-08-10 06:00,RPLL 100600Z 28011KT 9999 FEW025 32/26 Q1008 NOSIG RMK A2977
RPLL,2025-08-10 07:00,RPLL 100700Z 26013KT 9999 FEW025 SCT100 31/25 Q1008 NOSIG RMK A2977
RPLL,2025-08-10 08:00,RPLL 100800Z 26015KT 9999 FEW025 BKN100 31/24 Q1008 NOSIG RMK A2977
RPLL,2025-08-10 09:00,RPLL 100900Z 25012KT 9999 FEW023CB SCT025 BKN100 30/25 Q1008 NOSIG RMK A2977 CB S
RPLL,2025-08-10 10:00,RPLL 101000Z 25011KT 9999 SCT025 BKN100 30/26 Q1009 NOSIG RMK A2980
RPLL,2025-08-10 11:00,RPLL 101100Z 24007KT 200V270 9999 FEW025 BKN100 29/26 Q1009 NOSIG RMK A2980
RPLL,2025-08-10 12:00,RPLL 101200Z 23005KT 9999 FEW025 BKN100 29/26 Q1010 NOSIG RMK A2983
RPLL,2025-08-10 13:00,RPLL 101300Z 19003KT 150V220 9999 FEW025 BKN100 29/25 Q1011 NOSIG RMK A2985
RPLL,2025-08-10 14:00,RPLL 101400Z 22003KT 180V250 9999 FEW025 SCT100 29/25 Q1011 NOSIG RMK A2985
RPLL,2025-08-10 15:00,RPLL 101500Z 22003KT 180V240 9999 FEW025 29/25 Q1011 NOSIG RMK A2985
RPLL,2025-08-10 16:00,RPLL 101600Z 00000KT 9999 FEW025 28/25 Q1010 NOSIG RMK A2983
RPLL,2025-08-10 17:00,RPLL 101700Z VRB01KT 9999 FEW025 28/25 Q1010 NOSIG RMK A2983
RPLL,2025-08-10 18:00,RPLL 101800Z VRB02KT 9999 FEW025 SCT100 28/25 Q1010 NOSIG RMK A2983
RPLL,2025-08-10 19:00,RPLL 101900Z 00000KT 9999 FEW025 BKN130 28/25 Q1009 NOSIG RMK A2980
RPLL,2025-08-10 20:00,RPLL 102000Z VRB02KT 9999 FEW025 SCT130 27/25 Q1009 NOSIG RMK A2980
RPLL,2025-08-10 21:00,RPLL 102100Z VRB01KT 9999 FEW025 27/26 Q1009 NOSIG RMK A2980
RPLL,2025-08-10 22:00,RPLL 102200Z VRB01KT 9999 FEW025 SCT130 27/25 Q1009 NOSIG RMK A2980
RPLL,2025-08-10 23:00,RPLL 102300Z 17003KT 110V210 9999 FEW025 SCT100 29/26 Q1009 NOSIG RMK A2980
RPLL,2025-08-11 00:00,RPLL 110000Z VRB03KT 9999 FEW025 30/26 Q1009 NOSIG RMK A2980
RPLL,2025-08-11 01:00,RPLL 110100Z 28007KT 260V320 9000 SCT025 29/26 Q1009 NOSIG RMK A2980
RPLL,2025-08-11 02:00,RPLL 110200Z 31006KT 220V010 9000 FEW025 31/27 Q1009 NOSIG RMK A2980
RPLL,2025-08-11 03:00,RPLL 110300Z 29008KT 230V330 9999 SCT025 31/26 Q1009 NOSIG RMK A2980
RPLL,2025-08-11 04:00,RPLL 110400Z 28008KT 250V320 9999 FEW023CB 32/26 Q1008 NOSIG RMK A2977 CB S
RPLL,2025-08-11 05:00,RPLL 110500Z VRB09KT 9999 FEW025 SCT100 33/25 Q1007 NOSIG RMK A2974
RPLL,2025-08-11 06:00,RPLL 110600Z 26011KT 9999 FEW023CB SCT025 SCT100 32/25 Q1007 NOSIG RMK A2974 CB S-SW
RPLL,2025-08-11 07:00,RPLL 110700Z 27013KT 240V300 9999 FEW025 32/27 Q1006 NOSIG RMK A2971
RPLL,2025-08-11 08:00,RPLL 110800Z 27011KT 9999 FEW023CB SCT025 BKN100 30/26 Q1007 NOSIG RMK A2974 CB NE
RPLL,2025-08-11 09:00,RPLL 110900Z 24009KT 9999 FEW025 BKN100 30/25 Q1007 NOSIG RMK A2974
RPLL,2025-08-11 10:00,RPLL 111000Z 23006KT 190V260 9999 -SHRA SCT025 OVC100 29/26 Q1007 NOSIG RMK A2974
RPLL,2025-08-11 11:00,RPLL 111100Z 22006KT 8000 -RA FEW022CB SCT023 OVC090 28/26 Q1008 NOSIG RMK A2977 CB/OCNL LTG NW
RPLL,2025-08-11 12:00,RPLL 111200Z 33005KT 250V030 9999 SCT025 BKN100 28/25 Q1009 NOSIG RMK A2980
RPLL,2025-08-11 13:00,RPLL 111300Z 08003KT 030V130 9000 -SHRA FEW023CB SCT025 BKN090 26/26 Q1009 NOSIG RMK A2980 CB/OCNL LTG SW
RPLL,2025-08-11 14:00,RPLL 111400Z 06004KT 9999 FEW025 SCT100 26/26 Q1010 NOSIG RMK A2983
RPLL,2025-08-11 15:00,RPLL 111500Z VRB01KT 9999 FEW025 SCT100 27/26 Q1010 NOSIG RMK A2983
RPLL,2025-08-11 16:00,RPLL 111600Z 18003KT 150V210 9999 FEW025 27/26 Q1009 NOSIG RMK A2980
RPLL,2025-08-11 17:00,RPLL 111700Z VRB02KT 9999 SCT025 BKN100 27/26 Q1009 NOSIG RMK A2980
RPLL,2025-08-11 18:00,RPLL 111800Z VRB01KT 9999 SCT025 BKN100 27/26 Q1009 NOSIG RMK A2980
RPLL,2025-08-11 19:00,RPLL 111900Z 22003KT 9999 FEW025 BKN100 27/26 Q1008 NOSIG RMK A2977
RPLL,2025-08-11 20:00,RPLL 112000Z VRB02KT 9999 FEW025 SCT100 27/26 Q1008 NOSIG RMK A2977
RPLL,2025-08-11 21:00,COR RPLL 112100Z VRB03KT 9999 FEW025 SCT100 27/26 Q1008 NOSIG RMK A2977
RPLL,2025-08-11 22:00,RPLL 112200Z VRB02KT 9999 FEW025 SCT100 28/25 Q1008 NOSIG RMK A2977
RPLL,2025-08-11 23:00,RPLL 112300Z 32003KT 270V010 9999 FEW025 SCT100 28/24 Q1008 NOSIG RMK A2977
RPLL,2025-08-12 00:00,RPLL 120000Z 36005KT 320V060 9999 FEW025 30/25 Q1008 NOSIG RMK A2977
RPLL,2025-08-12 01:00,RPLL 120100Z 27008KT 9999 FEW025 29/25 Q1008 NOSIG RMK A2977
RPLL,2025-08-12 02:00,RPLL 120200Z 28007KT 250V350 9999 FEW025 31/25 Q1008 NOSIG RMK A2977
RPLL,2025-08-12 03:00,RPLL 120300Z 30008KT 9999 FEW025 31/25 Q1008 NOSIG RMK A2977
RPLL,2025-08-12 04:00,RPLL 120400Z 30008KT 9999 FEW025 32/26 Q1008 NOSIG RMK A2977
RPLL,2025-08-12 05:00,RPLL 120500Z 29008KT 250V330 9999 FEW025TCU 32/25 Q1007 NOSIG RMK A2974 TCU E/S
RPLL,2025-08-12 06:00,RPLL 120600Z 28009KT 250V310 9999 FEW025TCU 32/25 Q1006 NOSIG RMK A2971 TCU E
RPLL,2025-08-12 07:00,RPLL 120700Z 28008KT 220V310 9999 FEW023CB SCT025 31/25 Q1006 NOSIG RMK A2971 CB NE/E
RPLL,2025-08-12 08:00,RPLL 120800Z 26009KT 240V300 9999 FEW023CB SCT025 BKN100 31/26 Q1006 NOSIG RMK A2971 CB N
RPLL,2025-08-12 09:00,RPLL 120900Z 27008KT 9999 FEW023CB SCT025 BKN100 30/26 Q1006 NOSIG RMK A2971 CB N
RPLL,2025-08-12 10:00,RPLL 121000Z 24006KT 200V270 9999 SCT025 BKN100 30/25 Q1007 NOSIG RMK A2974
RPLL,2025-08-12 11:00,RPLL 121100Z VRB02KT 9999 FEW023CB SCT025 BKN100 30/25 Q1008 NOSIG RMK A2977 CB/OCNL LTG W-NW
RPLL,2025-08-12 12:00,RPLL 121200Z 33008KT 9999 FEW025 SCT100 28/25 Q1008 NOSIG RMK A2977
RPLL,2025-08-12 13:00,RPLL 121300Z 07005KT 9999 FEW025 SCT100 28/24 Q1009 NOSIG RMK A2980
RPLL,2025-08-12 14:00,RPLL 121400Z VRB02KT 9999 FEW025 SCT100 28/24 Q1009 NOSIG RMK A2980
RPLL,2025-08-12 15:00,RPLL 121500Z 32004KT 280V020 9999 FEW025 28/24 Q1009 NOSIG RMK A2980
RPLL,2025-08-12 16:00,RPLL 121600Z 27004KT 240V310 9999 FEW025 28/24 Q1009 NOSIG RMK A2980
RPLL,2025-08-12 17:00,RPLL 121700Z 00000KT 9999 FEW025 28/24 Q1008 NOSIG RMK A2977
RPLL,2025-08-12 18:00,RPLL 121800Z 28003KT 9999 FEW025 27/24 Q1008 NOSIG RMK A2977
RPLL,2025-08-12 19:00,RPLL 121900Z 26005KT 9999 FEW025 SCT100 27/25 Q1008 NOSIG RMK A2977
RPLL,2025-08-12 20:00,RPLL 122000Z VRB02KT 9999 FEW025 27/25 Q1008 NOSIG RMK A2977
RPLL,2025-08-12 21:00,RPLL 122100Z 22004KT 9999 FEW025 27/25 Q1008 NOSIG RMK A2977
RPLL,2025-08-12 22:00,RPLL 122200Z VRB02KT 9999 FEW025 27/25 Q1008 NOSIG RMK A2977
RPLL,2025-08-12 23:00,RPLL 122300Z 25003KT 230V310 9999 FEW025 28/26 Q1008 NOSIG RMK A2977
RPLL,2025-08-13 00:00,COR RPLL 130000Z 26004KT 200V330 9999 FEW025 28/26 Q1009 NOSIG RMK A2980
RPLL,2025-08-13 01:00,RPLL 130100Z 27008KT 210V300 9999 FEW025 29/26 Q1009 NOSIG RMK A2980
RPLL,2025-08-13 02:00,RPLL 130200Z 27007KT 9999 FEW025 30/26 Q1008 NOSIG RMK A2977
RPLL,2025-08-13 03:00,RPLL 130300Z 30006KT 220V350 9999 FEW025 31/25 Q1008 NOSIG RMK A2977
RPLL,2025-08-13 04:00,COR RPLL 130400Z 29007KT 9999 SCT025TCU 32/26 Q1008 NOSIG RMK A2977 TCU NE
RPLL,2025-08-13 05:00,RPLL 130500Z 29008KT 220V320 9999 FEW025 32/24 Q1007 NOSIG RMK A2974
RPLL,2025-08-13 06:00,RPLL 130600Z 28009KT 240V300 9999 FEW023CB 31/26 Q1006 NOSIG RMK A2971 CB S
RPLL,2025-08-13 07:00,RPLL 130700Z 26010KT 9999 FEW023CB SCT025 31/25 Q1006 NOSIG RMK A2971 CB S
RPLL,2025-08-13 08:00,RPLL 130800Z 26010KT 230V290 9999 FEW023CB SCT025 30/25 Q1006 NOSIG RMK A2971 CB S
RPLL,2025-08-13 09:00,RPLL 130900Z 25008KT 9999 SCT025 BKN100 30/25 Q1007 NOSIG RMK A2974
RPLL,2025-08-13 10:00,RPLL 131000Z 25009KT 9999 SCT025 BKN100 30/25 Q1007 NOSIG RMK A2974
RPLL,2025-08-13 11:00,RPLL 131100Z 23004KT 190V280 9999 FEW023CB BKN100 30/26 Q1008 NOSIG RMK A2977 CB/OCNL LTG NE
RPLL,2025-08-13 12:00,RPLL 131200Z 20003KT 160V240 9999 FEW023CB SCT025 BKN100 30/26 Q1008 NOSIG RMK A2977 CB/OCNL LTG N
RPLL,2025-08-13 13:00,RPLL 131300Z VRB02KT 9999 FEW023CB SCT025 BKN100 29/25 Q1009 NOSIG RMK A2980 CB/OCNL LTG NW-N
RPLL,2025-08-13 13:27,RPLL 131327Z 01008KT 7000 -SHRA FEW023CB SCT025 OVC090 27/24 Q1009 NOSIG RMK A2980 CB NE
RPLL,2025-08-13 14:00,RPLL 131400Z 05005KT 350V090 8000 -SHRA SCT023 OVC090 27/24 Q1009 NOSIG RMK A2980
RPLL,2025-08-13 15:00,RPLL 131500Z 07005KT 9999 FEW025 BKN100 27/24 Q1009 NOSIG RMK A2980
RPLL,2025-08-13 16:00,RPLL 131600Z VRB02KT 9999 FEW025 SCT100 28/24 Q1008 NOSIG RMK A2977
RPLL,2025-08-13 17:00,RPLL 131700Z VRB02KT 9999 FEW025 SCT100 28/25 Q1008 NOSIG RMK A2977
RPLL,2025-08-13 18:00,RPLL 131800Z VRB02KT 9999 FEW025 28/25 Q1008 NOSIG RMK A2977
RPLL,2025-08-13 19:00,RPLL 131900Z VRB02KT 9999 SCT025 28/26 Q1008 NOSIG RMK A2977
RPLL,2025-08-13 20:00,RPLL 132000Z 00000KT 9999 FEW025 28/26 Q1008 NOSIG RMK A2977
RPLL,2025-08-13 21:00,RPLL 132100Z VRB02KT 9999 FEW025 28/26 Q1008 NOSIG RMK A2977
RPLL,2025-08-13 22:00,RPLL 132200Z VRB02KT 9000 FEW025 28/26 Q1008 NOSIG RM A2977
RPLL,2025-08-13 23:00,RPLL 132300Z 20003KT 160V260 9999 FEW025 28/26 Q1008 NOSIG RMK A2977
RPLL,2025-08-14 00:00,RPLL 140000Z 15004KT 070V210 9999 FEW025 30/26 Q1008 NOSIG RMK A2977
RPLL,2025-08-14 01:00,RPLL 140100Z 11004KT 020V190 9999 FEW025 30/25 Q1009 NOSIG RMK A2980
RPLL,2025-08-14 02:00,RPLL 140200Z VRB05KT 9999 SCT025 31/26 Q1009 NOSIG RMK A2980
RPLL,2025-08-14 03:00,RPLL 140300Z 12005KT 070V210 9999 SCT025 BKN100 32/25 Q1008 NOSIG RMK A2977
RPLL,2025-08-14 04:00,RPLL 140400Z 10007KT 060V180 9999 SCT025 33/24 Q1008 NOSIG RMK A2977
RPLL,2025-08-14 05:00,RPLL 140500Z 12007KT 070V170 9999 FEW023CB SCT025 33/23 Q1007 NOSIG RMK A2974 CB N
RPLL,2025-08-14 06:00,RPLL 140600Z 13008KT 080V170 9999 FEW023CB SCT100 33/25 Q1007 TEMPO 5000 -TSRA RMK A2974 CB SW/N
RPLL,2025-08-14 07:00,RPLL 140700Z 18003KT 070V230 9999 FEW023CB SCT025 BKN100 30/24 Q1007 TEMPO TS RMK A2974 CB S
RPLL,2025-08-14 08:00,RPLL 140800Z 20005KT 160V230 9999 FEW023CB SCT025 BKN100 30/24 Q1007 NOSIG RMK A2974 CB N
RPLL,2025-08-14 09:00,RPLL 140900Z 13004KT 080V190 9999 SCT023 OVC100 30/24 Q1007 NOSIG RMK A2974
RPLL,2025-08-14 10:00,COR RPLL 141000Z 15004KT 110V190 9999 SCT023 OVC100 30/25 Q1008 NOSIG RMK A2977
RPLL,2025-08-14 11:00,RPLL 141100Z 23003KT 190V270 9999 SCT025 OVC100 28/26 Q1008 NOSIG RMK A2977
RPLL,2025-08-14 12:00,RPLL 141200Z 12004KT 080V180 9999 -SHRA SCT023 OVC100 29/25 Q1008 NOSIG RMK A2977
RPLL,2025-08-14 13:00,RPLL 141300Z 14004KT 100V240 9999 -RA SCT023 BKN100 29/26 Q1009 NOSIG RMK A2980
RPLL,2025-08-14 14:00,RPLL 141400Z 13004KT 100V170 9999 FEW025 SCT100 28/25 Q1009 NOSIG RMK A2980
RPLL,2025-08-14 15:00,RPLL 141500Z 16003KT 080V220 9999 FEW023CB SCT025 28/25 Q1009 NOSIG RMK A2980 CB/OCNL LTG W-NW
RPLL,2025-08-14 16:00,RPLL 141600Z 16003KT 110V210 9999 SCT025 BKN100 28/25 Q1009 NOSIG RMK A2980
RPLL,2025-08-14 17:00,RPLL 141700Z VRB02KT 9999 SCT025 BKN100 28/25 Q1008 NOSIG RMK A2977
RPLL,2025-08-14 18:00,RPLL 141800Z VRB01KT 9999 SCT025 BKN100 27/25 Q1007 NOSIG RMK A2974
RPLL,2025-08-14 19:00,RPLL 141900Z 08003KT 9999 SCT025 27/25 Q1007 NOSIG RMK A2974
RPLL,2025-08-14 20:00,RPLL 142000Z 04003KT 360V070 9000 FEW025 SCT100 27/25 Q1007 NOSIG RMK A2974
RPLL,2025-08-14 21:00,RPLL 142100Z 08003KT 9000 FEW025TCU 27/25 Q1007 NOSIG RMK A2974
RPLL,2025-08-14 22:00,RPLL 142200Z VRB02KT 9999 FEW023TCU SCT025 SCT100 27/25 Q1007 NOSIG RMK A2974 TCU S-SW
RPLL,2025-08-14 23:00,RPLL 142300Z 11006KT 060V150 9999 FEW023TCU SCT025 28/24 Q1007 NOSIG RMK A2974
RPLL,2025-08-15 00:00,RPLL 150000Z 13006KT 090V200 9999 FEW025 SCT100 29/24 Q1008 NOSIG RMK A2977
RPLL,2025-08-15 01:00,RPLL 150100Z 14006KT 100V180 9999 SCT025 BKN100 29/25 Q1008 NOSIG RMK A2977
RPLL,2025-08-15 02:00,RPLL 150200Z 14008KT 070V190 9999 SCT025 BKN100 30/24 Q1007 NOSIG RMK A2977
RPLL,2025-08-15 03:00,RPLL 150300Z 13007KT 060V170 9999 SCT025 BKN100 30/24 Q1007 NOSIG RMK A2974
RPLL,2025-08-15 04:00,RPLL 150400Z VRB07KT 9999 FEW025 SCT100 32/24 Q1006 NOSIG RMK A2974
RPLL,2025-08-15 05:00,RPLL 150500Z 12008KT 070V170 9999 FEW025 SCT100 32/23 Q1006 NOSIG RMK A2971
RPLL,2025-08-15 06:00,RPLL 150600Z 15007KT 090V180 9999 FEW023CB SCT025 33/25 Q1005 NOSIG RMK A2968 CB SW
RPLL,2025-08-15 06:34,RPLL 150634Z 25012KT 220V280 8000 -TSRA SCT020CB BKN090 28/25 Q1005 TEMPO 5000 TSRA RMK A2968 CB OHD/S-SW
RPLL,2025-08-15 07:00,RPLL 150700Z 24007KT 200V260 7000 -TSRA SCT020CB SCT022 OVC090 27/26 Q1006 NOSIG RMK A2971 CB OHD/S-SW
RPLL,2025-08-15 08:00,RPLL 150800Z 26005KT 7000 -RA FEW022CB SCT023 OVC090 27/26 Q1006 RETS NOSIG RMK A2971 CB SE-S
RPLL,2025-08-15 09:00,RPLL 150900Z VRB03KT 8000 -RA SCT022 OVC090 27/27 Q1006 NOSIG RMK A2971
RPLL,2025-08-15 10:00,RPLL 151000Z VRB01KT 9000 -RA SCT023 OVC090 27/26 Q1007 NOSIG RMK A2974
RPLL,2025-08-15 11:00,RPLL 151100Z VRB02KT 9000 -RA SCT023 OVC090 27/26 Q1007 NOSIG RMK A2974
RPLL,2025-08-15 12:00,RPLL 151200Z 31003KT 230V350 9000 -RA SCT023 OVC090 28/25 Q1007 NOSIG RMK A2974
RPLL,2025-08-15 13:00,RPLL 151300Z VRB03KT 9999 -RA SCT023 OVC100 27/25 Q1008 NOSIG RMK A2977
RPLL,2025-08-15 14:00,RPLL 151400Z VRB02KT 9999 -RA SCT025 OVC100 27/26 Q1008 NOSIG RMK A2977
RPLL,2025-08-15 15:00,RPLL 151500Z 10003KT 9999 FEW025 OVC100 27/26 Q1008 NOSIG RMK A2977
RPLL,2025-08-15 16:00,RPLL 151600Z VRB02KT 9999 FEW025 BKN130 27/25 Q1008 NOSIG RMK A2977
RPLL,2025-08-15 17:00,RPLL 151700Z VRB02KT 9999 FEW025 SCT130 27/26 Q1007 NOSIG RMK A2974
RPLL,2025-08-15 18:00,RPLL 151800Z VRB02KT 9999 FEW025 27/26 Q1006 NOSIG RMK A2971
RPLL,2025-08-15 19:00,RPLL 151900Z VRB02KT 9999 FEW025 26/25 Q1006 NOSIG RMK A2971
RPLL,2025-08-15 20:00,RPLL 152000Z 10003KT 070V130 9999 FEW025 BKN100 27/25 Q1006 NOSIG RMK A2971
RPLL,2025-08-15 21:00,RPLL 152100Z VRB02KT 9999 FEW025 BKN100 27/26 Q1006 NOSIG RMK A2971
RPLL,2025-08-15 22:00,RPLL 152200Z 00000KT 9999 FEW025 BKN100 27/26 Q1007 NOSIG RMK A2974
RPLL,2025-08-15 23:00,RPLL 152300Z 09004KT 050V160 9999 FEW025 BKN100 28/25 Q1007 NOSIG RMK A2974
RPLL,2025-08-16 00:00,RPLL 160000Z 11006KT 080V140 9999 SCT025 BKN100 29/25 Q1008 NOSIG RMK A2977
RPLL,2025-08-16 01:00,RPLL 160100Z 10006KT 070V150 9999 SCT025 BKN100 29/25 Q1008 NOSIG RMK A2977
RPLL,2025-08-16 02:00,RPLL 160200Z 12009KT 090V160 9999 FEW025 SCT100 30/25 Q1008 NOSIG RMK A2977
RPLL,2025-08-16 03:00,RPLL 160300Z 13008KT 090V170 9999 SCT025 BKN100 30/25 Q1008 NOSIG RMK A2977
RPLL,2025-08-16 04:00,RPLL 160400Z 10005KT 070V150 9999 -SHRA SCT023 OVC100 30/25 Q1008 NOSIG RMK A2977
RPLL,2025-08-16 05:00,RPLL 160500Z 32011KT 260V360 4000 TSRA FEW018CB BKN020 OVC080 27/25 Q1007 TEMPO 7000 -SHRA RMK A 2974 CB OHD
RPLL,2025-08-16 05:13,RPLL 160513Z 30020G32KT 0500 +TSRA FEW015CB BKN018 OVC070 24/24 Q1008 TEMPO 4000 TSRA RMK A2977 CB OHD
RPLL,2025-08-16 06:00,RPLL 160600Z 11004KT 070V190 8000 -TSRA FEW020CB BKN022 OVC090 25/25 Q1007 RESHRA NOSIG RMK A2974 CB OHD SE
RPLL,2025-08-16 07:00,RPLL 160700Z 12003KT 070V190 7000 -TSRA SCT020CB SCT022 OVC090 26/25 Q1007 TEMPO 5000 TSRA RMK A2974 CB OHD E-S
RPLL,2025-08-16 08:00,RPLL 160800Z VRB02KT 9000 -RA SCT023 OVC090 26/26 Q1007 RETS NOSIG RMK A2974
RPLL,2025-08-16 09:00,RPLL 160900Z 12003KT 100V160 9000 -RA SCT023 OVC090 27/26 Q1007 NOSIG RMK A2974
RPLL,2025-08-16 10:00,RPLL 161000Z 11003KT 090V150 9000 -RA SCT023 OVC090 27/26 Q1008 NOSIG RMK A2977
RPLL,2025-08-16 11:00,RPLL 161100Z VRB02KT 9000 -RA SCT023 OVC090 27/26 Q1008 NOSIG RMK A2977
RPLL,2025-08-16 12:00,RPLL 161200Z 12003KT 090V180 9999 FEW025 OVC100 27/26 Q1009 NOSIG RMK A2980
RPLL,2025-08-16 13:00,RPLL 161300Z 10003KT 070V130 9999 FEW025 BKN100 27/26 Q1009 NOSIG RMK A2980
RPLL,2025-08-16 14:00,RPLL 161400Z VRB02KT 9999 FEW025 BKN100 27/26 Q1010 NOSIG RMK A2983
RPLL,2025-08-16 15:00,RPLL 161500Z VRB02KT 9999 SCT025 BKN100 27/26 Q1010 NOSIG RMK A2983
RPLL,2025-08-16 16:00,RPLL 161600Z 00000KT 9999 SCT025 SCT100 27/26 Q1010 NOSIG RMK A2983
RPLL,2025-08-16 17:00,RPLL 161700Z VRB01KT 9999 SCT025 SCT150 27/26 Q1009 NOSIG RMK A2980
RPLL,2025-08-16 18:00,RPLL 161800Z 16002KT 9999 FEW025 BKN150 26/26 Q1009 NOSIG RMK A2980
RPLL,2025-08-16 19:00,RPLL 161900Z 11002KT 9999 FEW025 BKN100 26/26 Q1009 NOSIG RMK A2980
RPLL,2025-08-16 20:00,RPLL 162000Z VRB02KT 9999 FEW025 BKN100 26/25 Q1009 NOSIG RMK A2980
RPLL,2025-08-16 21:00,RPLL 162100Z VRB02KT 9999 FEW025 BKN100 27/26 Q1009 NOSIG RMK A2980
RPLL,2025-08-16 22:00,RPLL 162200Z VRB02KT 9999 FEW025 BKN100 27/26 Q1009 NOSIG RMK A2980
RPLL,2025-08-16 23:00,RPLL 162300Z VRB02KT 9999 FEW025 BKN100 27/26 Q1010 NOSIG RMK A2983
RPLL,2025-08-17 00:00,RPLL 170000Z VRB02KT 9999 FEW025 BKN100 29/26 Q1011 NOSIG RMK A2985
RPLL,2025-08-17 01:00,RPLL 170100Z 13004KT 070V240 9999 SCT025 BKN100 30/26 Q1012 NOSIG RMK A2988
RPLL,2025-08-17 02:00,RPLL 170200Z 12006KT 070V160 9999 SCT025 BKN100 30/25 Q1011 NOSIG RMK A2985
RPLL,2025-08-17 03:00,RPLL 170300Z 13007KT 080V210 9999 SCT025 32/25 Q1011 NOSIG RMK A2985
RPLL,2025-08-17 04:00,RPLL 170400Z 13008KT 080V180 9999 SCT025 33/24 Q1011 NOSIG RMK A2985
RPLL,2025-08-17 05:00,RPLL 170500Z 13007KT 070V180 9999 SCT025 33/24 Q1010 NOSIG RMK A2983
RPLL,2025-08-17 06:00,RPLL 170600Z 13007KT 090V180 9999 FEW023CB SCT025 32/24 Q1010 NOSIG RMK A2983 CB SW-W
RPLL,2025-08-17 07:00,COR RPLL 170700Z 24015KT 8000 -TSRA FEW020CB SCT022 OVC090 25/24 Q1011 TEMPO 5000 TSRA RMK A2985 CB OHD/S-W
RPLL,2025-08-17 08:00,COR RPLL 170800Z 24006KT 210V270 9999 SCT023 BKN090 27/25 Q1010 RETSRA NOSIG RMK A2983
RPLL,2025-08-17 09:00,RPLL 170900Z 26004KT 9999 SCT023 BKN100 28/26 Q1011 NOSIG RMK A2985
RPLL,2025-08-17 10:00,RPLL 171000Z 19002KT 9999 SCT025 BKN100 29/25 Q1011 NOSIG RMK A2985
RPLL,2025-08-17 10:21,RPLL 171021Z VRB02KT 9000 -RA SCT023 OVC090 28/26 Q1012 NOSIG RMK A2988
RPLL,2025-08-17 11:00,RPLL 171100Z 14004KT 110V180 9999 FEW025 BKN100 28/27 Q1012 NOSIG RMK A2988
RPLL,2025-08-17 12:00,COR RPLL 171200Z 15004KT 120V210 9000 -TSRA FEW022CB SCT023 OVC090 28/27 Q1013 TEMPO 6000 RMK A2991 CB OHD SE-S
RPLL,2025-08-17 13:00,RPLL 171300Z VRB02KT 9000 -RA SCT023 OVC100 26/26 Q1013 RETS NOSIG RMK A2991
RPLL,2025-08-17 14:00,RPLL 171400Z VRB02KT 9999 -RA FEW025 OVC100 26/25 Q1013 NOSIG RMK A2991
RPLL,2025-08-17 15:00,RPLL 171500Z VRB02KT 9999 FEW025 OVC100 26/26 Q1013 NOSIG RMK A2991
RPLL,2025-08-17 16:00,RPLL 171600Z VRB01KT 9999 FEW025 OVC100 27/26 Q1013 NOSIG RMK A2991
RPLL,2025-08-17 17:00,RPLL 171700Z VRB01KT 9999 FEW025 OVC150 26/26 Q1012 NOSIG RMK A2988
RPLL,2025-08-17 18:00,RPLL 171800Z 23001KT 9999 FEW025 OVC150 26/26 Q1011 NOSIG RMK A2985
RPLL,2025-08-17 19:00,RPLL 171900Z VRB01KT 9999 FEW025 BKN100 26/26 Q1011 NOSIG RMK A2985
RPLL,2025-08-17 20:00,RPLL 172000Z 00000KT 9999 FEW025 BKN230 26/26 Q1012 NOSIG RMK A2988
RPLL,2025-08-17 21:00,RPLL 172100Z VRB02KT 9999 FEW025 27/26 Q1012 NOSIG RMK A2988
RPLL,2025-08-17 22:00,RPLL 172200Z VRB02KT 9999 FEW025 27/26 Q1012 NOSIG RMK A2988
RPLL,2025-08-17 23:00,RPLL 172300Z 12005KT 080V170 9999 FEW025 29/26 Q1012 NOSIG RMK A2988
RPLL,2025-08-18 00:00,RPLL 180000Z 11007KT 080V150 9999 FEW025 30/26 Q1013 NOSIG RMK A2991
RPLL,2025-08-18 01:00,RPLL 180100Z 12007KT 060V170 9999 FEW025 31/25 Q1013 NOSIG RMK A2991
RPLL,2025-08-18 02:00,RPLL 180200Z 14007KT 090V180 9999 FEW025 31/24 Q1013 NOSIG RMK A2991
RPLL,2025-08-18 03:00,RPLL 180300Z 11005KT 050V190 9999 FEW025 BKN100 32/24 Q1013 NOSIG RMK A2991
RPLL,2025-08-18 04:00,RPLL 180400Z 08006KT 050V130 9999 FEW025 SCT100 32/23 Q1012 NOSIG RMK A2988
RPLL,2025-08-18 05:00,RPLL 180500Z VRB04KT 9999 FEW025 SCT100 34/24 Q1011 NOSIG RMK A2985
RPLL,2025-08-18 06:00,RPLL 180600Z 27011KT 250V310 9999 FEW025 SCT100 32/26 Q1010 NOSIG RMK A2983
RPLL,2025-08-18 07:00,RPLL 180700Z 29009KT 260V320 9999 FEW025 32/26 Q1010 NOSIG RMK A2983
RPLL,2025-08-18 08:00,RPLL 180800Z 26010KT 9999 FEW025 31/26 Q1010 NOSIG RMK A2983
RPLL,2025-08-18 09:00,RPLL 180900Z 26010KT 9999 FEW025 31/27 Q1010 NOSIG RMK A2983
RPLL,2025-08-18 10:00,RPLL 181000Z 28009KT 9999 FEW025 30/26 Q1011 NOSIG RMK A2985
RPLL,2025-08-18 11:00,RPLL 181100Z 27006KT 230V310 9999 FEW020CB SCT100 30/26 Q1012 NOSIG RMK A2988 CB/OCNL LTG SE
RPLL,2025-08-18 12:00,RPLL 181200Z 25004KT 210V270 9999 FEW025 BKN100 30/25 Q1013 NOSIG RMK A2991
RPLL,2025-08-18 13:00,RPLL 181300Z VRB02KT 9999 FEW025 BKN100 30/26 Q1014 NOSIG RMK A2994
RPLL,2025-08-18 14:00,RPLL 181400Z VRB02KT 9999 FEW025 BKN100 30/25 Q1014 NOSIG RMK A2994
RPLL,2025-08-18 15:00,RPLL 181500Z VRB02KT 9999 SCT025 SCT100 30/25 Q1013 NOSIG RMK A2991
RPLL,2025-08-18 16:00,RPLL 181600Z VRB02KT 9999 FEW025 29/25 Q1012 NOSIG RMK A2988
RPLL,2025-08-18 17:00,RPLL 181700Z 11004KT 070V130 9999 FEW025 29/25 Q1012 NOSIG RMK A2988
RPLL,2025-08-18 18:00,RPLL 181800Z 12003KT 080V160 9999 FEW025 29/25 Q1011 NOSIG RMK A2985
RPLL,2025-08-18 19:00,RPLL 181900Z 10003KT 9999 FEW025 29/24 Q1011 NOSIG RMK A2985
RPLL,2025-08-18 20:00,RPLL 182000Z 10003KT 9999 FEW025 28/24 Q1011 NOSIG RMK A2985
RPLL,2025-08-18 21:00,RPLL 182100Z 00000KT 9999 FEW025 28/24 Q1011 NOSIG RMK A2985
RPLL,2025-08-18 22:00,RPLL 182200Z VRB01KT 9999 FEW025 28/24 Q1011 NOSIG RMK A2985
RPLL,2025-08-18 23:00,RPLL 182300Z 01005KT 340V040 9999 FEW025 BKN100 28/25 Q1011 NOSIG RMK A2985
RPLL,2025-08-19 00:00,RPLL 190000Z 09003KT 040V140 9999 FEW025 BKN100 29/26 Q1012 NOSIG RMK A2988
RPLL,2025-08-19 01:00,RPLL 190100Z 13003KT 050V200 9999 SCT025 31/25 Q1012 NOSIG RMK A2988
RPLL,2025-08-19 02:00,RPLL 190200Z 09006KT 050V140 9999 FEW025 32/24 Q1011 NOSIG RMK A2985
RPLL,2025-08-19 03:00,RPLL 190300Z VRB06KT 9999 FEW025 34/25 Q1011 NOSIG RMK A2985
RPLL,2025-08-19 04:00,RPLL 190400Z 12008KT 070V190 9999 FEW025 34/24 Q1011 NOSIG RMK A2985
RPLL,2025-08-19 05:00,RPLL 190500Z 14007KT 040V210 9999 FEW025 35/24 Q1010 NOSIG RMK A2983
RPLL,2025-08-19 06:00,COR RPLL 190600Z 32005KT 280V030 9999 SCT025 32/25 Q1009 NOSIG RMK A2980
RPLL,2025-08-19 07:00,RPLL 190700Z 27003KT 220V350 9999 SCT025 SCT100 32/26 Q1009 NOSIG RMK A2980
RPLL,2025-08-19 08:00,RPLL 190800Z 11007KT 070V160 9999 FEW023CB SCT025 BKN100 32/24 1009 NOSIG RMK A2980 CB NW
RPLL,2025-08-19 09:00,RPLL 190900Z 10005KT 050V160 9999 FEW023CB SCT025 32/25 Q1009 NOSIG RMK A2980 CB W
RPLL,2025-08-19 10:00,RPLL 191000Z 04007KT 330V110 9999 FEW023CB SCT025 31/25 Q1010 NOSIG RMK A2983 CB W
RPLL,2025-08-19 11:00,RPLL 191100Z 08005KT 9999 SCT023CB SCT100 31/25 Q1011 NOSIG RMK A2985 CB/CNS LTG NE/SW/W/NW
RPLL,2025-08-19 12:00,RPLL 191200Z 08005KT 9999 FEW025 SCT150 31/24 Q1012 NOSIG RMK A2988
RPLL,2025-08-19 13:00,RPLL 191300Z 08005KT 9999 FEW025 SCT150 31/24 Q1012 NOSIG RMK A2988
RPLL,2025-08-19 14:00,RPLL 191400Z 07005KT 9999 FEW025 SCT150 29/24 Q1012 NOSIG RMK A2988
RPLL,2025-08-19 15:00,RPLL 191500Z 06008KT 9999 FEW025 BKN150 29/24 Q1012 NOSIG RMK A2988
RPLL,2025-08-19 16:00,RPLL 191600Z 01003KT 320V050 9999 FEW025 SCT100 29/24 Q1011 NOSIG RMK A2985
RPLL,2025-08-19 17:00,RPLL 191700Z VRB02KT 9999 FEW025 SCT100 29/24 Q1011 NOSIG RMK A2985
RPLL,2025-08-19 18:00,RPLL 191800Z VRB02KT 9999 FEW025 28/24 Q1010 NOSIG RMK A2983
RPLL,2025-08-19 19:00,RPLL 191900Z VRB02KT 9999 FEW025 28/24 Q1010 NOSIG RMK A2983
RPLL,2025-08-19 20:00,RPLL 192000Z VRB02KT 9999 FEW025 SCT130 27/25 Q1010 NOSIG RMK A2983
RPLL,2025-08-19 21:00,COR RPLL 192100Z 10003KT 070V140 9999 FEW025 SCT130 28/25 Q1010 NOSIG RMK A2983
RPLL,2025-08-19 22:00,RPLL 192200Z 00000KT 9999 FEW025 SCT130 28/25 Q1010 NOSIG RMK A2983
RPLL,2025-08-19 23:00,COR RPLL 192300Z 07004KT 9999 FEW025 29/25 Q1010 NOSIG RMK A2983
RPLL,2025-08-20 00:00,RPLL 200000Z 12004KT 080V180 9999 FEW025 30/24 Q1011 NOSIG RMK A2985
RPLL,2025-08-20 01:00,RPLL 200100Z 13004KT 080V170 9999 FEW025 SCT100 32/24 Q1011 NOSIG RMK A2985
RPLL,2025-08-20 02:00,RPLL 200200Z VRB04KT 9999 FEW025 SCT100 31/26 Q1011 NOSIG RMK A2985
RPLL,2025-08-20 03:00,RPLL 200300Z 13006KT 080V170 9999 FEW025 33/25 Q1011 NOSIG RMK A2985
RPLL,2025-08-20 04:00,RPLL 200400Z 14005KT 090V210 9999 FEW025 34/25 Q1010 NOSIG A2983
RPLL,2025-08-20 05:00,RPLL 200500Z VRB06KT 9999 FEW025 34/25 Q1009 NOSIG RMK A2980
RPLL,2025-08-20 06:00,COR RPLL 200600Z 13007KT 080V170 9999 FEW023CB SCT025 34/25 Q1008 TEMPO TS RMK A2977 CB NW-N
RPLL,2025-08-20 07:00,RPLL 200700Z 02006KT 340V080 9999 SCT025 33/25 Q1008 NOSIG RMK A2977
RPLL,2025-08-20 08:00,COR RPLL 200800Z 11009KT 060V150 9999 VCSH FEW023CB SCT025 33/24 Q1008 NOSIG RMK A2977 CB/VCSH NW
RPLL,2025-08-20 09:00,RPLL 200900Z 11007KT 9999 VCSH FEW023CB SCT025 SCT100 32/24 Q1008 NOSIG RMK 2977 CB/VCSH NW
RPLL,2025-08-20 10:00,RPLL 201000Z 12006KT 080V150 9999 FEW025 SCT100 32/25 Q1009 NOSIG RMK A2980
RPLL,2025-08-20 11:00,RPLL 201100Z 11006KT 070V140 9999 FEW025 SCT150 31/24 Q1010 NOSIG RMK A2983
RPLL,2025-08-20 12:00,RPLL 201200Z 11004KT 070V140 9999 FEW025 SCT100 30/25 Q1011 NOSIG RMK A2983
RPLL,2025-08-20 13:00,RPLL 201300Z 12003KT 080V180 9999 FEW025 30/25 Q1011 NOSIG RMK A2985
RPLL,2025-08-20 14:00,RPLL 201400Z 12003KT 080V180 9999 FEW025 30/25 Q1011 NOSIG RMK A2985
RPLL,2025-08-20 15:00,RPLL 201500Z 12003KT 070V160 9999 FEW025 29/25 Q1011 NOSIG RMK A2985
RPLL,2025-08-20 16:00,RPLL 201600Z 11004KT 070V150 9999 FEW025 SCT150 29/25 Q1011 NOSIG RMK A2985
RPLL,2025-08-20 17:00,RPLL 201700Z 11003KT 9999 FEW025 SCT150 29/26 Q1010 NOSIG RMK A2983
RPLL,2025-08-20 18:00,RPLL 201800Z 10002KT 9999 FEW025 BKN150 29/26 Q1010 NOSIG RMK A2983
RPLL,2025-08-20 19:00,RPLL 201900Z 12003KT 080V150 9999 FEW025 BKN100 29/25 Q1010 NOSIG RMK A2983
RPLL,2025-08-20 20:00,RPLL 202000Z 05003KT 010V070 9999 FEW025 BKN100 28/26 Q1010 NOSIG RMK A2983
RPLL,2025-08-20 21:00,RPLL 202100Z 08003KT 9999 SCT025 BKN100 29/26 Q1010 NOSIG RMK A2983
RPLL,2025-08-20 22:00,RPLL 202200Z 01006KT 9000 -RA SCT023 OVC090 27/26 Q1010 TEMPO 6000 RMK A2983
RPLL,2025-08-20 23:00,COR RPLL 202300Z 02006KT 350V050 9000 -RA SCT023 OVC090 27/26 Q1010 NOSIG RMK A2983
RPLL,2025-08-21 00:00,RPLL 210000Z 10003KT 050V130 9999 -RA SCT023 OVC090 27/26 Q1012 NOSIG RMK A2988
RPLL,2025-08-21 01:00,RPLL 210100Z 04003KT 010V070 9999 -RA SCT023 OVC090 27/25 Q1012 NOSIG RMK A2988
RPLL,2025-08-21 02:00,RPLL 210200Z VRB02KT 9999 SCT023 OVC100 28/25 Q1012 NOSIG RMK A2988
RPLL,2025-08-21 03:00,RPLL 210300Z VRB02KT 9999 SCT025 BKN100 29/26 Q1011 NOSIG RMK A2985
RPLL,2025-08-21 04:00,RPLL 210400Z 28005KT 9999 SCT025 BKN100 29/25 Q1010 NOSIG RMK A2983
RPLL,2025-08-21 05:00,RPLL 210500Z 31007KT 250V340 9999 SCT025 BKN100 29/25 Q1009 NOSIG RMK A2980
RPLL,2025-08-21 06:00,RPLL 210600Z 29009KT 260V320 9999 FEW025 SCT100 29/25 Q1009 NOSIG RMK A2980
RPLL,2025-08-21 07:00,RPLL 210700Z 27006KT 250V320 9999 FEW025 SCT100 30/25 Q1009 NOSIG RMK A2980
RPLL,2025-08-21 08:00,RPLL 210800Z 28009KT 9999 FEW025 SCT100 30/25 Q1009 NOSIG RMK A2980
RPLL,2025-08-21 09:00,RPLL 210900Z 32005KT 280V360 9999 FEW025 31/24 Q1009 NOSIG RMK A2980
RPLL,2025-08-21 10:00,RPLL 211000Z 30004KT 260V340 9999 FEW025 SCT100 29/24 Q1009 NOSIG RMK A2980
RPLL,2025-08-21 11:00,RPLL 211100Z 27007KT 170V310 9999 FEW025 BKN100 29/25 Q1010 NOSIG RMK A2983
RPLL,2025-08-21 12:00,RPLL 211200Z 26009KT 9999 SCT023 SCT100 29/26 Q1010 NOSIG RMK A2983
RPLL,2025-08-21 13:00,RPLL 211300Z 27009KT 9999 SCT023 BKN100 29/26 Q1010 NOSIG RMK A2983
RPLL,2025-08-21 14:00,RPLL 211400Z 24008KT 210V270 9999 SCT023 BKN100 29/26 Q1011 NOSIG RMK A2985
RPLL,2025-08-21 15:00,RPLL 211500Z 27008KT 9999 SCT023 BKN100 28/26 Q1010 NOSIG RMK A2983
RPLL,2025-08-21 16:00,COR RPLL 211600Z 25009KT 9999 -RA SCT023 BKN100 28/26 Q1010 NOSIG RMK A2983
RPLL,2025-08-21 17:00,RPLL 211700Z 25004KT 230V300 9000 -RA FEW023CB SCT025 OVC090 27/26 Q1009 NOSIG RMK A2980 CB SW
RPLL,2025-08-21 18:00,RPLL 211800Z 20004KT 170V250 9000 -RA FEW023CB SCT025 BKN090 27/26 Q1008 NOSIG RMK A2977 CB SW
RPLL,2025-08-21 19:00,RPLL 211900Z 33005KT 300V020 9000 -RA FEW022CB SCT023 OVC090 28/25 Q1008 NOSIG RMK A2977 CB/OCNL LTG S
RPLL,2025-08-21 20:00,RPLL 212000Z 26003KT 180V300 9999 BKN023 OVC100 28/26 Q1008 NOSIG RMK A2977
RPLL,2025-08-21 21:00,COR RPLL 212100Z 25005KT 210V320 9000 -RA FEW022CB BKN023 OVC090 27/26 Q1008 TEMPO 5000 RA RMK A2977 CB/OCNL LTG E
RPLL,2025-08-21 22:00,RPLL 212200Z VRB02KT 9000 -RA BKN023 OVC090 25/25 Q1008 TEMPO 5000 RA RMK A2977
RPLL,2025-08-21 23:00,RPLL 212300Z 20007KT 170V240 8000 RA BKN022 OVC090 25/25 Q1008 TEMPO 5000 RMK A2977
RPLL,2025-08-22 00:00,RPLL 220000Z 21005KT 170V250 6000 RA BKN022 OVC080 25/25 Q1009 NOSIG RMK A2980
RPLL,2025-08-22 01:00,RPLL 220100Z 23006KT 200V270 3000 RA BKN022 OVC080 25/25 Q1009 TEMPO 5000 RMK A2980
RPLL,2025-08-22 02:00,RPLL 220200Z 25008KT 4000 RA BKN022 OVC080 25/25 Q1009 NOSIG RMK A2980
RPLL,2025-08-22 03:00,RPLL 220300Z 24008KT 180V260 5000 -RA BKN022 OVC080 26/26 Q1009 RERA NOSIG RMK A2980
RPLL,2025-08-22 04:00,RPLL 220400Z 24007KT 200V260 7000 -RA SCT023 OVC080 26/25 Q1009 NOSIG RMK A2980
RPLL,2025-08-22 05:00,RPLL 220500Z 23008KT 180V260 8000 -RA SCT023 OVC080 26/25 Q1008 NOSIG RMK A2977
RPLL,2025-08-22 06:00,RPLL 220600Z 25014KT 9999 -RA SCT023 OVC100 27/25 Q1007 NOSIG RMK A2974
RPLL,2025-08-22 07:00,RPLL 220700Z 24010KT 9999 -RA SCT023 OVC100 27/25 Q1007 NOSIG RMK A2971
RPLL,2025-08-22 08:00,RPLL 220800Z 23008KT 200V260 9999 -RA SCT023 OVC100 27/24 Q1007 NOSIG RMK A2974
RPLL,2025-08-22 09:00,RPLL 220900Z 22008KT 160V250 9999 SCT023 BKN090 27/24 Q1007 NOSIG RMK A2974
RPLL,2025-08-22 10:00,RPLL 221000Z 20005KT 160V240 9999 SCT023 BKN100 27/24 Q1007 NOSIG RMK A2974
RPLL,2025-08-22 11:00,RPLL 221100Z 23006KT 200V280 9000 -RA SCT022 OVC090 26/25 Q1008 NOSIG RMK A2977
RPLL,2025-08-22 12:00,RPLL 221200Z 24007KT 9999 SCT022 OVC090 26/24 Q1009 NOSIG RMK A2980
RPLL,2025-08-22 13:00,RPLL 221300Z 19004KT 160V230 9999 SCT023 BKN090 26/24 Q1009 NOSIG RMK A2980
RPLL,2025-08-22 14:00,RPLL 221400Z VRB02KT 9999 FEW023 BKN090 26/24 Q1010 NOSIG RMK A2983
RPLL,2025-08-22 15:00,RPLL 221500Z VRB02KT 5000 RA SCT022 OVC090 25/25 Q1010 NOSIG RMK A2983
RPLL,2025-08-22 16:00,RPLL 221600Z VRB02KT 8000 SCT023 BKN090 25/25 Q1010 RERA NOSIG RMK A2983
RPLL,2025-08-22 17:00,RPLL 221700Z 19005KT 160V240 8000 -RA SCT022 OVC090 25/25 Q1010 RERA NOSIG RMK A2983
RPLL,2025-08-22 18:00,RPLL 221800Z VRB02KT 9000 FEW023 BKN090 25/25 Q1009 NOSIG RMK A2980
RPLL,2025-08-22 19:00,RPLL 221900Z VRB02KT 9999 FEW025 BKN100 25/25 Q1009 NOSIG RMK A2980
RPLL,2025-08-22 20:00,RPLL 222000Z 21004KT 140V250 9999 -RA SCT022 OVC090 25/25 Q1009 NOSIG RMK A2980
RPLL,2025-08-22 21:00,RPLL 222100Z 21003KT 160V240 9999 SCT023 BKN100 24/24 Q1009 NOSIG RMK A2980
RPLL,2025-08-22 22:00,RPLL 222200Z VRB02KT 9999 SCT023 BKN100 24/24 Q1009 NOSIG RMK A2980
RPLL,2025-08-22 23:00,RPLL 222300Z 25003KT 210V280 9999 FEW023 BKN100 25/24 Q1009 NOSIG RMK A2980
RPLL,2025-08-23 00:00,RPLL 230000Z 21003KT 170V270 9000 -RA FEW025 OVC100 26/24 Q1010 NOSIG RMK A2983
RPLL,2025-08-23 01:00,RPLL 230100Z 22005KT 190V250 9000 SCT025 BKN100 26/24 Q1010 NOSIG RMK A2983
RPLL,2025-08-23 02:00,RPLL 230200Z 31005KT 250V360 9999 SCT025 BKN100 28/25 Q1010 NOSIG RMK A2983
RPLL,2025-08-23 03:00,RPLL 230300Z 27005KT 230V310 9999 SCT025 BKN100 29/24 Q1010 NOSIG RMK A2983
RPLL,2025-08-23 04:00,RPLL 230400Z 27006KT 240V300 9999 SCT025 BKN100 28/25 Q1010 NOSIG RMK A2983
RPLL,2025-08-23 05:00,RPLL 230500Z 27009KT 8000 -RA SCT023 OVC090 27/25 Q1010 NOSIG RMK A2983
RPLL,2025-08-23 06:00,RPLL 230600Z 27006KT 240V300 9999 FEW025 BKN100 29/24 Q1009 NOSIG RMK A2980
RPLL,2025-08-23 07:00,RPLL 230700Z 27008KT 240V300 9999 SCT025 BKN100 29/25 Q1009 NOSIG RMK A2980
RPLL,2025-08-23 08:00,RPLL 230800Z 26010KT 9999 SCT025 29/24 Q1008 NOSIG RMK A2977
RPLL,2025-08-23 09:00,RPLL 230900Z 27010KT 9999 SCT025 BKN100 28/24 Q1008 NOSIG RMK A2977
RPLL,2025-08-23 10:00,RPLL 231000Z 26007KT 9999 -RA BKN025 BKN100 28/24 Q1009 NOSIG RMK A2980
RPLL,2025-08-23 11:00,RPLL 231100Z 26006KT 230V320 9999 SCT025 BKN100 28/24 Q1009 NOSIG RMK A2980
RPLL,2025-08-23 12:00,RPLL 231200Z 30003KT 230V350 9999 FEW025 SCT100 28/25 Q1009 NOSIG RMK A2980
RPLL,2025-08-23 13:00,RPLL 231300Z VRB02KT 9999 FEW025 SCT100 28/25 Q1010 NOSIG RMK A2983
RPLL,2025-08-23 14:00,RPLL 231400Z VRB02KT 9999 FEW025 SCT100 27/25 Q1011 NOSIG RMK A2985
RPLL,2025-08-23 15:00,RPLL 231500Z VRB01KT 9999 FEW025 BKN100 28/25 Q1011 NOSIG RMK A2985
RPLL,2025-08-23 16:00,RPLL 231600Z VRB02KT 9999 FEW025 BKN100 27/25 Q1010 NOSIG RMK A2985
RPLL,2025-08-23 17:00,RPLL 231700Z VRB02KT 9999 FEW025 BKN100 27/25 Q1010 NOSIG RMK A2983
RPLL,2025-08-23 18:00,RPLL 231800Z VRB02KT 9000 FEW025 BKN100 27/25 Q1010 NOSIG RMK A2983
RPLL,2025-08-23 19:00,RPLL 231900Z VRB01KT 9000 FEW025 BKN100 27/24 Q1010 NOSIG RMK A2983
RPLL,2025-08-23 20:00,RPLL 232000Z 00000KT 9999 FEW025 BKN100 26/25 Q1009 NOSIG RMK A2980
RPLL,2025-08-23 21:00,RPLL 232100Z 23002KT 9999 FEW025 BKN100 26/25 Q1010 NOSIG RMK A2983
RPLL,2025-08-23 22:00,RPLL 232200Z VRB02KT 9999 FEW025 BKN100 27/25 Q1009 NOSIG RMK A2980
RPLL,2025-08-23 23:00,RPLL 232300Z VRB02KT 9999 FEW025 BKN100 27/25 Q1010 NOSIG RMK A2983
RPLL,2025-08-24 00:00,RPLL 240000Z VRB02KT 9999 FEW025 BKN100 28/24 Q1010 NOSIG RMK A2983
RPLL,2025-08-24 01:00,RPLL 240100Z VRB02KT 9999 FEW025 BKN100 30/25 Q1011 NOSIG RMK A2985
RPLL,2025-08-24 02:00,RPLL 240200Z 26004KT 190V310 9999 FEW025 SCT100 30/25 Q1011 NOSIG RMK A2985
RPLL,2025-08-24 03:00,RPLL 240300Z 28006KT 9999 SCT025 31/25 Q1011 NOSIG RMK A2985
RPLL,2025-08-24 04:00,COR RPLL 240400Z 29008KT 9999 SCT025 31/24 Q1010 NOSIG RMK A2983
RPLL,2025-08-24 05:00,RPLL 240500Z 31009KT 9999 FEW025 SCT100 31/24 Q1009 NOSIG RMK A2980
RPLL,2025-08-24 06:00,RPLL 240600Z 32007KT 250V360 9999 FEW025 32/23 Q1008 NOSIG RMK A2977
RPLL,2025-08-24 06:42,RPLL 240642Z 07016KT 9000 -TSRA FEW022CB SCT023 BKN100 26/24 Q1009 TEMPO 5000 TSRA RMK A2980 CB N-NE/OHD
RPLL,2025-08-24 07:00,RPLL 240700Z 04010KT 9000 -TSRA FEW022CB SCT023 OVC100 26/24 Q1009 NOSIG RMK A2980 CB N-NE/OHD
RPLL,2025-08-24 08:00,RPLL 240800Z 01005KT 9999 -RA SCT023 OVC100 26/23 Q1008 RETS NOSIG RMK A2977
RPLL,2025-08-24 09:00,RPLL 240900Z VRB02KT 9999 SCT023 OVC100 27/25 Q1008 NOSIG RMK A2977
RPLL,2025-08-24 10:00,RPLL 241000Z VRB02KT 9999 FEW025 BKN100 27/24 Q1008 NOSIG RMK A2977
RPLL,2025-08-24 11:00,RPLL 241100Z VRB02KT 9999 FEW025 BKN100 27/25 Q1008 NOSIG RMK A2977
RPLL,2025-08-24 12:00,RPLL 241200Z VRB01KT 9000 FEW025 BKN150 27/25 Q1009 NOSIG RMK A2980
RPLL,2025-08-24 13:00,RPLL 241300Z VRB02KT 9000 FEW025 BKN150 27/25 Q1010 NOSIG RMK A2983
RPLL,2025-08-24 14:00,RPLL 241400Z 08003KT 9999 FEW025 SCT150 26/25 Q1010 NOSIG RMK A2983
RPLL,2025-08-24 15:00,RPLL 241500Z VRB01KT 9000 FEW025 27/25 Q1010 NOSIG RMK A2983
RPLL,2025-08-24 16:00,RPLL 241600Z VRB02KT 9999 FEW025 26/25 Q1010 NOSIG RMK A2983
RPLL,2025-08-24 17:00,RPLL 241700Z 28002KT 9000 FEW025 26/25 Q1010 NOSIG RMK A2983
RPLL,2025-08-24 18:00,RPLL 241800Z 33004KT 8000 FEW025 BKN100 26/26 Q1009 NOSIG RMK A2980
RPLL,2025-08-24 19:00,RPLL 241900Z 06004KT 7000 SCT025 BKN100 26/25 Q1008 NOSIG RMK A2977
RPLL,2025-08-24 20:00,RPLL 242000Z VRB01KT 8000 SCT025 BKN100 26/25 Q1008 NOSIG RMK A2977
RPLL,2025-08-24 21:00,RPLL 242100Z VRB02KT 9000 FEW025 SCT100 25/25 Q1008 NOSIG RMK A2977
RPLL,2025-08-24 22:00,RPLL 242200Z VRB03KT 9000 FEW025 26/25 Q1008 NOSIG RMK A2977
RPLL,2025-08-24 23:00,RPLL 242300Z VRB04KT 9000 FEW025 26/25 Q1009 NOSIG RMK A2980
RPLL,2025-08-25 00:00,COR RPLL 250000Z VRB05KT 9000 FEW025 27/24 Q1009 NOSIG RMK A2980
RPLL,2025-08-25 01:00,COR RPLL 250100Z 31004KT 270V350 9999 FEW025 28/24 Q1010 NOSIG RMK A2983
RPLL,2025-08-25 02:00,RPLL 250200Z 30005KT 240V350 9000 FEW025 SCT100 29/24 Q1010 NOSIG RMK A2983
RPLL,2025-08-25 03:00,RPLL 250300Z 29005KT 260V330 8000 FEW025 SCT100 29/25 Q1009 NOSIG RMK A2980
RPLL,2025-08-25 04:00,COR RPLL 250400Z 28007KT 240V300 8000 FEW025 BKN100 29/24 Q1009 NOSIG RMK A2980
RPLL,2025-08-25 05:00,RPLL 250500Z 28006KT 8000 FEW025 BKN100 29/26 Q1008 NOSIG RMK A2977
RPLL,2025-08-25 06:00,RPLL 250600Z 28007G17KT 210V320 8000 SCT025 BKN100 29/25 Q1008 NOSIG RMK A2977
RPLL,2025-08-25 07:00,RPLL 250700Z 30005KT 250V050 9000 SCT025 BKN100 29/26 Q1007 NOSIG RMK A2974
RPLL,2025-08-25 07:12,RPLL 250712Z VRB06KT 9000 -SHRA SCT023 BKN100 28/26 Q1007 NOSIG RMK A2974
RPLL,2025-08-25 08:00,RPLL 250800Z VRB04KT 9000 SCT023 BKN100 29/26 Q1007 NOSIG RMK A2974
RPLL,2025-08-25 09:00,RPLL 250900Z 31005KT 260V340 9999 FEW025 BKN100 29/24 Q1007 NOSIG RMK A2974
RPLL,2025-08-25 10:00,RPLL 251000Z 31005KT 280V340 9999 FEW025 BKN100 28/24 Q1008 NOSIG RMK A2977
RPLL,2025-08-25 11:00,RPLL 251100Z 32007KT 280V340 9999 FEW025 BKN100 28/24 Q1008 NOSIG RMK A2977
RPLL,2025-08-25 12:00,RPLL 251200Z 36008KT 310V080 9999 FEW025 BKN100 27/23 Q1009 NOSIG RMK A2980
RPLL,2025-08-25 13:00,RPLL 251300Z 34008KT 310V050 9999 FEW025 BKN100 27/23 Q1009 NOSIG RMK A2980
RPLL,2025-08-25 14:00,RPLL 251400Z 34006KT 310V020 8000 -RA SCT023 OVC090 26/25 Q1010 TEMPO 5000 RA RMK A2983
RPLL,2025-08-25 14:24,RPLL 251424Z 35005KT 310V040 5000 RA SCT023 OVC090 26/25 Q1010 TEMPO 3000 +RA RMK A2983
RPLL,2025-08-25 15:00,RPLL 251500Z 01006G16KT 3000 +RA SCT022 OVC090 25/25 Q1010 NOSIG RMK A2983
RPLL,2025-08-25 16:00,RPLL 251600Z 34007G18KT 310V090 5000 RA SCT023 OVC090 25/24 Q1009 RERA NOSIG RMK A2980
RPLL,2025-08-25 17:00,RPLL 251700Z 35006KT 9999 -RA FEW025 BKN100 25/24 Q1008 RERA TEMPO 7000 RMK A2977
RPLL,2025-08-25 18:00,COR RPLL 251800Z 33006KT 290V350 9999 -RA FEW025 BKN100 25/24 Q1008 NOSIG RMK A2977
RPLL,2025-08-25 19:00,COR RPLL 251900Z 31005KT 270V350 9999 -RA FEW025 OVC100 25/24 Q1007 NOSIG RMK A2974
RPLL,2025-08-25 20:00,RPLL 252000Z 33005KT 300V360 9999 -RA FEW023 OVC100 25/25 Q1007 NOSIG RMK A2974
RPLL,2025-08-25 21:00,RPLL 252100Z 02005KT 360V110 9999 -RA FEW025 OVC100 26/25 Q1007 NOSIG RMK A2974
RPLL,2025-08-25 22:00,RPLL 252200Z 36004KT 260V060 9999 FEW025 BKN100 26/24 Q1008 NOSIG RMK A2977
RPLL,2025-08-25 23:00,RPLL 252300Z 33003KT 290V010 9999 FEW025 OVC100 26/24 Q1008 NOSIG RMK A2977
RPLL,2025-08-26 00:00,RPLL 260000Z 32004KT 270V010 9999 FEW025 BKN100 27/24 Q1008 NOSIG RMK A2977
RPLL,2025-08-26 01:00,RPLL 260100Z 01005KT 9000 FEW025 BKN100 27/25 Q1009 NOSIG RMK A2980
RPLL,2025-08-26 02:00,RPLL 260200Z VRB03KT 9000 FEW025 BKN100 28/25 Q1008 NOSIG RMK A2977
RPLL,2025-08-26 03:00,RPLL 260300Z 29005KT 260V350 9999 FEW025 BKN100 29/24 Q1008 NOSIG RMK A2977
RPLL,2025-08-26 04:00,RPLL 260400Z 28006KT 240V320 9999 FEW025 BKN100 29/25 Q1008 NOSIG RMK A2977
RPLL,2025-08-26 05:00,RPLL 260500Z 26006KT 9999 FEW025 BKN100 28/24 Q1007 NOSIG RMK A2974
RPLL,2025-08-26 06:00,RPLL 260600Z 25008KT 9999 -SHRA FEW025 BKN100 28/23 Q1006 NOSIG RMK A2971
RPLL,2025-08-26 07:00,RPLL 260700Z 25007KT 9999 FEW025 BKN100 28/25 Q1006 NOSIG RMK A2971
RPLL,2025-08-26 08:00,RPLL 260800Z 23008KT 200V260 9999 -SHRA FEW025 OVC100 27/26 Q1006 NOSIG RMK A2971
RPLL,2025-08-26 09:00,RPLL 260900Z 25008KT 210V270 9999 SCT023 OVC100 27/26 Q1006 NOSIG RMK A2971
RPLL,2025-08-26 10:00,RPLL 261000Z 23006KT 9999 SCT023 OVC100 27/25 Q1007 NOSIG RMK A2974
RPLL,2025-08-26 11:00,RPLL 261100Z 23007KT 9999 FEW023 BKN100 27/25 Q1007 NOSIG RMK A2974
RPLL,2025-08-26 12:00,RPLL 261200Z 23006KT 9999 FEW025 BKN100 27/25 Q1007 NOSIG RMK A2974
RPLL,2025-08-26 13:00,RPLL 261300Z 23004KT 200V290 9999 SCT023 BKN100 27/25 Q1007 NOSIG RMK A2974
RPLL,2025-08-26 14:00,RPLL 261400Z 22003KT 9999 SCT023 BKN100 27/25 Q1007 NOSIG RMK A2974
RPLL,2025-08-26 15:00,RPLL 261500Z VRB02KT 9999 SCT023 BKN100 27/25 Q1007 NOSIG RMK A2974
RPLL,2025-08-26 16:00,RPLL 261600Z VRB02KT 9999 FEW025 BKN100 26/25 Q1006 NOSIG RMK A2971
RPLL,2025-08-26 17:00,RPLL 261700Z 23004KT 9999 FEW025 BKN100 26/25 Q1005 NOSIG RMK A2968
RPLL,2025-08-26 18:00,RPLL 261800Z 22003KT 180V240 9999 FEW025 BKN100 26/25 Q1005 NOSIG RMK A2968
RPLL,2025-08-26 19:00,RPLL 261900Z VRB02KT 8000 -RA SCT022 OVC090 25/25 Q1005 NOSIG RMK A2968
RPLL,2025-08-26 20:00,RPLL 262000Z 00000KT 8000 -RA SCT022 OVC090 25/25 Q1005 NOSIG RMK A2968
RPLL,2025-08-26 21:00,RPLL 262100Z 27003KT 230V320 9000 -RA SCT022 OVC090 25/25 Q1005 NOSIG RMK A2968
RPLL,2025-08-26 22:00,RPLL 262200Z VRB01KT 9999 FEW025 BKN100 25/25 Q1005 NOSIG RMK A2968
RPLL,2025-08-26 23:00,RPLL 262300Z VRB01KT 9999 FEW025 SCT100 26/25 Q1005 NOSIG RMK A2968
RPLL,2025-08-27 00:00,RPLL 270000Z VRB01KT 9999 FEW025 29/24 Q1006 NOSIG RMK A2971
RPLL,2025-08-27 01:00,RPLL 270100Z 24003KT 170V310 9999 SCT025 29/23 Q1006 NOSIG RMK A2971
RPLL,2025-08-27 02:00,RPLL 270200Z 27005KT 220V360 9999 SCT025 29/24 Q1005 NOSIG RMK A2968
RPLL,2025-08-27 03:00,RPLL 270300Z 29007KT 9999 SCT025 29/26 Q1005 NOSIG RMK A2968
RPLL,2025-08-27 04:00,RPLL 270400Z 28008KT 250V310 9999 FEW025 30/25 Q1005 NOSIG RMK A2968
RPLL,2025-08-27 05:00,RPLL 270500Z 27009KT 230V310 9999 FEW025 BKN100 29/25 Q1004 NOSIG RMK A2965
RPLL,2025-08-27 05:18,RPLL 270518Z 22006KT 9000 -SHRA SCT023 BKN100 27/26 Q1004 NOSIG RMK A2965
RPLL,2025-08-27 06:00,RPLL 270600Z 26012KT 9999 FEW025 29/27 Q1004 NOSIG RMK A2965
RPLL,2025-08-27 07:00,RPLL 270700Z 26012KT 220V280 9999 FEW025 29/26 Q1003 NOSIG RMK A2962
RPLL,2025-08-27 08:00,RPLL 270800Z 27010KT 9999 FEW025 SCT100 29/26 Q1003 NOSIG RMK A2962
RPLL,2025-08-27 09:00,RPLL 270900Z 23008KT 9000 TS VCSH FEW022CB SCT023 BKN100 29/25 Q1003 TEMPO 4000 TSRA RMK A2962 CB/VCSH S/OHD
RPLL,2025-08-27 09:26,RPLL 270926Z 23005KT 8000 -TSRA FEW022CB SCT023 OVC090 27/26 Q1004 NOSIG RMK A2965 CB S/W/OHD
RPLL,2025-08-27 10:00,RPLL 271000Z 21005KT 160V250 9000 -RA FEW022CB SCT023 OVC090 27/27 Q1004 RETS NOSIG RMK A2965 CB N/E
RPLL,2025-08-27 10:35,RPLL 271035Z 11006KT 090V150 5000 TSRA FEW018CB BKN020 OVC080 26/26 Q1006 NOSIG RMK A2971 CB/OCNL LTG NE/NW/OHD
RPLL,2025-08-27 11:00,RPLL 271100Z VRB01KT 7000 -RA FEW020CB BKN023 OVC080 25/25 Q1006 RETS NOSIG RMK A2971 CB/OCNL LTG W-NE
RPLL,2025-08-27 12:00,RPLL 271200Z VRB01KT 9999 SCT023 OVC100 26/25 Q1006 NOSIG RMK A2971
RPLL,2025-08-27 13:00,RPLL 271300Z VRB02KT 9999 SCT025 BKN100 26/26 Q1006 NOSIG RMK A2971
RPLL,2025-08-27 14:00,RPLL 271400Z VRB02KT 9999 SCT025 BKN100 26/26 Q1007 NOSIG RMK A2974
RPLL,2025-08-27 15:00,RPLL 271500Z VRB02KT 9999 FEW025 SCT100 26/26 Q1006 NOSIG RMK A2971
RPLL,2025-08-27 16:00,RPLL 271600Z 12003KT 080V170 9999 FEW025 BKN150 27/26 Q1006 NOSIG RMK A2971
RPLL,2025-08-27 17:00,RPLL 271700Z 08004KT 9999 FEW025 BKN150 27/25 Q1005 NOSIG RMK A2968
RPLL,2025-08-27 18:00,RPLL 271800Z VRB02KT 9999 FEW025 SCT100 27/26 Q1005 NOSIG RMK A2968
RPLL,2025-08-27 19:00,RPLL 271900Z 08004KT 9999 FEW025 SCT100 27/26 Q1005 NOSIG RMK A2968
RPLL,2025-08-27 20:00,RPLL 272000Z VRB01KT 9999 FEW025 SCT100 27/26 Q1005 NOSIG RMK A2968
RPLL,2025-08-27 21:00,RPLL 272100Z VRB02KT 9999 FEW025 SCT100 27/26 Q1005 NOSIG RMK A2968
RPLL,2025-08-27 22:00,RPLL 272200Z 10004KT 9999 FEW025 SCT100 27/26 Q1005 NOSIG RMK A2968
RPLL,2025-08-27 23:00,RPLL 272300Z VRB02KT 9999 SCT025 BKN100 28/26 Q1006 NOSIG RMK A2971
RPLL,2025-08-28 00:00,RPLL 280000Z 10005KT 9999 FEW025 BKN100 29/25 Q1006 NOSIG RMK A2971
RPLL,2025-08-28 01:00,RPLL 280100Z 12005KT 070V190 9999 FEW025 BKN100 30/26 Q1006 NOSIG RMK A2971
RPLL,2025-08-28 02:00,RPLL 280200Z 12006KT 070V170 9999 FEW025 BKN100 30/25 Q1006 NOSIG RMK A2971
RPLL,2025-08-28 03:00,RPLL 280300Z 16006KT 100V210 9999 FEW025 BKN100 31/25 Q1006 NOSIG RMK A2971
RPLL,2025-08-28 04:00,RPLL 280400Z 15006KT 090V200 9999 FEW025 BKN100 32/25 Q1005 NOSIG RMK A2968
RPLL,2025-08-28 05:00,RPLL 280500Z 27007KT 240V310 9999 SCT025 BKN100 31/27 Q1004 NOSIG RMK A2965
RPLL,2025-08-28 06:00,COR RPLL 280600Z 26010KT 210V280 9999 FEW023CB SCT025 BKN100 30/26 Q1004 NOSIG RMK A2965 CB S
RPLL,2025-08-28 07:00,RPLL 280700Z 26007KT 9999 TS FEW023CB SCT025 BKN100 29/26 Q1004 TEMPO 5000 TSRA RMK A2965 CB S
RPLL,2025-08-28 08:00,RPLL 280800Z 22004KT 160V260 9999 TS VCSH FEW022CB SCT023 BKN100 29/26 Q1005 TEMPO 5000 TSRA RMK A2968 CB/VCSH N E
RPLL,2025-08-28 08:27,RPLL 280827Z VRB01KT 9000 -SHRA FEW022CB SCT023 OVC090 27/26 Q1005 RETS NOSIG RMK A2968 CB N
RPLL,2025-08-28 09:00,RPLL 280900Z VRB02KT 9999 FEW022CB SCT023 BKN100 28/26 Q1005 NOSIG RMK A2968 CB N
RPLL,2025-08-28 10:00,RPLL 281000Z 08003KT 010V110 9999 FEW022CB SCT023 BKN100 28/26 Q1006 NOSIG RMK A2971 CB SW W
RPLL,2025-08-28 11:00,RPLL 281100Z 30004KT 250V040 9999 SCT022CB BKN100 27/27 Q1006 NOSIG RMK A2971 CB/OCNL LTG W-NW
RPLL,2025-08-28 12:00,RPLL 281200Z VRB02KT 9000 -SHRA FEW023CB SCT025 BKN100 28/26 Q1007 RMK A2974 CB SW
RPLL,2025-08-28 13:00,RPLL 281300Z VRB02KT 9999 FEW023 SCT100 28/26 Q1008 NOSIG RMK A2977
RPLL,2025-08-28 14:00,RPLL 281400Z VRB02KT 9000 -RA FEW023 BKN100 27/26 Q1008 NOSIG RMK A2977
RPLL,2025-08-28 15:00,RPLL 281500Z VRB01KT 9999 FEW023 BKN150 27/26 Q1008 NOSIG RMK A2977
RPLL,2025-08-28 16:00,RPLL 281600Z VRB01KT 9999 FEW023 BKN100 27/26 Q1007 NOSIG RMK A2974
RPLL,2025-08-28 17:00,RPLL 281700Z 11003KT 080V160 9999 FEW025 BKN150 27/26 Q1007 NOSIG RMK A2974
RPLL,2025-08-28 18:00,RPLL 281800Z VRB02KT 9999 FEW025 BKN150 27/26 Q1006 NOSIG RMK A2971
RPLL,2025-08-28 19:00,RPLL 281900Z 22003KT 9999 BKN023 OVC100 27/27 Q1007 NOSIG RMK A2974
RPLL,2025-08-28 20:00,RPLL 282000Z VRB01KT 9999 SCT023 BKN100 27/26 Q1007 NOSIG RMK A2974
RPLL,2025-08-28 21:00,RPLL 282100Z VRB02KT 9000 FEW025 BKN100 27/26 Q1007 NOSIG RMK A2974
RPLL,2025-08-28 22:00,RPLL 282200Z VRB02KT 9000 SCT025 BKN100 27/27 Q1007 NOSIG RMK A2974
RPLL,2025-08-28 23:00,RPLL 282300Z VRB01KT 9999 SCT025 BKN100 27/27 Q1008 NOSIG RMK A2977
RPLL,2025-08-29 00:00,RPLL 290000Z VRB01KT 7000 FEW025 BKN100 28/27 Q1009 NOSIG RMK A2980
RPLL,2025-08-29 01:00,RPLL 290100Z 20003KT 150V260 7000 SCT025 BKN100 29/26 Q1009 NOSIG RMK A2980
RPLL,2025-08-29 02:00,RPLL 290200Z VRB02KT 8000 SCT025 BKN100 30/26 Q1009 NOSIG RMK A2980
RPLL,2025-08-29 03:00,RPLL 290300Z VRB06KT 8000 SCT025 BKN100 30/26 Q1009 NOSIG RMK A2980
RPLL,2025-08-29 04:00,RPLL 290400Z 27009KT 8000 SCT025 BKN100 30/26 Q1009 NOSIG RMK A2980
RPLL,2025-08-29 05:00,RPLL 290500Z 26012KT 210V290 8000 SCT025 BKN150 29/27 Q1008 NOSIG RMK A2977
RPLL,2025-08-29 06:00,RPLL 290600Z 27007KT 230V310 8000 FEW023CB SCT025 BKN100 29/25 Q1007 NOSIG RMK A2974 CB S-SW
RPLL,2025-08-29 07:00,RPLL 290700Z 26009KT 8000 VCTS FEW023CB SCT025 BKN100 29/25 Q1007 NOSIG RMK A2974 CB S-SW
RPLL,2025-08-29 08:00,RPLL 290800Z 25003KT 200V320 8000 -SHRA FEW023CB SCT025 BKN100 28/26 Q1007 NOSIG RMK A2974 CB S
RPLL,2025-08-29 09:00,RPLL 290900Z 27004KT 240V300 8000 FEW023CB SCT025 BKN100 28/26 Q1008 NOSIG RMK A2977 CB SW
RPLL,2025-08-29 10:00,RPLL 291000Z VRB01KT 9000 FEW025 SCT100 28/26 Q1008 NOSIG RMK A2977
RPLL,2025-08-29 11:00,RPLL 291100Z VRB01KT 9999 FEW025 SCT100 28/26 Q1009 NOSIG RMK A2980
RPLL,2025-08-29 12:00,RPLL 291200Z VRB02KT 9999 SCT025 BKN150 28/26 Q1010 NOSIG RMK A2983
RPLL,2025-08-29 13:00,RPLL 291300Z VRB02KT 9999 SCT025 28/25 Q1010 NOSIG RMK A2983
RPLL,2025-08-29 14:00,RPLL 291400Z VRB02KT 9999 SCT025 BKN150 28/26 Q1011 NOSIG RMK A2985
RPLL,2025-08-29 15:00,RPLL 291500Z 00000KT 9999 FEW025 BKN100 28/26 Q1011 NOSIG RMK A2985
RPLL,2025-08-29 16:00,RPLL 291600Z 11003KT 090V170 9000 -RA SCT023 OVC090 28/27 Q1010 NOSIG RMK A2983
RPLL,2025-08-29 17:00,RPLL 291700Z 10002KT 9000 -RA SCT023 BKN100 27/27 Q1010 NOSIG RMK A2983
RPLL,2025-08-29 18:00,RPLL 291800Z VRB01KT 9000 SCT023 BKN100 27/27 Q1009 NOSIG RMK A2980
RPLL,2025-08-29 19:00,RPLL 291900Z 00000KT 8000 FEW023 BKN100 27/27 Q1009 NOSIG RMK A2980
RPLL,2025-08-29 20:00,RPLL 292000Z 00000KT 8000 FEW025 SCT150 27/27 Q1009 NOSIG RMK A2980
RPLL,2025-08-29 21:00,RPLL 292100Z VRB01KT 7000 FEW025 27/27 Q1009 NOSIG RMK A2980
RPLL,2025-08-29 22:00,RPLL 292200Z VRB02KT 8000 FEW025 27/27 Q1009 NOSIG RMK A2980
RPLL,2025-08-29 23:00,RPLL 292300Z VRB02KT 7000 FEW025 28/27 Q1010 NOSIG RMK A2983
RPLL,2025-08-30 00:00,RPLL 300000Z VRB01KT 9000 SCT025 30/26 Q1011 NOSIG RMK A2985
RPLL,2025-08-30 01:00,RPLL 300100Z 21004KT 140V270 9999 SCT023 29/26 Q1011 NOSIG RMK A2985
RPLL,2025-08-30 02:00,RPLL 300200Z VRB03KT 9999 BKN025 31/26 Q1011 NOSIG RMK A2985
RPLL,2025-08-30 03:00,RPLL 300300Z VRB04KT 9999 SCT025 33/25 Q1010 NOSIG RMK A2983
RPLL,2025-08-30 04:00,RPLL 300400Z VRB03KT 9999 SCT025 33/24 Q1009 NOSIG RMK A2980
RPLL,2025-08-30 05:00,RPLL 300500Z 27008KT 240V300 9999 FEW025 SCT100 32/26 Q1008 NOSIG RMK A2977
RPLL,2025-08-30 06:00,RPLL 300600Z 26012KT 210V300 9999 TS VCSH FEW023CB SCT025 BKN100 30/26 Q1007 TEMPO 7000 -TSRA RMK A2974 CB OHD/N/SW  VCSH SW
RPLL,2025-08-30 07:00,RPLL 300700Z 26009KT 8000 -TSRA FEW023CB SCT025 BKN100 29/26 Q1008 NOSIG RMK A2977 CB N
RPLL,2025-08-30 08:00,RPLL 300800Z 23007KT 180V260 9000 FEW023CB SCT025 BKN150 29/25 Q1008 RETS NOSIG RMK A2977 CB N
RPLL,2025-08-30 09:00,RPLL 300900Z 22004KT 160V270 9000 FEW023CB SCT025 BKN150 29/25 Q1008 NOSIG RMK A2977 CB SE
RPLL,2025-08-30 10:00,RPLL 301000Z 16003KT 120V210 9000 -SHRA FEW023CB SCT025 BKN150 28/26 Q1009 NOSIG RMK A2980 CB SE-S
RPLL,2025-08-30 11:00,RPLL 301100Z 13003KT 090V170 9000 -RA FEW025 BKN150 28/27 Q1009 NOSIG RMK A2980
RPLL,2025-08-30 12:00,RPLL 301200Z 14003KT 080V190 9999 FEW025 SCT100 28/27 Q1010 NOSIG RMK A2983
RPLL,2025-08-30 13:00,RPLL 301300Z VRB02KT 9999 FEW025 27/26 Q1010 NOSIG RMK A2983
RPLL,2025-08-30 14:00,RPLL 301400Z 11003KT 070V140 9999 FEW025 SCT100 28/26 Q1011 NOSIG RMK A2985
RPLL,2025-08-30 15:00,RPLL 301500Z VRB02KT 9999 FEW025 BKN100 28/26 Q1010 NOSIG RMK A2983
RPLL,2025-08-30 16:00,RPLL 301600Z VRB02KT 9000 FEW025 BKN100 27/27 Q1010 NOSIG RMK A2983
RPLL,2025-08-30 17:00,RPLL 301700Z VRB01KT 9000 FEW025 SCT100 27/26 Q1009 NOSIG RMK A2980
RPLL,2025-08-30 18:00,RPLL 301800Z 17003KT 140V200 9000 FEW025 27/26 Q1008 NOSIG RMK A2977
RPLL,2025-08-30 19:00,RPLL 301900Z 19003KT 160V240 9000 FEW025 27/26 Q1008 NOSIG RMK A2977
RPLL,2025-08-30 20:00,RPLL 302000Z VRB01KT 9000 FEW025 27/26 Q1009 NOSIG RMK A2980
RPLL,2025-08-30 21:00,RPLL 302100Z VRB02KT 9000 FEW025 27/26 Q1009 NOSIG RMK A2980
RPLL,2025-08-30 22:00,RPLL 302200Z VRB01KT 9000 FEW025 BKN100 27/26 Q1009 NOSIG RMK A2980
RPLL,2025-08-30 23:00,RPLL 302300Z 23004KT 9000 FEW025 BKN100 27/26 Q1009 NOSIG RMK A2980
RPLL,2025-08-31 00:00,RPLL 310000Z 25005KT 9000 FEW025 BKN100 28/26 Q1009 NOSIG RMK A2980
RPLL,2025-08-31 01:00,RPLL 310100Z 27005KT 9999 FEW025 BKN100 29/27 Q1009 NOSIG RMK A2980
RPLL,2025-08-31 02:00,RPLL 310200Z 28004KT 9000 VCSH FEW025 BKN100 29/26 Q1009 NOSIG RMK A2980 VCSH NE/E
RPLL,2025-08-31 03:00,COR RPLL 310300Z 27005KT 130V300 9000 RASH FEW025 OVC100 28/27 Q1009 NOSIG RMK A2980
RPLL,2025-08-31 04:00,RPLL 310400Z 27007KT 240V310 8000 FEW023 BKN100 30/27 Q1008 NOSIG RMK A2977
RPLL,2025-08-31 05:00,COR RPLL 310500Z 27010KT 240V300 9000 FEW025 BKN100 30/27 Q1007 NOSIG RMK A2974
RPLL,2025-08-31 05:32,RPLL 310532Z 26011KT 230V300 9000 -SHRA SCT023 OVC100 28/27 Q1007 NOSIG RMK A2974
RPLL,2025-08-31 06:00,RPLL 310600Z 26011KT 9000 -SHRA SCT023 OVC100 28/27 Q1007 TEMPO 5000 TSRA RMK A2974
RPLL,2025-08-31 06:43,RPLL 310643Z 26004KT 210V300 7000 -TSRA FEW022CB SCT023 OVC090 27/27 Q1007 TEMPO 5000 TSRA RMK A2974 CB N-E/OHD
RPLL,2025-08-31 07:00,RPLL 310700Z VRB02KT 5000 TSRA FEW022CB SCT023 OVC090 27/27 Q1007 NOSIG RMK A2974 CB N-E/OHD
RPLL,2025-08-31 08:00,RPLL 310800Z 25006KT 9000 -RA FEW022CB SCT023 OVC090 27/26 Q1007 RETSRA NOSIG RMK A2974 CB W
RPLL,2025-08-31 09:00,RPLL 310900Z 25006KT 9999 SCT023 OVC100 27/26 Q1006 NOSIG RMK A2971
RPLL,2025-08-31 10:00,RPLL 311000Z 22003KT 180V250 9999 SCT023 OVC100 27/26 Q1007 NOSIG RMK A2974
RPLL,2025-08-31 11:00,RPLL 311100Z VRB02KT 9999 SCT022 OVC090 27/26 Q1008 NOSIG RMK A2977
RPLL,2025-08-31 12:00,RPLL 311200Z VRB02KT 9999 FEW025 SCT100 27/26 Q1008 NOSIG RMK A2977
RPLL,2025-08-31 13:00,RPLL 311300Z 00000KT 9999 FEW025 27/26 Q1008 NOSIG RMK A2977
RPLL,2025-08-31 14:00,RPLL 311400Z 18003KT 150V220 9999 SCT023 SCT100 27/26 Q1008 NOSIG RMK A2977
RPLL,2025-08-31 15:00,RPLL 311500Z VRB02KT 9999 SCT025 BKN100 27/26 Q1008 NOSIG RMK A2977
RPLL,2025-08-31 16:00,RPLL 311600Z VRB02KT 9999 FEW025 SCT100 26/26 Q1008 NOSIG RMK A2977
RPLL,2025-08-31 17:00,RPLL 311700Z VRB01KT 9999 FEW023CB SCT025 BKN100 26/26 Q1007 NOSIG RMK A2974 CB W-NW
RPLL,2025-08-31 18:00,RPLL 311800Z 29007KT 260V320 6000 -TSRA FEW023CB SCT025 OVC090 25/25 Q1007 TEMPO 9000 RMK A2974 CB/OCNL LTG SW-NW  OHD
RPLL,2025-08-31 19:00,RPLL 311900Z 31003KT 280V360 7000 -RA FEW022CB SCT023 OVC090 25/25 Q1006 RETS NOSIG RMK A2971 CB/OCNL LTG N
RPLL,2025-08-31 20:00,RPLL 312000Z 33003KT 280V010 9000 -RA BKN022 OVC090 26/26 Q1007 NOSIG RMK A2974
RPLL,2025-08-31 21:00,COR RPLL 312100Z 02008KT 8000 -RA BKN022 OVC090 26/26 Q1008 NOSIG RMK A2977
RPLL,2025-08-31 22:00,RPLL 312200Z 32006KT 290V350 8000 -RA SCT023 OVC090 26/25 Q1007 NOSIG RMK A2974
RPLL,2025-08-31 23:00,RPLL 312300Z 03005KT 360V080 9000 -RA SCT023 OVC090 26/25 Q1008 NOSIG RMK A2977
RPLL,2025-09-01 00:00,RPLL 010000Z 02005KT 360V060 8000 -RA SCT023 OVC090 26/25 Q1008 NOSIG RMK A2977
RPLL,2025-09-01 01:00,RPLL 010100Z 34004KT 310V030 8000 -RA SCT023 OVC090 26/26 Q1008 NOSIG RMK A2977
RPLL,2025-09-01 02:00,RPLL 010200Z 32004KT 270V020 9000 -RA SCT023 OVC090 27/26 Q1008 NOSIG RMK A2977
RPLL,2025-09-01 03:00,RPLL 010300Z 32003KT 260V030 9999 SCT023 OVC100 28/26 Q1007 NOSIG RMK A2974
RPLL,2025-09-01 04:00,RPLL 010400Z 27006KT 240V350 9999 SCT025 OVC100 28/26 Q1007 NOSIG RMK A2974
RPLL,2025-09-01 05:00,RPLL 010500Z VRB04KT 9999 SCT025 OVC100 28/25 Q1006 NOSIG RMK A2971
RPLL,2025-09-01 06:00,RPLL 010600Z 26006KT 9999 SCT025 BKN100 28/25 Q1006 NOSIG RMK A2971
RPLL,2025-09-01 07:00,RPLL 010700Z 27004KT 200V300 9999 SCT025 BKN100 28/26 Q1005 NOSIG RMK A2968
RPLL,2025-09-01 08:00,RPLL 010800Z 29005KT 250V330 9999 SCT025 BKN100 28/27 Q1005 NOSIG RMK A2968
RPLL,2025-09-01 09:00,RPLL 010900Z 26007KT 9999 SCT025 OVC100 28/26 Q1005 NOSIG RMK A2968
RPLL,2025-09-01 10:00,RPLL 011000Z 26006KT 9999 SCT025 OVC100 28/27 Q1006 NOSIG RMK A2971
RPLL,2025-09-01 11:00,RPLL 011100Z 26008KT 240V300 9999 -RA SCT022 OVC090 28/26 Q1006 NOSIG RMK A2971
RPLL,2025-09-01 12:00,RPLL 011200Z 27003KT 200V310 9000 -RA SCT022 OVC090 28/27 Q1007 NOSIG RMK A2974
RPLL,2025-09-01 12:20,RPLL 011220Z 28005KT 8000 -TSRA FEW020CB SCT022 OVC090 27/27 Q1007 TEMPO 5000 TSRA RMK A2974 CB OHD N E
RPLL,2025-09-01 13:00,RPLL 011300Z 10003KT 7000 -RA FEW020CB SCT022 OVC080 27/27 Q1008 TEMPO 5000 TSRA RMK A2974 CB/OCNL LTG SE
RPLL,2025-09-01 13:17,RPLL 011317Z 15004KT 090V200 2000 +TSRA FEW018CB SCT020 OVC070 26/26 Q1008 TEMPO 5000 TSRA RMK A2977 CB OHD/E-SE
RPLL,2025-09-01 14:00,RPLL 011400Z VRB01KT 5000 RA SCT020 OVC070 26/26 Q1008 RETSRA TEMPO 7000 -TSRA RMK A2977
RPLL,2025-09-01 15:00,RPLL 011500Z VRB02KT 8000 -RA SCT022 OVC080 26/26 Q1007 RERA NOSIG RMK A2974
RPLL,2025-09-01 16:00,RPLL 011600Z VRB01KT 9000 FEW023 BKN090 26/26 Q1007 NOSIG RMK A2974
RPLL,2025-09-01 17:00,RPLL 011700Z 10003KT 9999 FEW025 BKN100 26/26 Q1007 NOSIG RMK A2974
RPLL,2025-09-01 18:00,RPLL 011800Z VRB02KT 9999 FEW025 BKN100 26/26 Q1007 NOSIG RMK A2974
RPLL,2025-09-01 19:00,RPLL 011900Z VRB01KT 9000 -RA SCT023 OVC090 26/26 Q1007 NOSIG RMK A2974
RPLL,2025-09-01 20:00,RPLL 012000Z VRB01KT 9000 -RA SCT023 OVC090 26/26 Q1007 NOSIG RMK A2974
RPLL,2025-09-01 21:00,RPLL 012100Z VRB01KT 9999 FEW025 BKN100 26/26 Q1007 NOSIG RMK A2974
RPLL,2025-09-01 22:00,RPLL 012200Z 23003KT 210V270 9000 -RA SCT023 OVC090 26/26 Q1007 NOSIG RMK A2974
RPLL,2025-09-01 23:00,RPLL 012300Z VRB02KT 9000 -RA SCT023 OVC090 27/26 Q1008 NOSIG RMK A2977
RPLL,2025-09-02 00:00,RPLL 020000Z 27005KT 230V330 9999 FEW023 BKN100 27/26 Q1009 NOSIG RMK A2980
RPLL,2025-09-02 01:00,RPLL 020100Z 27006KT 240V300 9999 FEW023 BKN100 27/26 Q1009 NOSIG RMK A2980
RPLL,2025-09-02 02:00,RPLL 020200Z 26008KT 9999 FEW025 BKN100 28/26 Q1009 NOSIG RMK A2980
RPLL,2025-09-02 03:00,RPLL 020300Z 27013KT 9999 FEW025 BKN100 29/27 Q1008 NOSIG RMK A2977
RPLL,2025-09-02 04:00,RPLL 020400Z 28011KT 9999 FEW025 BKN100 29/27 Q1008 NOSIG RMK A2977
RPLL,2025-09-02 05:00,RPLL 020500Z 27012KT 9999 FEW025 SCT100 30/27 Q1007 NOSIG RMK A2974
RPLL,2025-09-02 06:00,RPLL 020600Z 27015KT 9999 FEW025 BKN100 29/27 Q1006 NOSIG RMK A2971
RPLL,2025-09-02 07:00,RPLL 020700Z 26015KT 9999 FEW023CB SCT025 BKN100 29/27 Q1006 NOSIG RMK A2971 CB E-S
RPLL,2025-09-02 08:00,RPLL 020800Z 26011KT 9999 SCT025 BKN100 29/27 Q1006 NOSIG RMK A2971
RPLL,2025-09-02 08:14,RPLL 020814Z 29009KT 9999 -SHRA SCT025 BKN100 28/26 Q1006 NOSIG RMK A2971
RPLL,2025-09-02 09:00,RPLL 020900Z 23006KT 200V260 9999 SCT023 BKN100 29/25 Q1007 NOSIG RMK A2974
RPLL,2025-09-02 10:00,RPLL 021000Z 23004KT 9999 -SHRA SCT023 BKN100 28/26 Q1008 NOSIG RMK A2977
RPLL,2025-09-02 11:00,RPLL 021100Z 23007KT 9999 FEW025 28/25 Q1008 NOSIG RMK A2977
RPLL,2025-09-02 12:00,RPLL 021200Z 26008KT 9999 FEW025 BKN100 27/26 Q1009 NOSIG RMK A2980
RPLL,2025-09-02 13:00,RPLL 021300Z 00000KT 9999 FEW025 SCT100 27/26 Q1009 NOSIG RMK A2980
RPLL,2025-09-02 14:00,RPLL 021400Z 00000KT 9999 FEW025 SCT100 27/26 Q1009 NOSIG RMK A2980
RPLL,2025-09-02 15:00,RPLL 021500Z VRB01KT 9999 FEW025 SCT100 27/26 Q1009 NOSIG RMK A2980
RPLL,2025-09-02 16:00,RPLL 021600Z VRB01KT 9999 FEW025 BKN100 27/26 Q1009 NOSIG RMK A2980
RPLL,2025-09-02 17:00,RPLL 021700Z VRB01KT 9999 FEW025 BKN150 27/26 Q1009 NOSIG RMK A2980
RPLL,2025-09-02 18:00,RPLL 021800Z VRB02KT 9999 FEW025 SCT150 27/26 Q1008 NOSIG RMK A2977
RPLL,2025-09-02 19:00,RPLL 021900Z 00000KT 9999 FEW025 BKN100 27/26 Q1008 NOSIG RMK A2977
RPLL,2025-09-02 20:00,COR RPLL 022000Z VRB02KT 9999 FEW025 BKN100 27/26 Q1008 NOSIG RMK A2977
RPLL,2025-09-02 21:00,RPLL 022100Z 00000KT 9999 FEW025 BKN100 26/25 Q1008 NOSIG RMK A2977
RPLL,2025-09-02 22:00,RPLL 022200Z 00000KT 9999 FEW025 BKN100 27/26 Q1008 NOSIG RMK A2977
RPLL,2025-09-02 23:00,RPLL 022300Z VRB01KT 9999 FEW025 BKN100 27/26 Q1009 NOSIG RMK A2980
RPLL,2025-09-03 00:00,RPLL 030000Z 24005KT 180V280 9999 FEW025 BKN100 28/26 Q1009 NOSIG RMK A2980
RPLL,2025-09-03 01:00,RPLL 030100Z 25008KT 180V330 9999 FEW025 SCT100 29/25 Q1010 NOSIG RMK A2983
RPLL,2025-09-03 02:00,RPLL 030200Z 27007KT 240V300 9999 SCT025 30/24 Q1009 NOSIG RMK A2980
RPLL,2025-09-03 03:00,RPLL 030300Z 29005KT 250V350 9999 FEW025 SCT100 31/25 Q1009 NOSIG RMK A2980
RPLL,2025-09-03 04:00,RPLL 030400Z 29007KT 9999 FEW025 SCT100 31/26 Q1009 NOSIG RMK A2980
RPLL,2025-09-03 05:00,RPLL 030500Z 28009KT 240V310 9999 FEW025 BKN100 31/26 Q1008 NOSIG RMK A2977
RPLL,2025-09-03 06:00,RPLL 030600Z 27012KT 9999 FEW023CB SCT025 BKN100 31/27 Q1007 NOSIG RMK A2974 CB SE
RPLL,2025-09-03 07:00,RPLL 030700Z 28010KT 9999 FEW023CB BKN100 30/26 Q1007 NOSIG RMK A2974 CB E
RPLL,2025-09-03 08:00,RPLL 030800Z 24010KT 9999 SCT025 BKN100 30/25 Q1007 NOSIG RMK A2974
RPLL,2025-09-03 09:00,RPLL 030900Z 26008KT 9999 FEW025 BKN100 29/25 Q1007 NOSIG RMK A2974
RPLL,2025-09-03 10:00,RPLL 031000Z 26008KT 9999 FEW025 BKN100 29/25 Q1007 NOSIG RMK A2974
RPLL,2025-09-03 11:00,RPLL 031100Z 26006KT 240V300 9999 FEW025 BKN100 29/25 Q1008 NOSIG RMK A2977
RPLL,2025-09-03 12:00,RPLL 031200Z 24005KT 200V270 9999 FEW025 BKN100 29/25 Q1009 NOSIG RMK A2980
RPLL,2025-09-03 13:00,RPLL 031300Z 26008KT 9999 FEW025 BKN100 28/26 Q1009 NOSIG RMK A2980
RPLL,2025-09-03 14:00,RPLL 031400Z 27004KT 240V310 9999 FEW025 SCT100 28/26 Q1010 NOSIG RMK A2983
RPLL,2025-09-03 15:00,RPLL 031500Z 29003KT 260V330 9999 FEW025 SCT100 28/26 Q1010 NOSIG RMK A2983
RPLL,2025-09-03 16:00,RPLL 031600Z VRB03KT 9999 FEW025 28/26 Q1010 NOSIG RMK A2983
RPLL,2025-09-03 17:00,RPLL 031700Z VRB02KT 9999 FEW025 SCT100 28/26 Q1009 NOSIG RMK A2980
RPLL,2025-09-03 18:00,RPLL 031800Z VRB01KT 9999 SCT025 BKN100 27/26 Q1009 NOSIG RMK A2980
RPLL,2025-09-03 19:00,RPLL 031900Z VRB02KT 9999 FEW025 BKN100 27/26 Q1008 NOSIG RMK A2977
RPLL,2025-09-03 20:00,RPLL 032000Z VRB02KT 9999 FEW025 BKN100 27/25 Q1008 NOSIG RMK A2977
RPLL,2025-09-03 21:00,RPLL 032100Z VRB02KT 9999 FEW025 27/25 Q1008 NOSIG RMK A2977
RPLL,2025-09-03 22:00,RPLL 032200Z 00000KT 9999 FEW025 27/25 Q1009 NOSIG RMK A2980
RPLL,2025-09-03 23:00,RPLL 032300Z VRB02KT 9999 FEW025 28/26 Q1009 NOSIG RMK A2980
RPLL,2025-09-04 00:00,RPLL 040000Z 25003KT 190V330 9999 FEW025 SCT100 30/26 Q1010 NOSIG RMK A2983
RPLL,2025-09-04 01:00,RPLL 040100Z 27007KT 240V310 9999 FEW025 SCT100 30/26 Q1010 NOSIG RMK A2983
RPLL,2025-09-04 02:00,RPLL 040200Z 27012KT 9999 FEW025 SCT100 30/26 Q1010 NOSIG RMK A2983
RPLL,2025-09-04 03:00,RPLL 040300Z 27014KT 9999 FEW025 SCT100 30/27 Q1009 NOSIG RMK A2980
RPLL,2025-09-04 04:00,RPLL 040400Z 27014KT 9999 FEW023CB SCT100 31/25 Q1009 NOSIG RMK A2980 CB E
RPLL,2025-09-04 05:00,RPLL 040500Z 28013KT 9999 FEW025 31/26 Q1007 NOSIG RMK A2974
RPLL,2025-09-04 06:00,RPLL 040600Z 27012KT 9999 FEW025 SCT100 31/26 Q1007 NOSIG RMK A2974
RPLL,2025-09-04 07:00,RPLL 040700Z 16006KT 9999 SCT017 BKN080 29/24 Q1009 RMK A2980
RPLL,2025-09-04 08:00,RPLL 040800Z 26010KT 9999 SCT025 BKN100 30/26 Q1007 NOSIG RMK A2971
RPLL,2025-09-04 09:00,RPLL 040900Z 26016KT 9999 SCT025 BKN100 29/26 Q1007 NOSIG RMK A2974
RPLL,2025-09-04 10:00,RPLL 041000Z 25009KT 9999 SCT025 BKN100 29/25 Q1008 NOSIG RMK A2977
RPLL,2025-09-04 11:00,RPLL 041100Z 24005KT 9999 SCT025 BKN100 29/25 Q1008 NOSIG RMK A2977
RPLL,2025-09-04 12:00,RPLL 041200Z 23006KT 190V250 9999 SCT025 BKN100 29/25 Q1009 NOSIG RMK A2980
RPLL,2025-09-04 13:00,RPLL 041300Z 23006KT 190V270 9999 SCT025 BKN100 28/25 Q1009 NOSIG RMK A2980
RPLL,2025-09-04 13:30,RPLL 041330Z 25008KT 9000 -RA SCT023 BKN090 28/26 Q1009 NOSIG RMK A2980
RPLL,2025-09-04 14:00,RPLL 041400Z 26005KT 9000 -RA SCT023 OVC090 26/25 Q1009 NOSIG RMK A2980
RPLL,2025-09-04 15:00,RPLL 041500Z VRB02KT 9999 SCT025 BKN150 26/26 Q1009 NOSIG RMK A2980
RPLL,2025-09-04 16:00,RPLL 041600Z 24003KT 200V310 9999 FEW025 BKN150 27/26 Q1009 NOSIG RMK A2980
RPLL,2025-09-04 17:00,RPLL 041700Z VRB02KT 9999 FEW025 BKN100 27/26 Q1009 NOSIG RMK A2980
RPLL,2025-09-04 18:00,RPLL 041800Z VRB02KT 9999 SCT025 BKN150 27/26 Q1008 NOSIG RMK A2977
RPLL,2025-09-04 19:00,RPLL 041900Z VRB02KT 9999 -SHRA SCT023 OVC100 27/26 Q1008 NOSIG RMK A2977
RPLL,2025-09-04 20:00,RPLL 042000Z 26004KT 9000 -RA BKN023 OVC090 27/27 Q1008 NOSIG RMK A2977
RPLL,2025-09-04 21:00,RPLL 042100Z 28013KT 5000 RA BKN022 OVC080 25/25 Q1009 TEMPO 3000 +RA RMK A2980
RPLL,2025-09-04 22:00,RPLL 042200Z VRB04KT 5000 RA BKN022 OVC080 24/24 Q1009 NOSIG RMK A2980
RPLL,2025-09-04 23:00,RPLL 042300Z VRB02KT 5000 RA BKN022 OVC080 25/25 Q1010 NOSIG RMK A2983
RPLL,2025-09-05 00:00,RPLL 050000Z VRB01KT 5000 BKN022 OVC080 25/25 Q1010 NOSIG RMK A2983
RPLL,2025-09-05 01:00,RPLL 050100Z 26007KT 230V310 9000 BKN022 OVC080 27/25 Q1010 NOSIG RMK A2983
RPLL,2025-09-05 02:00,RPLL 050200Z 27007KT 250V310 9999 SCT025 BKN100 27/25 Q1010 NOSIG RMK A2983
RPLL,2025-09-05 03:00,RPLL 050300Z 24012KT 200V260 9999 SCT025 BKN090 28/24 Q1010 NOSIG RMK A2983
RPLL,2025-09-05 04:00,RPLL 050400Z 24006KT 190V270 9000 -RA SCT023 OVC090 29/25 Q1009 NOSIG RMK A2980
RPLL,2025-09-05 05:00,RPLL 050500Z 29004KT 250V330 9999 FEW023TCU SCT025 BKN100 29/25 Q1008 NOSIG RMK A2977 TCU N
RPLL,2025-09-05 06:00,RPLL 050600Z 28005KT 220V320 9999 SCT025 OVC100 29/25 Q1008 NOSIG RMK A2977
RPLL,2025-09-05 07:00,RPLL 050700Z 26009KT 220V290 9999 -RA SCT025 BKN100 27/26 Q1008 NOSIG RMK A2977 TCU S
RPLL,2025-09-05 08:00,RPLL 050800Z 27007KT 9999 FEW025 BKN100 29/26 Q1007 NOSIG RMK A2974
RPLL,2025-09-05 09:00,RPLL 050900Z 28008KT 9999 -RA FEW025 BKN100 29/26 Q1007 NOSIG RMK A2974
RPLL,2025-09-05 10:00,RPLL 051000Z 26009KT 9999 SCT025 BKN100 28/26 Q1008 NOSIG RMK A2977
RPLL,2025-09-05 11:00,RPLL 051100Z 24003KT 190V270 9999 FEW025 BKN100 28/26 Q1008 NOSIG RMK A2977
RPLL,2025-09-05 12:00,RPLL 051200Z 23003KT 180V260 9999 FEW025 BKN100 28/26 Q1009 NOSIG RMK A2980
RPLL,2025-09-05 13:00,RPLL 051300Z VRB01KT 9999 FEW025 BKN100 28/26 Q1009 NOSIG RMK A2980
RPLL,2025-09-05 14:00,RPLL 051400Z VRB02KT 9999 FEW025 BKN130 28/26 Q1010 NOSIG RMK A2983
RPLL,2025-09-05 15:00,RPLL 051500Z VRB01KT 9999 FEW025 BKN130 28/26 Q1010 NOSIG RMK A2983
RPLL,2025-09-05 16:00,RPLL 051600Z VRB01KT 9000 -SHRA SCT025 BKN100 28/26 Q1010 NOSIG RMK A2983
RPLL,2025-09-05 17:00,RPLL 051700Z 00000KT 9000 FEW025 BKN100 27/26 Q1009 NOSIG RMK A2980
RPLL,2025-09-05 18:00,RPLL 051800Z VRB02KT 9000 SCT025 BKN100 28/25 Q1009 NOSIG RMK A2980
RPLL,2025-09-05 19:00,RPLL 051900Z 26004KT 9000 -RA SCT023 OVC090 27/26 Q1009 NOSIG RMK A2980
RPLL,2025-09-05 20:00,RPLL 052000Z 24003KT 9999 SCT025 BKN100 27/25 Q1009 NOSIG RMK A280
RPLL,2025-09-05 21:00,RPLL 052100Z 26004KT 9999 -RA SCT023 OVC100 26/25 Q1009 NOSIG RMK A2980
RPLL,2025-09-05 22:00,RPLL 052200Z 24003KT 190V270 9999 SCT023 BKN100 26/25 Q1009 NOSIG RMK A2980
RPLL,2025-09-05 23:00,RPLL 052300Z VRB02KT 9999 SCT025 BKN100 27/25 Q1010 NOSIG RMK A2983
RPLL,2025-09-06 00:00,RPLL 060000Z 27003KT 230V320 9999 SCT025 BKN100 27/25 Q1011 NOSIG RMK A2985
RPLL,2025-09-06 01:00,RPLL 060100Z VRB02KT 9999 SCT025 BKN100 29/24 Q1011 NOSIG RMK A2985
RPLL,2025-09-06 02:00,RPLL 060200Z 29004KT 250V340 9000 -RA SCT025 BKN100 29/25 Q1011 NOSIG RMK A2985
RPLL,2025-09-06 03:00,COR RPLL 060300Z 29007KT 260V320 9000 -SHRA SCT025CB BKN100 28/26 Q1011 TEMPO 5000 TSRA RMK A2985 CB SE/OHD
RPLL,2025-09-06 03:22,RPLL 060322Z VRB02KT 8000 TSRA SCT020CB SCT023 BKN080 26/26 Q1011 NOSIG RMK A2985 CB OHD/SE-SW
RPLL,2025-09-06 04:00,RPLL 060400Z 36004KT 290V060 2000 +TSRA BKN018CB SCT020 OVC060 24/24 Q1011 TEMPO 5000 TSRA RMK A2985 CB OHD/NE-SW/NW-N
RPLL,2025-09-06 04:41,COR RPLL 060441Z 35004KT 290V050 4000 -TSRA BR SCT020CB SCT022 OVC060 25/25 Q1011 RESHRA TEMPO 5000 TSRA RMK A2985 CB OHD/S-W/N
RPLL,2025-09-06 05:00,RPLL 060500Z 32003KT 230V040 2000 +TSRA SCT018CB SCT020 OVC060 25/25 Q1011 TEMPO 5000 TSRA RMK A2985 CB OHD/SE-W
RPLL,2025-09-06 06:00,RPLL 060600Z 26007KT 230V290 7000 -RA FEW023CB SCT025 BKN100 27/26 Q1011 RETSRA NOSIG RMK A2985 CB OHD/NW
RPLL,2025-09-06 07:00,RPLL 060700Z 25007KT 9999 -RA SCT025 BKN100 27/26 Q1010 NOSIG RMK A2983
RPLL,2025-09-06 08:00,RPLL 060800Z 25005KT 220V280 9999 -RA SCT025 BKN100 27/26 Q1010 NOSIG RMK A2983
RPLL,2025-09-06 09:00,RPLL 060900Z 25003KT 190V270 9999 SCT025 BKN100 27/25 Q1010 NOSIG RMK A2983
RPLL,2025-09-06 10:00,RPLL 061000Z VRB02KT 9999 FEW025 BKN100 27/26 Q1010 NOSIG RMK A2983
RPLL,2025-09-06 11:00,RPLL 061100Z VRB02KT 9999 FEW023 BKN100 27/26 Q1011 NOSIG RMK A2985
RPLL,2025-09-06 12:00,RPLL 061200Z 10002KT 9999 FEW023 BKN100 26/26 Q1011 NOSIG RMK A2985
RPLL,2025-09-06 13:00,RPLL 061300Z 08002KT 9999 FEW023 BKN100 26/26 Q1012 NOSIG RMK A2988
RPLL,2025-09-06 14:00,RPLL 061400Z 00000KT 9999 FEW023 BKN100 26/26 Q1012 NOSIG RMK A2988
RPLL,2025-09-06 15:00,RPLL 061500Z 00000KT 9000 FEW025 SCT100 26/26 Q1012 NOSIG RMK A2988
RPLL,2025-09-06 16:00,RPLL 061600Z VRB01KT 9000 FEW025 26/26 Q1012 NOSIG RMK A2988
RPLL,2025-09-06 17:00,RPLL 061700Z 00000KT 9000 FEW025 26/26 Q1011 NOSIG RMK A2985
RPLL,2025-09-06 18:00,RPLL 061800Z VRB01KT 8000 FEW025 26/26 Q1010 NOSIG RMK A2983
RPLL,2025-09-06 19:00,RPLL 061900Z VRB02KT 8000 FEW025 26/26 Q1010 NOSIG RMK A2983
RPLL,2025-09-06 20:00,RPLL 062000Z VRB01KT 8000 FEW025 25/25 Q1010 NOSIG RMK A2983
RPLL,2025-09-06 21:00,RPLL 062100Z VRB01KT 9000 FEW023 25/25 Q1010 NOSIG RMK A2983
RPLL,2025-09-06 22:00,RPLL 062200Z VRB02KT 9000 FEW023 25/25 Q1010 NOSIG RMK A2983
RPLL,2025-09-06 23:00,RPLL 062300Z 09003KT 050V160 9999 FEW023 27/26 Q1011 NOSIG RMK A2985
RPLL,2025-09-07 00:00,RPLL 070000Z 12004KT 080V170 9999 FEW025 29/25 Q1011 NOSIG RMK A2985
RPLL,2025-09-07 01:00,RPLL 070100Z 13005KT 080V190 9999 FEW025 29/25 Q1012 NOSIG RMK A2988
RPLL,2025-09-07 02:00,RPLL 070200Z 13005KT 090V190 9999 FEW025 30/25 Q1011 NOSIG RMK A2985
RPLL,2025-09-07 03:00,RPLL 070300Z 10007KT 070V160 9999 FEW025 30/25 Q1011 NOSIG RMK A2985
RPLL,2025-09-07 04:00,COR RPLL 070400Z 10007KT 060V180 9999 FEW025 31/24 Q1010 NOSIG RMK A2983
RPLL,2025-09-07 05:00,RPLL 070500Z 14007KT 070V200 9999 FEW025 32/24 Q1009 NOSIG RMK A2980
RPLL,2025-09-07 06:00,RPLL 070600Z 16006KT 100V230 9999 FEW025 34/24 Q1009 NOSIG RMK A2980
RPLL,2025-09-07 07:00,RPLL 070700Z 12007KT 080V170 9999 FEW025 33/24 Q1008 NOSIG RMK A2977
RPLL,2025-09-07 08:00,RPLL 070800Z 13005KT 090V180 9999 FEW023CB SCT025 33/24 Q1008 NOSIG RMK A2977 CB N
RPLL,2025-09-07 09:00,RPLL 070900Z 25007KT 200V270 9999 SCT023 BKN100 30/27 Q1009 NOSIG RMK A2980
RPLL,2025-09-07 10:00,RPLL 071000Z 25012KT 210V270 8000 -SHRA FEW022CB SCT023 OVC090 24/23 Q1010 TEMPO 2000 +TSRA RMK A2983 CB S-W
RPLL,2025-09-07 10:19,RPLL 071019Z 28011KT 7000 -TSRA SCT020CB SCT022 OVC090 26/23 Q1011 TEMPO 5000 TSRA RMK A2985 CB OHD/SE/SW-N
RPLL,2025-09-07 11:00,RPLL 071100Z 01006KT 330V060 9000 FEW022CB SCT023 OVC090 26/23 Q1011 RETS NOSIG RMK A2985 CB/OCNL LTG SW-NW
RPLL,2025-09-07 11:27,RPLL 071127Z VRB03KT 8000 -RA FEW022CB SCT023 OVC090 26/25 Q1012 NOSIG RMK A2988 CB/OCNL LTG SW/NW
RPLL,2025-09-07 12:00,RPLL 071200Z VRB02KT 9000 -RA SCT022 OVC090 25/24 Q1012 NOSIG RMK A2988
RPLL,2025-09-07 13:00,RPLL 071300Z VRB01KT 9999 SCT025 BKN100 26/25 Q1012 NOSIG RMK A2988
RPLL,2025-09-07 14:00,RPLL 071400Z VRB01KT 9999 SCT025 BKN100 27/25 Q1013 NOSIG RMK A2991
RPLL,2025-09-07 15:00,RPLL 071500Z VRB02KT 9999 FEW025 BKN100 27/26 Q1013 NOSIG RMK A2991
RPLL,2025-09-07 16:00,RPLL 071600Z VRB01KT 9999 SCT025 BKN100 27/26 Q1012 NOSIG RMK A2988
RPLL,2025-09-07 17:00,RPLL 071700Z 16002KT 9999 SCT025 BKN100 27/26 Q1012 NOSIG RMK A2988
RPLL,2025-09-07 18:00,RPLL 071800Z 27002KT 9999 FEW025 BKN100 27/26 Q1012 NOSIG RMK A2988
RPLL,2025-09-07 19:00,RPLL 071900Z VRB02KT 9999 FEW025 BKN100 27/25 Q1011 NOSIG RMK A2985
RPLL,2025-09-07 20:00,RPLL 072000Z VRB01KT 9999 FEW025 BKN100 27/26 Q1011 NOSIG RMK A2985
RPLL,2025-09-07 21:00,RPLL 072100Z VRB02KT 9999 FEW025 BKN100 27/26 Q1011 NOSIG RMK A2985
RPLL,2025-09-07 22:00,RPLL 072200Z VRB02KT 9999 SCT025 OVC100 27/26 Q1011 NOSIG RMK A2985
RPLL,2025-09-07 23:00,RPLL 072300Z VRB01KT 8000 SCT025 OVC100 27/26 Q1012 NOSIG RMK A2988
RPLL,2025-09-08 00:00,RPLL 080000Z 00000KT 7000 -RA SCT023 OVC100 27/26 Q1013 NOSIG RMK A2991
RPLL,2025-09-08 01:00,RPLL 080100Z VRB02KT 7000 -RA SCT023 OVC100 28/27 Q1013 NOSIG RMK A2991
RPLL,2025-09-08 02:00,RPLL 080200Z VRB02KT 7000 -RA FEW025 OVC100 28/27 Q1013 NOSIG RMK A2991
RPLL,2025-09-08 03:00,RPLL 080300Z VRB02KT 7000 FEW025 OVC150 29/26 Q1013 NOSIG RMK A2991
RPLL,2025-09-08 04:00,RPLL 080400Z 31003KT 250V020 8000 FEW023TCU SCT025 BKN150 30/25 Q1012 NOSIG RMK A2988 TCU SE
RPLL,2025-09-08 05:00,COR RPLL 080500Z 28006KT 250V330 5000 HZ SCT025 BKN100 30/27 Q1011 NOSIG RMK A2985
RPLL,2025-09-08 06:00,RPLL 080600Z VRB02KT 7000 TS VCSH FEW023CB SCT025 BKN100 30/27 Q1011 TEMPO -TSRA RMK A2985 CB N/W/S  VCSH N
RPLL,2025-09-08 07:00,RPLL 080700Z 18005KT 140V210 9000 -TSRA FEW023CB SCT025 BKN090 29/23 Q1011 NOSIG RMK A2985 CB OHD/SW-NW
RPLL,2025-09-08 08:00,RPLL 080800Z 27006KT 9999 SCT023 BKN100 27/25 Q1011 RETS NOSIG RMK A2985
RPLL,2025-09-08 09:00,RPLL 080900Z 29004KT 9999 SCT023 BKN100 27/25 Q1011 NOSIG RMK A2985
RPLL,2025-09-08 10:00,RPLL 081000Z 29003KT 260V330 9999 -RA SCT023 BKN090 27/25 Q1012 NOSIG RMK A2988
RPLL,2025-09-08 11:00,RPLL 081100Z 09003KT 060V130 9000 -RA SCT022 OVC080 25/25 Q1013 NOSIG RMK A2991
RPLL,2025-09-08 12:00,RPLL 081200Z 07004KT 9000 -RA SCT022 OVC080 25/25 Q1014 NOSIG RMK A2994
RPLL,2025-09-08 13:00,RPLL 081300Z 09004KT 9000 -RA SCT023 OVC090 26/25 Q1015 NOSIG RMK A2997
RPLL,2025-09-08 14:00,RPLL 081400Z VRB02KT 9000 -RA SCT023 OVC090 25/25 Q1015 NOSIG RMK A2997
RPLL,2025-09-08 15:00,RPLL 081500Z VRB02KT 9999 SCT025 BKN100 26/25 Q1014 NOSIG RMK A2994
RPLL,2025-09-08 16:00,RPLL 081600Z VRB02KT 9999 FEW025 BKN100 26/24 Q1013 NOSIG RMK A2991
RPLL,2025-09-08 17:00,RPLL 081700Z VRB02KT 9999 FEW025 BKN150 26/25 Q1012 NOSIG RMK A2988
RPLL,2025-09-08 18:00,RPLL 081800Z VRB01KT 9999 FEW025 SCT100 25/25 Q1011 NOSIG RMK A2985
RPLL,2025-09-08 19:00,RPLL 081900Z VRB01KT 9999 SCT025 BKN100 25/25 Q1011 NOSIG RMK A2985
RPLL,2025-09-08 20:00,RPLL 082000Z VRB01KT 9999 FEW025 SCT100 25/25 Q1011 NOSIG RMK A2985
RPLL,2025-09-08 21:00,RPLL 082100Z VRB02KT 9999 FEW025 SCT100 25/25 Q1011 NOSIG RMK A2985
RPLL,2025-09-08 22:00,RPLL 082200Z VRB02KT 9999 FEW025 SCT100 25/25 Q1011 NOSIG RMK A2985
RPLL,2025-09-08 23:00,RPLL 082300Z VRB02KT 9999 FEW025 SCT100 26/25 Q1012 NOSIG RMK A2988
RPLL,2025-09-09 00:00,RPLL 090000Z VRB02KT 9999 FEW025 28/25 Q1013 NOSIG RMK A2991
RPLL,2025-09-09 01:00,RPLL 090100Z 27006KT 9999 FEW025 28/26 Q1013 NOSIG RMK A2991
RPLL,2025-09-09 02:00,RPLL 090200Z VRB03KT 9999 FEW025 SCT100 31/24 Q1013 NOSIG RMK A2991
RPLL,2025-09-09 03:00,RPLL 090300Z 27006KT 230V310 9999 FEW025 30/26 Q1012 NOSIG RMK A2988
RPLL,2025-09-09 04:00,RPLL 090400Z 33007KT 300V360 9999 FEW025 SCT100 31/25 Q1012 NOSIG RMK A2988
RPLL,2025-09-09 05:00,RPLL 090500Z 28007KT 240V300 9999 FEW025 32/26 Q1010 NOSIG RMK A2983
RPLL,2025-09-09 05:43,RPLL 090543Z 05014KT 010V090 9000 -RA FEW023CB SCT023 BKN100 26/26 Q1011 TEMPO 5000 TSRA RMK A2985 CB N/NE
RPLL,2025-09-09 06:00,COR RPLL 090600Z 33008KT 300V360 5000 TSRA FEW022CB SCT023 OVC100 26/25 Q1010 NOSIG RMK A2983 CB/OHD NW-N
RPLL,2025-09-09 07:00,COR RPLL 090700Z VRB02KT 9000 SCT023 BKN100 28/25 Q1010 RETSRA NOSIG RMK A2983
RPLL,2025-09-09 08:00,RPLL 090800Z 13006KT 050V180 9999 SCT023 BKN100 29/24 Q1010 NOSIG RMK A2983
RPLL,2025-09-09 09:00,RPLL 090900Z 10006KT 040V150 9999 SCT025 BKN100 29/25 Q1010 NOSIG RMK A2983
RPLL,2025-09-09 10:00,RPLL 091000Z 11009KT 080V150 9999 FEW025 BKN100 28/24 Q1011 NOSIG RMK A2985
RPLL,2025-09-09 11:00,RPLL 091100Z 12004KT 070V210 9999 FEW025 BKN150 28/24 Q1011 NOSIG RMK A2985
RPLL,2025-09-09 12:00,RPLL 091200Z 12004KT 070V210 9999 FEW025 BKN150 28/24 Q1011 NOSIG RMK A2985
RPLL,2025-09-09 13:00,RPLL 091300Z VRB02KT 9999 FEW025 BKN100 27/24 Q1011 NOSIG RMK A2985
RPLL,2025-09-09 14:00,RPLL 091400Z VRB01KT 9999 FEW025 BKN100 27/25 Q1011 NOSIG RMK A2985
RPLL,2025-09-09 15:00,RPLL 091500Z 09003KT 060V120 9999 FEW025 BKN100 27/25 Q1012 NOSIG RMK A2988
RPLL,2025-09-09 16:00,RPLL 091600Z VRB02KT 9999 FEW025 SCT100 27/25 Q1011 NOSIG RMK A2985
RPLL,2025-09-09 17:00,RPLL 091700Z VRB01KT 9999 FEW025 SCT100 27/25 Q1011 NOSIG RMK A2985
RPLL,2025-09-09 18:00,RPLL 091800Z 00000KT 9999 FEW025 SCT100 26/25 Q1010 NOSIG RMK A2983
RPLL,2025-09-09 19:00,RPLL 091900Z VRB02KT 9999 FEW025 26/25 Q1010 NOSIG RMK A2983
RPLL,2025-09-09 20:00,RPLL 092000Z 00000KT 9999 FEW025 25/25 Q1010 NOSIG RMK A2983
RPLL,2025-09-09 21:00,COR RPLL 092100Z 00000KT 9999 FEW025 BKN100 26/25 Q1010 NOSIG RMK A2983
RPLL,2025-09-09 22:00,RPLL 092200Z VRB02KT 9999 SCT023 BKN100 26/25 Q1010 NOSIG RMK A2983
RPLL,2025-09-09 23:00,RPLL 092300Z 09003KT 060V120 9999 -RA SCT023 OVC100 25/25 Q1011 NOSIG RMK A2985
RPLL,2025-09-10 00:00,RPLL 100000Z 10003KT 060V140 9000 -RA SCT023 OVC090 25/25 Q1012 TEMPO 5000 RA RMK A2988
RPLL,2025-09-10 01:00,RPLL 100100Z 11004KT 060V140 9000 -RA SCT023 OVC090 25/25 Q1012 NOSIG RMK A2988
RPLL,2025-09-10 02:00,RPLL 100200Z 09004KT 060V130 8000 -RA SCT023 OVC090 25/25 Q1012 NOSIG RMK A2988
RPLL,2025-09-10 03:00,RPLL 100300Z 13004KT 080V170 9000 -RA SCT023 OVC090 25/25 Q1012 NOSIG RMK A2988
RPLL,2025-09-10 04:00,RPLL 100400Z 10005KT 060V160 9999 SCT023 OVC090 26/25 Q1011 NOSIG RMK A2985
RPLL,2025-09-10 05:00,RPLL 100500Z 11004KT 070V150 9999 SCT025 OVC100 27/25 Q1010 NOSIG RMK A2983
RPLL,2025-09-10 06:00,RPLL 100600Z 11003KT 070V170 9999 -RA SCT023 OVC100 28/26 Q1010 NOSIG RMK A2983
RPLL,2025-09-10 07:00,RPLL 100700Z 16004KT 120V200 9999 SCT023 OVC100 28/25 Q1009 NOSIG RMK A2980
RPLL,2025-09-10 08:00,RPLL 100800Z 14003KT 090V200 9999 SCT023 OVC100 28/25 Q1009 NOSIG RMK A2980
RPLL,2025-09-10 09:00,RPLL 100900Z 14005KT 110V180 9999 FEW025 OVC100 28/25 Q1009 NOSIG RMK A2980
RPLL,2025-09-10 10:00,RPLL 101000Z 13003KT 080V170 9999 SCT025 OVC100 27/25 Q1009 NOSIG RMK A2980
RPLL,2025-09-10 11:00,RPLL 101100Z 12004KT 080V160 9999 FEW025 SCT100 27/24 Q1010 NOSIG RMK A2983
RPLL,2025-09-10 12:00,RPLL 101200Z 12005KT 070V170 9999 FEW025 SCT100 27/24 Q1010 NOSIG RMK A2983
RPLL,2025-09-10 13:00,RPLL 101300Z 11003KT 070V150 9999 FEW025 SCT100 27/24 Q1011 NOSIG RMK A2985
RPLL,2025-09-10 14:00,RPLL 101400Z VRB02KT 9999 FEW025 SCT100 26/24 Q1011 NOSIG RMK A2983
RPLL,2025-09-10 15:00,RPLL 101500Z 08002KT 9999 FEW025 SCT100 26/24 Q1011 NOSIG RMK A2985
RPLL,2025-09-10 16:00,RPLL 101600Z VRB02KT 9999 FEW025 BKN100 26/25 Q1010 NOSIG RMK A2983
RPLL,2025-09-10 17:00,RPLL 101700Z VRB01KT 9999 FEW025 BKN100 26/25 Q1010 NOSIG RMK A2983
RPLL,2025-09-10 18:00,RPLL 101800Z VRB02KT 9999 FEW025 BKN150 26/25 Q1009 NOSIG RMK A2980
RPLL,2025-09-10 19:00,RPLL 101900Z VRB02KT 9999 FEW025 BKN100 26/25 Q1009 NOSIG RMK A2980
RPLL,2025-09-10 20:00,RPLL 102000Z VRB01KT 9999 FEW025 BKN100 26/25 Q1009 NOSIG RMK A2980
RPLL,2025-09-10 21:00,RPLL 102100Z VRB02KT 9999 -SHRA FEW025 BKN100 26/25 Q1009 NOSIG RMK A2980
RPLL,2025-09-10 22:00,RPLL 102200Z VRB02KT 9999 FEW025 BKN100 26/25 Q1009 NOSIG RMK A2980
RPLL,2025-09-10 23:00,RPLL 102300Z VRB02KT 9999 FEW025 BKN100 26/25 Q1010 NOSIG RMK A2983
RPLL,2025-09-11 00:00,RPLL 110000Z 00000KT 9999 FEW025 BKN100 28/24 Q1011 NOSIG RMK A2985
RPLL,2025-09-11 01:00,RPLL 110100Z 10004KT 010V160 9999 FEW025 BKN100 29/24 Q1011 NOSIG RMK A2985
RPLL,2025-09-11 02:00,RPLL 110200Z 15004KT 100V200 9999 FEW025 BKN100 30/24 Q1010 NOSIG RMK A2983
RPLL,2025-09-11 03:00,RPLL 110300Z 12005KT 080V210 9999 FEW025 BKN100 30/24 Q1010 NOSIG RMK A2983
RPLL,2025-09-11 04:00,RPLL 110400Z VRB04KT 9999 FEW025 BKN100 31/25 Q1010 NOSIG RMK A2983
RPLL,2025-09-11 05:00,RPLL 110500Z VRB05KT 9999 FEW025 BKN100 31/25 Q1009 NOSIG RMK A2980
RPLL,2025-09-11 06:00,RPLL 110600Z 13005KT 090V220 9999 FEW025 BKN100 32/25 Q1008 NOSIG RMK A2977
RPLL,2025-09-11 07:00,RPLL 110700Z 12006KT 080V160 9999 FEW025 BKN100 32/25 Q1007 NOSIG RMK A2974
RPLL,2025-09-11 08:00,RPLL 110800Z 13007KT 080V170 9999 FEW023CB BKN100 31/24 Q1008 TEMPO 7000 -TSRA RMK A2977 CB N
RPLL,2025-09-11 09:00,RPLL 110900Z 36008KT 340V040 9000 FEW023CB SCT025 BKN100 29/24 Q1008 NOSIG RMK A2977 CB NW
RPLL,2025-09-11 10:00,RPLL 111000Z VRB02KT 9999 SCT025 BKN100 29/24 Q1008 NOSIG RMK A2977
RPLL,2025-09-11 11:00,RPLL 111100Z 09002KT 9999 SCT025 BKN100 29/25 Q1009 NOSIG RMK A2980
RPLL,2025-09-11 12:00,RPLL 111200Z 11006KT 070V140 9999 SCT025 BKN100 29/25 Q1010 NOSIG RMK A2983
RPLL,2025-09-11 13:00,RPLL 111300Z 11005KT 080V140 9999 SCT025 BKN100 29/25 Q1010 NOSIG RMK A2983
RPLL,2025-09-11 14:00,RPLL 111400Z 11003KT 080V140 9999 SCT025 BKN100 29/25 Q1011 NOSIG RMK A2985
RPLL,2025-09-11 15:00,RPLL 111500Z 12004KT 090V160 9999 SCT025 BKN100 29/25 Q1011 NOSIG RMK A2985
RPLL,2025-09-11 16:00,RPLL 111600Z 13004KT 100V170 9999 FEW025 BKN100 29/25 Q1010 NOSIG RMK A2983
RPLL,2025-09-11 17:00,RPLL 111700Z 13005KT 090V160 9999 FEW025 BKN100 28/25 Q1010 NOSIG RMK A2983
RPLL,2025-09-11 18:00,RPLL 111800Z 12003KT 080V170 9999 FEW025 BKN100 28/25 Q1009 NOSIG RMK A2980
RPLL,2025-09-11 19:00,RPLL 111900Z VRB02KT 9999 FEW025 BKN100 28/25 Q1009 NOSIG RMK A2980
RPLL,2025-09-11 20:00,RPLL 112000Z 09002KT 9999 FEW025 BKN150 27/25 Q1009 NOSIG RMK A2980
RPLL,2025-09-11 21:00,RPLL 112100Z VRB02KT 9999 FEW025 SCT150 27/25 Q1009 NOSIG RMK A2980
RPLL,2025-09-11 22:00,RPLL 112200Z VRB01KT 9999 FEW025 SCT150 27/26 Q1010 NOSIG RMK A2983
RPLL,2025-09-11 23:00,RPLL 112300Z 15003KT 120V190 9000 SCT025 BKN150 28/25 Q1011 NOSIG RMK A2985
RPLL,2025-09-12 00:00,RPLL 120000Z VRB02KT 9000 SCT025 BKN150 30/25 Q1011 NOSIG RMK A2985
RPLL,2025-09-12 01:00,RPLL 120100Z VRB04KT 9000 SCT025 BKN150 31/25 Q1011 NOSIG RMK A2985
RPLL,2025-09-12 02:00,RPLL 120200Z 30005KT 250V330 8000 SCT025 BKN150 30/26 Q1011 NOSIG RMK A2985
RPLL,2025-09-12 03:00,RPLL 120300Z 28006KT 250V310 8000 SCT025 BKN150 31/26 Q1011 NOSIG RMK A2985
RPLL,2025-09-12 04:00,RPLL 120400Z 29006KT 260V320 9000 SCT025 BKN150 31/25 Q1010 NOSIG RMK A2983
RPLL,2025-09-12 05:00,RPLL 120500Z 28006KT 250V320 9000 SCT025 BKN150 31/25 Q1009 NOSIG RMK A2980
RPLL,2025-09-12 06:00,RPLL 120600Z VRB03KT 9999 SCT023CB SCT025 BKN150 33/25 Q1008 NOSIG RMK A2977 CB N-NE
RPLL,2025-09-12 07:00,RPLL 120700Z 02010KT 9000 -SHRA SCT023CB SCT025 BKN100 28/23 Q1008 NOSIG RMK A2977 CB OHD/NW-N/S
RPLL,2025-09-12 08:00,RPLL 120800Z 05004KT 330V090 9999 FEW025 BKN100 28/23 Q1009 NOSIG RMK A2980
RPLL,2025-09-12 09:00,RPLL 120900Z VRB02KT 9999 -RA SCT023 BKN100 28/24 Q1009 NOSIG RMK A2980
RPLL,2025-09-12 10:00,RPLL 121000Z 06003KT 9999 -RA SCT023 BKN100 28/25 Q1010 NOSIG RMK A2983
RPLL,2025-09-12 11:00,RPLL 121100Z VRB01KT 9999 -RA FEW025 BKN100 28/25 Q1010 NOSIG RMK A2983
RPLL,2025-09-12 12:00,RPLL 121200Z 10003KT 9999 FEW025 28/25 Q1011 NOSIG RMK A2985
RPLL,2025-09-12 13:00,RPLL 121300Z 09002KT 9999 FEW025 BKN100 28/25 Q1011 NOSIG RMK A2985
RPLL,2025-09-12 14:00,RPLL 121400Z 01003KT 320V040 9999 FEW025 SCT100 28/26 Q1012 NOSIG RMK A2988
RPLL,2025-09-12 15:00,RPLL 121500Z VRB02KT 9999 FEW025 28/25 Q1011 NOSIG RMK A2985
RPLL,2025-09-12 16:00,RPLL 121600Z 00000KT 9999 FEW025 27/26 Q1011 NOSIG RMK A2985
RPLL,2025-09-12 17:00,RPLL 121700Z VRB01KT 9000 FEW025 27/26 Q1011 NOSIG RMK A2985
RPLL,2025-09-12 18:00,RPLL 121800Z VRB01KT 9000 FEW025 27/26 Q1011 NOSIG RMK A2985
RPLL,2025-09-12 19:00,RPLL 121900Z VRB02KT 9999 FEW025 27/26 Q1010 NOSIG RMK A2983
RPLL,2025-09-12 20:00,RPLL 122000Z VRB01KT 9999 FEW025 27/26 Q1010 NOSIG RMK A2983
RPLL,2025-09-12 21:00,RPLL 122100Z VRB02KT 9000 FEW025 27/26 Q1011 NOSIG RMK A2985
RPLL,2025-09-12 22:00,RPLL 122200Z VRB02KT 9000 FEW025 27/26 Q1011 NOSIG RMK A2985
RPLL,2025-09-12 23:00,RPLL 122300Z 21003KT 9000 SCT025 BKN100 27/26 Q1011 NOSIG RMK A2985
RPLL,2025-09-13 00:00,RPLL 130000Z VRB03KT 9000 SCT025 BKN100 28/26 Q1012 NOSIG RMK A2988
RPLL,2025-09-13 01:00,RPLL 130100Z VRB02KT 8000 SCT025 BKN100 30/27 Q1012 NOSIG RMK A2988
RPLL,2025-09-13 02:00,RPLL 130200Z VRB02KT 8000 SCT025 BKN100 30/25 Q1012 NOSIG RMK A2988
RPLL,2025-09-13 03:00,RPLL 130300Z 28006KT 250V310 8000 SCT025 BKN100 31/26 Q1011 NOSIG RMK A2985
RPLL,2025-09-13 04:00,RPLL 130400Z 29003KT 210V350 8000 SCT025 SCT100 32/26 Q1010 NOSIG RMK A2983
RPLL,2025-09-13 05:00,RPLL 130500Z 13006KT 070V170 9999 FEW023CB SCT025 33/25 Q1010 NOSIG RMK A2983 CB N
RPLL,2025-09-13 06:00,COR RPLL 130600Z 11008KT 060V180 9999 VCSH FEW022CB SCT025 34/24 Q1009 NOSIG RMK A2980 CB NW-NE  VCSH N
RPLL,2025-09-13 07:00,RPLL 130700Z 05012KT 010V070 9000 -SHRA FEW022CB SCT023 BKN090 28/27 Q1009 NOSIG RMK A2980 CB NW-N
RPLL,2025-09-13 08:00,RPLL 130800Z VRB01KT 9999 FEW025 BKN100 30/26 Q1009 NOSIG RMK A2980
RPLL,2025-09-13 09:00,RPLL 130900Z 35004KT 300V040 9999 FEW025 BKN100 31/26 Q1008 NOSIG RMK A2977
RPLL,2025-09-13 10:00,RPLL 131000Z 12006KT 080V160 9999 FEW025 BKN100 30/24 Q1009 NOSIG RMK A2980
RPLL,2025-09-13 11:00,RPLL 131100Z 12003KT 080V170 9999 FEW025 SCT100 29/25 Q1010 NOSIG RMK A2983
RPLL,2025-09-13 12:00,RPLL 131200Z 12004KT 080V170 9999 FEW025 BKN100 29/26 Q1010 NOSIG RMK A2983
RPLL,2025-09-13 13:00,RPLL 131300Z 14003KT 090V190 9999 FEW025 SCT100 29/25 Q1011 NOSIG RMK A2985
RPLL,2025-09-13 14:00,RPLL 131400Z 19003KT 160V220 9999 FEW025 SCT100 29/25 Q1011 NOSIG RMK A2985
RPLL,2025-09-13 15:00,RPLL 131500Z VRB01KT 9999 FEW025 SCT100 28/25 Q1011 NOSIG RMK A2985
RPLL,2025-09-13 16:00,RPLL 131600Z VRB02KT 9999 FEW025 SCT100 28/25 Q1010 NOSIG RMK A2983
RPLL,2025-09-13 17:00,RPLL 131700Z 02004KT 9999 FEW025 SCT100 28/24 Q1010 NOSIG RMK A2983
RPLL,2025-09-13 18:00,RPLL 131800Z 10003KT 060V140 9999 -SHRA FEW025 BKN100 28/25 Q1010 TEMPO 6000 RMK A2983
RPLL,2025-09-13 19:00,RPLL 131900Z 20003KT 160V230 9999 -RA FEW025 OVC090 27/25 Q1010 NOSIG RMK A2983
RPLL,2025-09-13 20:00,RPLL 132000Z 22003KT 190V260 9999 FEW025 BKN100 26/25 Q1010 NOSIG RMK A2983
RPLL,2025-09-13 21:00,RPLL 132100Z 22003KT 9999 FEW025 BKN100 26/25 Q1010 NOSIG RMK A2983
RPLL,2025-09-13 22:00,RPLL 132200Z VRB02KT 9999 SCT023 OVC100 27/25 Q1010 NOSIG RMK A2983
RPLL,2025-09-13 23:00,RPLL 132300Z 19003KT 130V240 9999 SCT025 OVC100 27/26 Q1010 NOSIG RMK A2983
RPLL,2025-09-14 00:00,RPLL 140000Z 01004KT 330V080 9999 SCT023 OVC100 28/24 Q1011 NOSIG RMK A2985
RPLL,2025-09-14 01:00,RPLL 140100Z 04007KT 010V070 9999 SCT023 OVC100 28/24 Q1011 NOSIG RMK A2985
RPLL,2025-09-14 01:26,RPLL 140126Z 07005KT 050V120 8000 SHRA SCT023 OVC100 25/25 Q1012 TEMPO 6000 RA RMK A2988
RPLL,2025-09-14 02:00,RPLL 140200Z 36003KT 170V050 8000 -RA SCT023 OVC100 26/25 Q1011 NOSIG RMK A2985
RPLL,2025-09-14 03:00,RPLL 140300Z 01004KT 270V080 9000 -RA SCT023 OVC100 26/25 Q1011 NOSIG RMK A2985
RPLL,2025-09-14 04:00,RPLL 140400Z 01006KT 330V060 9000 -RA SCT023 OVC100 26/25 Q1010 NOSIG RMK A2983
RPLL,2025-09-14 05:00,RPLL 140500Z 02004KT 260V060 9999 -RA SCT023 OVC100 27/25 Q1009 NOSIG RMK A2980
RPLL,2025-09-14 06:00,RPLL 140600Z 02004KT 320V070 9000 -RA SCT023 OVC100 27/25 Q1008 NOSIG RMK A2977
RPLL,2025-09-14 07:00,RPLL 140700Z 05003KT 020V090 9000 -RA SCT025 OVC100 26/25 Q1008 NOSIG RMK A2977
RPLL,2025-09-14 08:00,RPLL 140800Z 13005KT 360V060 9000 -RA SCT023 OVC100 26/26 Q1008 NOSIG RMK A2977
RPLL,2025-09-14 09:00,RPLL 140900Z 33003KT 280V040 9999 -RA SCT023 OVC100 26/26 Q1008 NOSIG RMK A2977
RPLL,2025-09-14 10:00,RPLL 141000Z VRB01KT 9999 -RA SCT023 OVC100 26/26 Q1009 NOSIG RMK A2980
RPLL,2025-09-14 11:00,RPLL 141100Z VRB02KT 8000 FEW025 OVC100 26/26 Q1009 NOSIG RMK A2980
RPLL,2025-09-14 12:00,RPLL 141200Z VRB01KT 8000 FEW025 BKN100 26/26 Q1010 NOSIG RMK A2983
RPLL,2025-09-14 13:00,RPLL 141300Z 10002KT 9000 FEW025 BKN100 26/26 Q1010 NOSIG RMK A2983
RPLL,2025-09-14 14:00,RPLL 141400Z VRB02KT 9000 FEW025 BKN100 26/26 Q1011 NOSIG RMK A2985
RPLL,2025-09-14 15:00,RPLL 141500Z VRB02KT 9000 FEW025 BKN100 27/26 Q1010 NOSIG RMK A2983
RPLL,2025-09-14 16:00,RPLL 141600Z VRB02KT 9000 -RA SCT023 OVC100 26/26 Q1010 NOSIG RMK A2983
RPLL,2025-09-14 17:00,RPLL 141700Z VRB02KT 9000 -RA SCT023 OVC100 26/26 Q1009 NOSIG RMK A2980
RPLL,2025-09-14 18:00,RPLL 141800Z VRB02KT 9000 -RA FEW023 BKN100 26/26 Q1008 NOSIG RMK A2977
RPLL,2025-09-14 19:00,RPLL 141900Z VRB01KT 7000 FEW025 OVC100 26/26 Q1008 NOSIG RMK A2977
RPLL,2025-09-14 20:00,RPLL 142000Z 00000KT 7000 -RA SCT025 OVC100 26/26 Q1008 NOSIG RMK A2977
RPLL,2025-09-14 21:00,RPLL 142100Z VRB01KT 7000 -RA SCT025 OVC100 26/26 Q1009 NOSIG RMK A2980
RPLL,2025-09-14 22:00,RPLL 142200Z VRB02KT 8000 FEW025 BKN100 26/26 Q1009 NOSIG RMK A2980
RPLL,2025-09-14 23:00,RPLL 142300Z VRB02KT 9000 SCT025 BKN100 27/27 Q1010 NOSIG RMK A2983
RPLL,2025-09-15 00:00,RPLL 150000Z 19004KT 8000 -RA SCT025 BKN100 27/27 Q1011 NOSIG RMK A2985
RPLL,2025-09-15 01:00,RPLL 150100Z VRB02KT 9000 FEW025 BKN100 29/26 Q1011 NOSIG RMK A2985
RPLL,2025-09-15 02:00,RPLL 150200Z 13005KT 080V200 9999 FEW025 BKN100 30/26 Q1011 NOSIG RMK A2985
RPLL,2025-09-15 03:00,RPLL 150300Z 12005KT 070V180 9999 FEW025 SCT100 31/26 Q1010 NOSIG RMK A2983
RPLL,2025-09-15 04:00,RPLL 150400Z 12007KT 080V160 9999 FEW025 SCT100 33/26 Q1009 NOSIG RMK A2980
RPLL,2025-09-15 05:00,RPLL 150500Z 09010KT 050V140 9999 TS FEW023CB SCT100 33/27 Q1008 NOSIG RMK A2977 CB N/NW
RPLL,2025-09-15 06:00,RPLL 150600Z 08004KT 040V150 9999 FEW023CB SCT025 BKN100 32/26 Q1008 RETS NOSIG RMK A2977 CB W
RPLL,2025-09-15 07:00,RPLL 150700Z VRB04KT 9999 FEW025 BKN100 31/25 Q1008 NOSIG RMK A2977
RPLL,2025-09-15 08:00,RPLL 150800Z VRB04KT 9999 FEW025 SCT100 32/25 Q1008 NOSIG RMK A2977
RPLL,2025-09-15 09:00,RPLL 150900Z 13006KT 100V160 9999 FEW025 SCT100 31/25 Q1008 NOSIG RMK A2977
RPLL,2025-09-15 10:00,RPLL 151000Z 15005KT 110V220 9999 FEW025TCU SCT100 30/26 Q1009 NOSIG RMK A2980 TCU NW
RPLL,2025-09-15 11:00,RPLL 151100Z 12007KT 080V160 9999 FEW025 BKN100 29/26 Q1009 NOSIG RMK A2980
RPLL,2025-09-15 12:00,RPLL 151200Z 14005KT 090V180 9999 FEW023CB SCT025 29/26 Q1010 NOSIG RMK A2983 CB/OCNL LTG W
RPLL,2025-09-15 13:00,RPLL 151300Z 13005KT 100V160 9999 FEW025 28/24 Q1010 NOSIG RMK A2983
RPLL,2025-09-15 14:00,RPLL 151400Z 07004KT 050V110 9999 FEW025 SCT100 28/25 Q1011 NOSIG RMK A2985
RPLL,2025-09-15 15:00,RPLL 151500Z 01008KT 9000 -RA SCT023 OVC090 27/26 Q1011 TEMPO 5000 RA RMK A2985
RPLL,2025-09-15 16:00,RPLL 151600Z 02006KT 320V060 9999 -RA SCT023 OVC090 27/25 Q1010 NOSIG RMK A2983
RPLL,2025-09-15 17:00,RPLL 151700Z 02003KT 340V060 9999 -RA FEW025 BKN100 26/25 Q1009 NOSIG RMK A2980
RPLL,2025-09-15 18:00,RPLL 151800Z VRB01KT 9999 FEW025 BKN100 26/25 Q1008 NOSIG RMK A2977
RPLL,2025-09-15 19:00,RPLL 151900Z VRB01KT 9999 FEW025 BKN100 26/25 Q1008 NOSIG RMK A2977
RPLL,2025-09-15 20:00,RPLL 152000Z VRB02KT 9999 FEW025 BKN100 26/25 Q1008 NOSIG RMK A2977
RPLL,2025-09-15 21:00,RPLL 152100Z VRB02KT 9999 FEW025 BKN100 26/25 Q1008 NOSIG RMK A2977
RPLL,2025-09-15 22:00,RPLL 152200Z VRB02KT 9999 FEW025 BKN100 26/25 Q1009 NOSIG RMK A2980
RPLL,2025-09-15 23:00,RPLL 152300Z 22003KT 160V290 9999 FEW025 BKN100 28/26 Q1009 NOSIG RMK A2980
RPLL,2025-09-16 00:00,RPLL 160000Z VRB03KT 9999 FEW025 30/25 Q1009 NOSIG RMK A2980
RPLL,2025-09-16 01:00,RPLL 160100Z 14005KT 070V190 9999 FEW025 31/25 Q1010 NOSIG RMK A2983
RPLL,2025-09-16 02:00,RPLL 160200Z 11006KT 040V180 9999 FEW025 SCT100 31/25 Q1010 NOSIG RMK A2983
RPLL,2025-09-16 03:00,RPLL 160300Z VRB05KT 9999 FEW023CB SCT100 32/25 Q1009 TEMPO VRB15KT 5000 TSRA RMK A2980 CB N
RPLL,2025-09-16 03:35,RPLL 160335Z 34012KT 320V020 9000 -SHRA FEW023CB SCT025 BKN100 27/27 Q1009 NOSIG RMK A2980 CB NW/N
RPLL,2025-09-16 04:00,RPLL 160400Z 34010KT 310V050 8000 -RA FEW022CB SCT023 BKN100 26/26 Q1009 NOSIG RMK A2980 CB SE/W
RPLL,2025-09-16 05:00,RPLL 160500Z 35009KT 310V030 9000 -RA FEW022CB SCT023 OVC100 27/26 Q1007 NOSIG RMK A2974 CB E/SE
RPLL,2025-09-16 06:00,RPLL 160600Z 32005KT 270V010 9999 -RA SCT023 OVC100 27/25 Q1007 NOSIG RMK A2974
RPLL,2025-09-16 07:00,RPLL 160700Z 31003KT 260V350 9000 SCT023 OVC100 28/25 Q1007 NOSIG RMK A2974
RPLL,2025-09-16 08:00,RPLL 160800Z 21007KT 180V240 9000 SCT023 OVC100 27/25 Q1007 NOSIG RMK A2974
RPLL,2025-09-16 09:00,RPLL 160900Z VRB01KT 9000 SCT023 OVC100 27/25 Q1007 NOSIG RMK A2974
RPLL,2025-09-16 10:00,RPLL 161000Z 00000KT 9000 SCT023 OVC100 27/25 Q1007 NOSIG RMK A2974
RPLL,2025-09-16 11:00,RPLL 161100Z VRB02KT 9999 FEW025 BKN100 27/26 Q1008 NOSIG RMK A2977
RPLL,2025-09-16 12:00,RPLL 161200Z VRB02KT 9000 -RA SCT023 OVC090 26/25 Q1009 NOSIG RMK A2980
RPLL,2025-09-16 13:00,RPLL 161300Z 00000KT 9000 -RA SCT023 OVC090 26/26 Q1009 NOSIG RMK A2980
RPLL,2025-09-16 14:00,RPLL 161400Z VRB01KT 9999 FEW025 BKN100 26/26 Q1009 NOSIG RMK A2980
RPLL,2025-09-16 15:00,RPLL 161500Z VRB02KT 7000 FEW025 SCT100 26/26 Q1009 NOSIG RMK A2980
RPLL,2025-09-16 16:00,RPLL 161600Z VRB01KT 8000 FEW025 SCT100 26/26 Q1009 NOSIG RMK A2980
RPLL,2025-09-16 17:00,RPLL 161700Z VRB02KT 9000 SCT025 BKN100 26/26 Q1008 NOSIG RMK A2977
RPLL,2025-09-16 18:00,RPLL 161800Z VRB01KT 9000 FEW025 SCT100 26/26 Q1008 NOSIG RMK A2977
RPLL,2025-09-16 19:00,RPLL 161900Z VRB01KT 9000 FEW025 BKN150 26/26 Q1007 NOSIG RMK A2974
RPLL,2025-09-16 20:00,RPLL 162000Z VRB01KT 9000 FEW025 BKN100 26/26 Q1007 NOSIG RMK A2974
RPLL,2025-09-16 21:00,RPLL 162100Z VRB01KT 9000 FEW025 BKN100 26/26 Q1007 NOSIG RMK A2974
RPLL,2025-09-16 22:00,RPLL 162200Z VRB02KT 9000 FEW025 BKN100 26/25 Q1007 NOSIG RMK A2974
RPLL,2025-09-16 23:00,RPLL 162300Z 19003KT 9000 FEW025 BKN100 27/25 Q1008 NOSIG RMK A2977
RPLL,2025-09-17 00:00,RPLL 170000Z 19003KT 9000 FEW025 BKN100 28/26 Q1009 NOSIG RMK A2980
RPLL,2025-09-17 01:00,RPLL 170100Z 15003KT 100V220 9999 FEW025 BKN100 30/25 Q1009 NOSIG RMK A2980
RPLL,2025-09-17 02:00,RPLL 170200Z 13003KT 060V200 9999 FEW025 BKN100 31/25 Q1009 NOSIG RMK A2980
RPLL,2025-09-17 03:00,RPLL 170300Z 13005KT 070V200 9999 FEW025 BKN100 31/25 Q1008 NOSIG RMK A2977
RPLL,2025-09-17 04:00,RPLL 170400Z 28007KT 9000 FEW025 BKN100 30/26 Q1008 NOSIG RMK A2977
RPLL,2025-09-17 05:00,RPLL 170500Z 27007KT 220V300 9000 FEW023CB SCT025 BKN100 31/26 Q1007 TEMPO 7000 -TSRA RMK A2974 CB E SE
RPLL,2025-09-17 06:00,RPLL 170600Z 29005KT 260V320 9000 FEW023CB SCT025 BKN100 30/26 Q1007 RMK A2974 CB NE
RPLL,2025-09-17 07:00,RPLL 170700Z 32006KT 290V350 9000 SCT025 BKN100 30/26 Q1007 RMK A2974
RPLL,2025-09-17 08:00,RPLL 170800Z 33005KT 300V020 9999 SCT025 BKN100 30/26 Q1007 NOSIG RMK A2975
RPLL,2025-09-17 09:00,RPLL 170900Z 27009KT 9999 FEW023CB SCT025 OVC100 29/26 Q1007 NOSIG RMK A2974 CB SE
RPLL,2025-09-17 10:00,RPLL 171000Z 17003KT 120V240 9999 FEW023CB SCT025 OVC100 29/26 Q1008 NOSIG RMK A2977 CB NE
RPLL,2025-09-17 11:00,RPLL 171100Z 09003KT 060V130 9000 FEW025 BKN100 28/26 Q1008 NOSIG RMK A2977
RPLL,2025-09-17 12:00,RPLL 171200Z VRB02KT 9999 FEW025 BKN100 28/26 Q1009 NOSIG RMK A2980
RPLL,2025-09-17 13:00,RPLL 171300Z 13003KT 100V170 9999 FEW025 BKN100 28/26 Q1009 NOSIG RMK A2980
RPLL,2025-09-17 14:00,RPLL 171400Z 11004KT 080V150 9999 -SHRA FEW025 OVC100 27/26 Q1010 NOSIG RMK A2983
RPLL,2025-09-17 15:00,RPLL 171500Z VRB02KT 9999 FEW025 BKN100 28/26 Q1010 NOSIG RMK A2983
RPLL,2025-09-17 16:00,RPLL 171600Z 09003KT 9999 FEW025 BKN100 27/26 Q1010 NOSIG RMK A2983
RPLL,2025-09-17 17:00,RPLL 171700Z 09002KT 9999 FEW025 BKN100 27/26 Q1009 NOSIG RMK A2980
RPLL,2025-09-17 18:00,RPLL 171800Z 12003KT 080V170 9999 FEW025 BKN100 20/26 Q1008 NOSIG RMK A2977
RPLL,2025-09-17 19:00,RPLL 171900Z 15003KT 110V200 9999 FEW025 OVC100 28/26 Q1008 NOSIG RMK A2977
RPLL,2025-09-17 20:00,RPLL 172000Z VRB02KT 9999 FEW025 OVC100 27/26 Q1008 NOSIG RMK A2977
RPLL,2025-09-17 21:00,RPLL 172100Z COR VRB02KT 9999 FEW025 BKN100 27/26 Q1008 NOSIG RMK A2977
RPLL,2025-09-17 22:00,RPLL 172200Z VRB01KT 9999 FEW025 BKN100 27/26 Q1009 NOSIG RMK A2980
RPLL,2025-09-17 23:00,RPLL 172300Z 08002KT 9999 FEW025 BKN100 28/26 Q1010 NOSIG RMK A2983
RPLL,2025-09-18 00:00,RPLL 180000Z 12003KT 050V180 9999 FEW025 BKN100 30/26 Q1010 NOSIG RMK A2983
RPLL,2025-09-18 01:00,RPLL 180100Z VRB03KT 9999 FEW025 BKN100 31/26 Q1011 NOSIG RMK A2985
RPLL,2025-09-18 02:00,RPLL 180200Z 24005KT 160V280 9999 FEW025 BKN100 30/26 Q1010 NOSIG RMK A2985
RPLL,2025-09-18 02:48,RPLL 180248Z VRB04KT 8000 -SHRA FEW025 OVC100 28/26 Q1010 NOSIG RMK A2983
RPLL,2025-09-18 03:00,RPLL 180300Z VRB05G17KT 9000 -SHRA SCT025 OVC100 29/25 Q1010 NOSIG RMK A2983
RPLL,2025-09-18 04:00,RPLL 180400Z 28007KT 9999 FEW025 BKN100 30/25 Q1009 NOSIG RMK A2980
RPLL,2025-09-18 04:20,RPLL 180420Z 27008KT 240V300 8000 -TSRA FEW023CB SCT025 OVC100 29/26 Q1009 TEMPO 4000 TSRA RMK A2980 CB SE/OHD
RPLL,2025-09-18 05:00,RPLL 180500Z VRB02KT 8000 -TSRA FEW022CB SCT023 OVC100 25/5 Q1009 NOSIG RMK A2980 CB/OHD SE/S
RPLL,2025-09-18 06:00,RPLL 180600Z VRB02KT 9000 FEW022CB SCT023 OVC100 28/26 Q1009 RETSRA NOSIG RMK A2980 CB NE
RPLL,2025-09-18 07:00,RPLL 180700Z 30003KT 250V340 9999 FEW025 BKN100 29/24 Q1008 NOSIG RMK A2977
RPLL,2025-09-18 08:00,RPLL 180800Z 21008KT 9999 SCT018 BKN080 29/25 Q1009 RMK A2980
RPLL,2025-09-18 09:00,RPLL 180900Z VRB01KT 9999 FEW025 BKN100 29/26 Q1009 NOSIG RMK A2980
RPLL,2025-09-18 10:00,RPLL 181000Z 13003KT 090V160 9999 FEW025 BKN100 28/26 Q1009 NOSIG RMK A2980
RPLL,2025-09-18 11:00,RPLL 181100Z 11003KT 090V150 9999 FEW025 BKN100 28/26 Q1010 NOSIG RMK A2983
RPLL,2025-09-18 12:00,RPLL 181200Z VRB02KT 9999 SCT025 BKN100 28/26 Q1011 NOSIG RMK A2985
RPLL,2025-09-18 13:00,COR RPLL 181300Z VRB02KT 9999 SCT025 BKN100 28/26 Q1012 NOSIG RMK A2988
RPLL,2025-09-18 14:00,RPLL 181400Z 21003KT 160V260 9999 SCT025 BKN100 28/27 Q1012 NOSIG RMK A2988
RPLL,2025-09-18 15:00,RPLL 181500Z 16003KT 090V200 9000 SCT025 BKN100 27/27 Q1011 NOSIG RMK A2985
RPLL,2025-09-18 16:00,RPLL 181600Z 19003KT 110V250 9999 FEW025 SCT100 27/26 Q1011 NOSIG RMK A2985
RPLL,2025-09-18 17:00,RPLL 181700Z VRB02KT 9999 FEW025 SCT100 27/26 Q1011 NOSIG RMK A2985
RPLL,2025-09-18 18:00,RPLL 181800Z VRB01KT 9999 FEW025 SCT100 26/26 Q1011 NOSIG RMK A2985
RPLL,2025-09-18 19:00,RPLL 181900Z 00000KT 9999 FEW025 26/26 Q1010 NOSIG RMK A2983
RPLL,2025-09-18 20:00,RPLL 182000Z VRB01KT 9999 FEW025 26/26 Q1010 NOSIG RMK A2983
RPLL,2025-09-18 21:00,RPLL 182100Z VRB01KT 9999 FEW025 SCT100 26/26 Q1011 NOSIG RMK A2985
RPLL,2025-09-18 22:00,COR RPLL 182200Z 00000KT 9999 FEW023CB 26/26 Q1011 NOSIG RMK A2985 CB NW
RPLL,2025-09-18 23:00,RPLL 182300Z VRB02KT 9000 FEW023CB SCT100 28/26 Q1011 NOSIG RMK A2985 CB NW
RPLL,2025-09-19 00:00,RPLL 190000Z VRB02KT 9000 SCT025 BKN100 30/26 Q1012 NOSIG RMK A2988
RPLL,2025-09-19 01:00,RPLL 190100Z 27006KT 240V310 9999 SCT025 BKN100 30/26 Q1012 NOSIG RMK A2988
RPLL,2025-09-19 02:00,RPLL 190200Z 29007KT 170V330 9999 SCT025 BKN100 30/26 Q1012 NOSIG RMK A2988
RPLL,2025-09-19 03:00,RPLL 190300Z 29006KT 260V330 9999 -RA SCT025 BKN100 30/26 Q1012 NOSIG RMK A2988
RPLL,2025-09-19 04:00,RPLL 190400Z 29008KT 9999 -RA SCT025 BKN100 30/26 Q1011 NOSIG RMK A2985
RPLL,2025-09-19 05:00,RPLL 190500Z 29008KT 9999 SCT025 BKN100 31/26 Q1010 NOSIG RMK A2983
RPLL,2025-09-19 06:00,RPLL 190600Z 29009KT 9999 SCT025 BKN100 31/26 Q1009 NOSIG RMK A2980
RPLL,2025-09-19 07:00,RPLL 190700Z 26013KT 9999 SCT025 BKN100 30/26 Q1009 NOSIG RMK A2980
RPLL,2025-09-19 08:00,RPLL 190800Z 26012KT 9999 FEW025 SCT100 30/26 Q1009 NOSIG RMK A2980
RPLL,2025-09-19 09:00,RPLL 190900Z 26010KT 240V300 9999 FEW025 SCT100 29/26 Q1009 NOSIG RMK A2980
RPLL,2025-09-19 10:00,RPLL 191000Z 27009KT 9999 SCT025 BKN100 29/26 Q1010 NOSIG RMK A2983
RPLL,2025-09-19 11:00,COR RPLL 191100Z 27008G18KT 9999 FEW025 29/26 Q1011 NOSIG RMK A2985
RPLL,2025-09-19 12:00,RPLL 191200Z 28007KT 9999 FEW025 29/26 Q1011 NOSIG RMK A2985
RPLL,2025-09-19 13:00,RPLL 191300Z 29007KT 9999 FEW025 SCT100 29/26 Q1012 NOSIG RMK A2988
RPLL,2025-09-19 14:00,RPLL 191400Z VRB02KT 9000 -RA SCT023 BKN090 26/26 Q1012 NOSIG RMK A2988
RPLL,2025-09-19 15:00,RPLL 191500Z 27003KT 200V310 9999 FEW025 BKN100 27/26 Q1012 NOSIG RMK A2988
RPLL,2025-09-19 16:00,RPLL 191600Z 28003KT 200V340 9999 FEW025 BKN100 28/25 Q1012 NOSIG RMK A2988
RPLL,2025-09-19 17:00,RPLL 191700Z 28004KT 250V310 9999 FEW023 BKN100 28/25 Q1011 NOSIG RMK A2985
RPLL,2025-09-19 18:00,RPLL 191800Z 30004KT 270V340 9999 FEW023 BKN100 28/25 Q1010 NOSIG RMK A2983
RPLL,2025-09-19 19:00,RPLL 191900Z 35004KT 260V020 9999 FEW023 BKN100 27/26 Q1009 NOSIG RMK A2980
RPLL,2025-09-19 20:00,RPLL 192000Z 31003KT 280V010 9999 FEW023 BKN100 27/25 Q1009 NOSIG RMK A2980
RPLL,2025-09-19 21:00,RPLL 192100Z 26005KT 9999 FEW023 BKN100 26/25 Q1009 NOSIG RMK A2980
RPLL,2025-09-19 22:00,RPLL 192200Z 26005KT 9999 FEW023 BKN100 26/25 Q1009 NOSIG RMK A2980
RPLL,2025-09-19 23:00,RPLL 192300Z 22004KT 9999 SCT023 BKN100 27/25 Q1009 NOSIG RMK A2980
RPLL,2025-09-20 00:00,RPLL 200000Z 22003KT 190V260 9999 SCT023 BKN100 27/24 Q1010 NOSIG RMK A2983
RPLL,2025-09-20 01:00,RPLL 200100Z 26006KT 9999 SCT023 BKN100 28/25 Q1010 NOSIG RMK A2983
RPLL,2025-09-20 02:00,RPLL 200200Z 28006G18KT 9999 SCT023 BKN100 29/25 Q1010 NOSIG RMK A2983
RPLL,2025-09-20 03:00,RPLL 200300Z 27008KT 9999 SCT023 BKN100 29/26 Q1010 NOSIG RMK A2983
RPLL,2025-09-20 04:00,RPLL 200400Z 27013KT 9999 SCT023 BKN100 30/26 Q1009 NOSIG RMK A2980
RPLL,2025-09-20 05:00,RPLL 200500Z 26015KT 9000 -RA BKN023 OVC100 29/27 Q1008 NOSIG RMK A2977
RPLL,2025-09-20 06:00,RPLL 200600Z 28009KT 9999 -RA SCT023 BKN100 28/26 Q1008 NOSIG RMK A2977
RPLL,2025-09-20 07:00,RPLL 200700Z 25013KT 9999 SCT023 BKN100 30/26 Q1007 NOSIG RMK A2974
RPLL,2025-09-20 08:00,RPLL 200800Z 26013KT 9999 SCT023 BKN100 29/26 Q1007 NOSIG RMK A2974
RPLL,2025-09-20 09:00,RPLL 200900Z 26009KT 9000 -RA BKN023 OVC100 28/26 Q1007 TEMPO 5000 RA RMK A2974
RPLL,2025-09-20 10:00,RPLL 201000Z 26006KT 9000 -RA BKN023 OVC100 28/27 Q1008 NOSIG RMK A2977
RPLL,2025-09-20 11:00,RPLL 201100Z 26006KT 9000 -RA SCT023 OVC090 28/27 Q1008 NOSIG RMK A2977
RPLL,2025-09-20 12:00,RPLL 201200Z VRB02KT 9000 -RA SCT023 OVC090 28/27 Q1009 NOSIG RMK A2980
RPLL,2025-09-20 13:00,RPLL 201300Z 27004KT 250V310 9999 SCT023 OVC100 28/27 Q1009 NOSIG RMK A2980
RPLL,2025-09-20 14:00,COR RPLL 201400Z 25006G16KT 230V320 9999 SCT023 OVC100 28/27 Q1009 NOSIG RMK A2980
RPLL,2025-09-20 14:28,RPLL 201428Z 32005G16KT 270V350 9999 -RA BKN022 OVC100 28/26 Q1009 NOSIG RMK A2980
RPLL,2025-09-20 15:00,RPLL 201500Z 29007KT 270V330 9999 -RA BKN023 OVC100 28/27 Q1009 NOSIG RMK A2980
RPLL,2025-09-20 16:00,RPLL 201600Z VRB08G22KT 9999 -RA SCT023 OVC100 27/26 Q1009 NOSIG RMK A2980
RPLL,2025-09-20 17:00,RPLL 201700Z 34006G19KT 300V110 9000 -RA SCT023 OVC100 27/26 Q1008 NOSIG RMK A2977
RPLL,2025-09-20 18:00,RPLL 201800Z 33006KT 9000 -RA SCT023 OVC100 26/26 Q1007 NOSIG RMK A2974
RPLL,2025-09-20 19:00,RPLL 201900Z 35008KT 320V020 9000 -RA SCT023 OVC100 26/26 Q1006 NOSIG RMK A2971
RPLL,2025-09-20 20:00,RPLL 202000Z 01007KT 340V040 9999 SCT023 BKN090 26/25 Q1006 NOSIG RMK A2971
RPLL,2025-09-20 21:00,RPLL 202100Z 34004KT 300V030 9999 FEW025 BKN100 25/24 Q1006 NOSIG RMK A2971
RPLL,2025-09-20 22:00,RPLL 202200Z 31004KT 260V030 9999 FEW025 SCT100 26/24 Q1006 NOSIG RMK A2971
RPLL,2025-09-20 23:00,RPLL 202300Z 33004KT 280V020 9999 FEW025 SCT100 27/24 Q1007 NOSIG RMK A2974
RPLL,2025-09-21 00:00,RPLL 210000Z 33004KT 280V040 9999 SCT025 BKN100 27/25 Q1008 NOSIG RMK A2977
RPLL,2025-09-21 01:00,RPLL 210100Z VRB03KT 9999 FEW025 BKN100 29/25 Q1008 NOSIG RMK A2977
RPLL,2025-09-21 02:00,RPLL 210200Z 28006KT 230V330 9999 FEW025 SCT100 29/25 Q1008 NOSIG RMK A2977
RPLL,2025-09-21 03:00,RPLL 210300Z 29007KT 250V340 9999 FEW025 30/26 Q1007 NOSIG RMK A2974
RPLL,2025-09-21 04:00,RPLL 210400Z 29009KT 250V320 9999 FEW025 SCT130 30/26 Q1007 NOSIG RMK A2974
RPLL,2025-09-21 05:00,RPLL 210500Z 27014KT 9999 FEW025 31/26 Q1005 NOSIG RMK A2968
RPLL,2025-09-21 06:00,RPLL 210600Z 25018KT 9999 -SHRA FEW023 SCT025 28/25 Q1005 NOSIG RMK A2968
RPLL,2025-09-21 07:00,RPLL 210700Z 24015KT 8000 -RA SCT023 BKN100 28/24 Q1004 NOSIG RMK A2965
RPLL,2025-09-21 08:00,RPLL 210800Z 25017KT 9999 SCT023 BKN100 27/25 Q1005 NOSIG RMK A2968
RPLL,2025-09-21 09:00,RPLL 210900Z 25012KT 9999 SCT022 BKN100 27/25 Q1004 NOSIG RMK A2965
RPLL,2025-09-21 10:00,RPLL 211000Z 25009KT 210V270 9999 SCT022 BKN100 28/26 Q1005 NOSIG RMK A2968
RPLL,2025-09-21 11:00,RPLL 211100Z 26008KT 230V290 9999 FEW025 SCT100 27/25 Q1006 NOSIG RMK A2971
RPLL,2025-09-21 12:00,RPLL 211200Z 23007KT 210V270 9999 FEW022 SCT100 27/26 Q1006 NOSIG RMK A2971
RPLL,2025-09-21 13:00,RPLL 211300Z 23005KT 200V260 9999 FEW022 SCT100 27/25 Q1006 NOSIG RMK A2971
RPLL,2025-09-21 14:00,RPLL 211400Z 23008KT 200V270 9999 SCT022 BKN100 27/26 Q1006 NOSIG RMK A2971
RPLL,2025-09-21 15:00,RPLL 211500Z 23009KT 190V250 9999 -RA SCT023 BKN100 27/26 Q1006 NOSIG RMK A2971
RPLL,2025-09-21 16:00,RPLL 211600Z 24007KT 9999 SCT023 BKN100 27/26 Q1006 NOSIG RMK A2971
RPLL,2025-09-21 17:00,RPLL 211700Z 24011KT 200V270 9999 SCT023 BKN100 27/26 Q1005 NOSIG RMK A2968
RPLL,2025-09-21 18:00,RPLL 211800Z 24009KT 210V270 9999 SCT023 BKN100 26/25 Q1004 NOSIG RMK A2965
RPLL,2025-09-21 19:00,RPLL 211900Z 23010KT 9999 SCT023 27/26 Q1003 NOSIG RMK A2962
RPLL,2025-09-21 20:00,RPLL 212000Z 24013KT 9999 FEW023 SCT100 27/25 Q1003 NOSIG RMK A2962
RPLL,2025-09-21 21:00,RPLL 212100Z 24014G25KT 9999 SCT023 SCT100 27/25 Q1003 NOSIG RMK A2962
RPLL,2025-09-21 22:00,RPLL 212200Z 24012KT 9999 SCT023 SCT100 27/25 Q1004 NOSIG RMK A2965
RPLL,2025-09-21 23:00,RPLL 212300Z 25015KT 9999 SCT023 BKN100 28/26 Q1004 NOSIG RMK A2965
RPLL,2025-09-22 00:00,RPLL 220000Z 26012G27KT 9999 SCT023 BKN100 29/26 Q1005 NOSIG RMK A2968
RPLL,2025-09-22 01:00,RPLL 220100Z 25016KT 9999 SCT023 BKN100 30/27 Q1004 NOSIG RMK A2965
RPLL,2025-09-22 01:08,COR RPLL 220108Z 24020G33KT 9000 -SHRA SCT023 BKN100 27/26 Q1004 NOSIG RMK A2965
RPLL,2025-09-22 02:00,RPLL 220200Z 25014KT 9999 SCT025 BKN100 29/26 Q1004 NOSIG RMK A2965
RPLL,2025-09-22 03:00,RPLL 220300Z 25015KT 210V270 9999 -SHRA SCT023 OVC100 29/27 Q1004 NOSIG RMK A2965
RPLL,2025-09-22 04:00,RPLL 220400Z 26018KT 9999 SCT023 OVC100 30/27 Q1003 NOSIG RMK A2962
RPLL,2025-09-22 05:00,RPLL 220500Z 25015KT 9000 -RA SCT023 OVC100 29/27 Q1003 NOSIG RMK A2962
RPLL,2025-09-22 06:00,RPLL 220600Z 24017G27KT 9000 -RA SCT023 OVC100 28/26 Q1002 NOSIG RMK A2959
RPLL,2025-09-22 07:00,RPLL 220700Z 23010KT 9000 -RA SCT023 OVC090 27/26 Q1002 NOSIG RMK A2959
RPLL,2025-09-22 07:35,RPLL 220735Z 23011KT 200V260 5000 RA SCT022 OVC090 26/26 Q1002 NOSIG RMK A2959
RPLL,2025-09-22 08:00,COR RPLL 220800Z 24012G22KT 200V260 5000 RA BKN022 OVC080 26/26 Q1002 NOSIG RMK A2959
RPLL,2025-09-22 08:49,RPLL 220849Z 25007G38KT 1000 +RA BKN020 OVC080 25/25 Q1003 NOSIG RMK A2962
RPLL,2025-09-22 09:00,RPLL 220900Z 23022G33KT 1000 +RA BKN020 OVC080 24/24 Q1003 NOSIG RMK A2962
RPLL,2025-09-22 10:00,RPLL 221000Z 23010KT 200V260 5000 RA BKN020 OVC080 25/25 Q1003 RERA NOSIG RMK A2962
RPLL,2025-09-22 11:00,RPLL 221100Z 23010KT 7000 -RA SCT022 BKN080 26/25 Q1004 RERA TEMPO 5000 RA RMK A2965
RPLL,2025-09-22 12:00,RPLL 221200Z 23006KT 180V270 5000 RA SCT020 OVC080 26/26 Q1004 RERA NOSIG RMK A2965
RPLL,2025-09-22 13:00,RPLL 221300Z 22006KT 180V250 8000 -RA FEW022 OVC090 27/25 Q1005 RERA NOSIG RMK A2968
RPLL,2025-09-22 14:00,RPLL 221400Z 22006KT 180V260 9000 -RA FEW023 OVC090 27/25 Q1005 NOSIG RMK A2968
RPLL,2025-09-22 15:00,RPLL 221500Z 22006KT 9000 -RA FEW023 BKN100 27/25 Q1005 NOSIG RMK A2968
RPLL,2025-09-22 16:00,RPLL 221600Z 23007KT 9999 FEW025 27/25 Q1005 NOSIG RMK A2968
RPLL,2025-09-22 17:00,RPLL 221700Z 22004KT 180V260 9999 FEW025 27/25 Q1005 NOSIG RMK A2968
RPLL,2025-09-22 18:00,RPLL 221800Z 22005KT 9999 FEW025 27/25 Q1004 NOSIG RMK A2965
RPLL,2025-09-22 19:00,RPLL 221900Z 21004KT 180V260 9999 FEW025 27/25 Q1004 NOSIG RMK A2965
RPLL,2025-09-22 20:00,RPLL 222000Z 18003KT 140V210 9999 FEW025 BKN100 27/26 Q1004 NOSIG RMK A2965
RPLL,2025-09-22 21:00,RPLL 222100Z VRB02KT 9999 FEW025 SCT100 27/26 Q1004 NOSIG RMK A2965
RPLL,2025-09-22 22:00,RPLL 222200Z 22008KT 190V250 9999 SCT025 SCT100 27/25 Q1004 NOSIG RMK A2965
RPLL,2025-09-22 23:00,RPLL 222300Z 22013KT 9999 -SHRA SCT025 BKN100 26/24 Q1005 NOSIG RMK A2968
RPLL,2025-09-23 00:00,RPLL 230000Z 22009KT 9999 SCT023 BKN100 27/25 Q1006 NOSIG RMK A2971
RPLL,2025-09-23 01:00,RPLL 230100Z 21009KT 170V260 9999 -SHRA FEW025 BKN100 28/26 Q1006 NOSIG RMK A2971
RPLL,2025-09-23 02:00,RPLL 230200Z 19007G18KT 140V260 9000 -RA FEW025 BKN100 29/26 Q1007 NOSIG RMK A2974
RPLL,2025-09-23 03:00,RPLL 230300Z 23006KT 200V260 9000 -RA FEW025 OVC100 26/25 Q1007 NOSIG RMK A2974
RPLL,2025-09-23 04:00,RPLL 230400Z 22006KT 150V280 9999 FEW025 BKN100 29/26 Q1006 NOSIG RMK A2971
RPLL,2025-09-23 05:00,RPLL 230500Z 22010KT 190V260 9999 FEW025 BKN100 31/25 Q1005 NOSIG RMK A2968
RPLL,2025-09-23 05:18,RPLL 230518Z 22013G25KT 180V240 9000 -RA SCT023 BKN100 28/25 Q1005 NOSIG RMK A2968
RPLL,2025-09-23 06:00,RPLL 230600Z 21008KT 180V250 9999 FEW025 BKN100 30/25 Q1004 NOSIG RMK A2965
RPLL,2025-09-23 07:00,RPLL 230700Z 19007KT 160V230 9999 FEW025 BKN100 31/25 Q1004 NOSIG RMK A2965
RPLL,2025-09-23 08:00,RPLL 230800Z 22008G18KT 180V260 9999 FEW025 BKN100 31/24 Q1005 NOSIG RMK A2968
RPLL,2025-09-23 08:39,RPLL 230839Z 25019G29KT 5000 SHRA SCT023 OVC090 23/23 Q1007 NOSIG RMK A2974
RPLL,2025-09-23 09:00,RPLL 230900Z 24022G34KT 5000 RA SCT023 OVC090 23/23 Q1007 RESHRA NOSIG RMK A2974
RPLL,2025-09-23 10:00,RPLL 231000Z 22008KT 180V250 8000 -RA SCT023 OVC090 25/25 Q1007 RERA NOSIG RMK A2974
RPLL,2025-09-23 11:00,RPLL 231100Z VRB02KT 8000 -RA SCT023 OVC090 25/25 Q1007 NOSIG RMK A2974
RPLL,2025-09-23 12:00,RPLL 231200Z 25017KT 8000 -RA SCT023 OVC090 25/24 Q1008 NOSIG RMK A2977
RPLL,2025-09-23 13:00,RPLL 231300Z 23003KT 190V270 8000 -RA SCT023 OVC090 25/24 Q1008 NOSIG RMK A2977
RPLL,2025-09-23 14:00,RPLL 231400Z VRB02KT 9000 -RA SCT023 OVC100 25/25 Q1009 NOSIG RMK A2980
RPLL,2025-09-23 15:00,RPLL 231500Z 09003KT 060V120 9999 FEW025 SCT150 25/25 Q1008 NOSIG RMK A2977
RPLL,2025-09-23 16:00,RPLL 231600Z VRB02KT 9999 FEW023CB SCT025 SCT100 25/25 Q1008 NOSIG RMK A2977 CB N
RPLL,2025-09-23 17:00,RPLL 231700Z 22003KT 120V290 9000 -SHRA FEW023CB SCT025 BKN090 25/25 Q1007 TEMPO 5000 SHRA RMK A2974 CB N
RPLL,2025-09-23 18:00,RPLL 231800Z 19003KT 120V230 9999 FEW025 SCT100 25/25 Q1007 NOSIG RMK A2974
RPLL,2025-09-23 19:00,RPLL 231900Z VRB02KT 9999 FEW023 BKN100 25/25 Q1007 NOSIG RMK A2974
RPLL,2025-09-23 20:00,RPLL 232000Z VRB02KT 9999 FEW023 BKN100 25/25 Q1006 NOSIG RMK A2971
RPLL,2025-09-23 21:00,RPLL 232100Z VRB02KT 9999 FEW023 BKN100 25/25 Q1007 NOSIG RMK A2974
RPLL,2025-09-23 22:00,RPLL 232200Z VRB02KT 9999 FEW023 BKN100 25/25 Q1007 NOSIG RMK A2974
RPLL,2025-09-23 23:00,RPLL 232300Z VRB02KT 9999 FEW023 BKN100 26/25 Q1007 NOSIG RMK A2974
RPLL,2025-09-24 00:00,RPLL 240000Z 08004KT 060V130 9999 FEW023 BKN100 27/25 Q1008 NOSIG RMK A2977
RPLL,2025-09-24 01:00,RPLL 240100Z 10003KT 040V190 9999 FEW023 BKN100 28/25 Q1008 NOSIG RMK A2977
RPLL,2025-09-24 02:00,RPLL 240200Z 14003KT 090V200 9999 FEW025 BKN100 28/25 Q1008 NOSIG RMK A2977
RPLL,2025-09-24 05:00,RPLL 240500Z 12004KT 080V200 9999 FEW025 BKN100 30/24 Q1007 NOSIG RMK A2974
RPLL,2025-09-24 05:20,RPLL 240520Z 13005KT 090V210 9000 -SHRA SCT025 BKN100 27/26 Q1007 NOSIG RMK A2974
RPLL,2025-09-24 06:00,RPLL 240600Z 10005KT 060V130 9999 FEW025 OVC100 28/26 Q1006 NOSIG RMK A2971
RPLL,2025-09-24 06:29,RPLL 240629Z 08003KT 9000 -RA FEW025 OVC100 28/26 Q1006 NOSIG RMK A2971
RPLL,2025-09-24 07:00,RPLL 240700Z 31005KT 260V020 8000 -RA SCT023 OVC090 27/26 Q1006 NOSIG RMK A2971
RPLL,2025-09-24 08:00,RPLL 240800Z 10003KT 060V140 9000 -RA FEW022CB SCT023 OVC100 28/26 Q1006 NOSIG RMK A2971 CB S
RPLL,2025-09-24 09:00,COR RPLL 240900Z VRB02KT 9000 FEW022CB SCT023 OVC100 28/26 Q1007 NOSIG RMK A2974 CB SE S
RPLL,2025-09-24 10:00,RPLL 241000Z 10004KT 9999 FEW023 BKN100 27/26 Q1007 NOSIG RMK A2974
RPLL,2025-09-24 11:00,RPLL 241100Z 25009KT 9999 -RA SCT023 OVC100 26/26 Q1008 NOSIG RMK A2977
RPLL,2025-09-24 12:00,RPLL 241200Z VRB01KT 8000 -RA SCT023 OVC100 25/25 Q1008 NOSIG RMK A2977
RPLL,2025-09-24 13:00,RPLL 241300Z 00000KT 9999 FEW025 OVC100 25/25 Q1009 NOSIG RMK A2980
RPLL,2025-09-24 14:00,RPLL 241400Z VRB02KT 9999 SCT022 BKN100 26/26 Q1009 NOSIG RMK A2980
RPLL,2025-09-24 15:00,RPLL 241500Z VRB02KT 9000 FEW023 BKN100 26/26 Q1009 NOSIG RMK A2980
RPLL,2025-09-24 16:00,RPLL 241600Z VRB01KT 9999 FEW025 BKN100 26/26 Q1009 NOSIG RMK A2980
RPLL,2025-09-24 17:00,RPLL 241700Z VRB01KT 9999 FEW025 BKN100 26/26 Q1008 NOSIG RMK A2977
RPLL,2025-09-24 18:00,RPLL 241800Z VRB01KT 9999 FEW025 SCT100 26/25 Q1008 NOSIG RMK A2977
RPLL,2025-09-24 19:00,RPLL 241900Z VRB02KT 9999 SCT023 OVC090 26/25 Q1007 NOSIG RMK A2974
RPLL,2025-09-24 20:00,RPLL 242000Z VRB02KT 9999 FEW025 SCT100 25/25 Q1007 NOSIG RMK A2974
RPLL,2025-09-24 21:00,RPLL 242100Z VRB01KT 9999 FEW025 SCT100 25/25 Q1008 NOSIG RMK A2977
RPLL,2025-09-24 22:00,RPLL 242200Z 00000KT 9999 FEW025 25/25 Q1008 NOSIG RMK A2977
RPLL,2025-09-24 23:00,RPLL 242300Z VRB02KT 9999 FEW025 SCT100 27/26 Q1009 NOSIG RMK A2980
RPLL,2025-09-25 00:00,RPLL 250000Z 11005KT 080V180 9999 FEW025 SCT100 28/25 Q1009 NOSIG RMK A2980
RPLL,2025-09-25 01:00,RPLL 250100Z VRB02KT 9999 FEW025 30/25 Q1009 NOSIG RMK A2980
RPLL,2025-09-25 02:00,RPLL 250200Z VRB03KT 9999 FEW025 31/24 Q1009 NOSIG RMK A2980
RPLL,2025-09-25 03:00,RPLL 250300Z 09004KT 020V160 9999 FEW025 32/23 Q1009 NOSIG RMK A2980
RPLL,2025-09-25 04:00,RPLL 250400Z 17003KT 080V230 9999 FEW025 32/22 Q1008 NOSIG RMK A2977
RPLL,2025-09-25 05:00,RPLL 250500Z 18003KT 080V250 9999 FEW025 33/22 Q1007 NOSIG RMK A2974
RPLL,2025-09-25 06:00,RPLL 250600Z 27010KT 9999 FEW025 31/26 Q1007 NOSIG RMK A2974
RPLL,2025-09-25 07:00,RPLL 250700Z 26010KT 220V300 9999 FEW023CB SCT025 BKN100 30/24 Q1006 NOSIG RMK A2971 CB N-NE
RPLL,2025-09-25 08:00,RPLL 250800Z 04017KT 8000 -TSRA SCT020CB OVC090 27/26 Q1007 TEMPO 5000 TSRA RMK A2974 CB OHD  N-S
RPLL,2025-09-25 09:00,COR RPLL 250900Z 21004KT 170V250 8000 -RA FEW022CB SCT023 OVC090 26/25 Q1008 RETS TEMPO 5000 RA RMK A2977 CB SW
RPLL,2025-09-25 10:00,RPLL 251000Z 22007KT 9000 -RA SCT023 OVC090 26/26 Q1009 NOSIG RMK A2980
RPLL,2025-09-25 11:00,RPLL 251100Z VRB02KT 9999 FEW023 SCT100 26/25 Q1009 NOSIG RMK A2980
RPLL,2025-09-25 12:00,RPLL 251200Z VRB01KT 9999 -RA FEW023 BKN100 26/24 Q1010 NOSIG RMK A2983
RPLL,2025-09-25 13:00,RPLL 251300Z VRB02KT 9999 -RA FEW023 BKN100 26/25 Q1009 NOSIG RMK A2980
RPLL,2025-09-25 14:00,RPLL 251400Z 33003KT 310V030 9999 FEW023 26/24 Q1009 NOSIG RMK A2980
RPLL,2025-09-25 15:00,RPLL 251500Z VRB01KT 9000 FEW025 26/25 Q1009 NOSIG RMK A2980
RPLL,2025-09-25 16:00,RPLL 251600Z VRB02KT 9000 -RA FEW025 BKN100 26/26 Q1008 NOSIG RMK A2977
RPLL,2025-09-25 17:00,RPLL 251700Z 26003KT 230V300 7000 -RA SCT023 OVC100 26/26 Q1008 NOSIG RMK A2977
RPLL,2025-09-25 18:00,RPLL 251800Z 25004KT 220V310 7000 FEW025 OVC100 26/26 Q1007 NOSIG RMK A2974
RPLL,2025-09-25 19:00,RPLL 251900Z 33004KT 290V050 8000 FEW025 BKN100 26/26 Q1007 NOSIG RMK A2974
RPLL,2025-09-25 20:00,RPLL 252000Z 33005KT 300V020 9000 FEW025 BKN100 27/26 Q1006 NOSIG RMK A2971
RPLL,2025-09-25 21:00,RPLL 252100Z 34005KT 310V030 9000 FEW025 BKN100 26/25 Q1005 NOSIG RMK A2968
RPLL,2025-09-25 22:00,RPLL 252200Z 34005KT 300V030 9000 SCT023 BKN100 27/25 Q1006 NOSIG RMK A2971
RPLL,2025-09-25 22:10,RPLL 252210Z 35006KT 330V030 9000 -RA SCT023 OVC090 26/25 Q1006 NOSIG RMK A2971
RPLL,2025-09-25 23:00,RPLL 252300Z 35007KT 300V020 7000 -RA SCT023 OVC100 26/25 Q1006 NOSIG RMK A2971
RPLL,2025-09-26 00:00,RPLL 260000Z 36009KT 320V040 6000 RA FEW022 OVC080 26/25 Q1006 NOSIG RMK A2971
RPLL,2025-09-26 01:00,RPLL 260100Z 01008KT 320V050 5000 RA FEW022 OVC080 26/26 Q1006 NOSIG RMK A2971
RPLL,2025-09-26 02:00,RPLL 260200Z 36011KT 320V030 6000 -SHRA SCT018CB SCT020 OVC080 27/26 Q1005 NOSIG RMK A2968 CB E-SW
RPLL,2025-09-26 02:27,RPLL 260227Z 02008KT 350V050 3000 +TSRA BKN018CB SCT020 OVC060 26/26 Q1006 NOSIG RMK A2971 CB OHD/NE-SW
RPLL,2025-09-26 03:00,RPLL 260300Z VRB04KT 1000 +TSRA BKN018CB SCT020 OVC060 25/25 Q1006 TEMPO 5000 TSRA RMK A2971 CB OHD/NE/SW-NW
RPLL,2025-09-26 03:20,RPLL 260320Z VRB03KT 7000 SCT020 OVC080 26/26 Q1005 RETSRA NOSIG RMK A2968
RPLL,2025-09-26 04:00,RPLL 260400Z 05007KT 020V080 9999 SCT020 OVC080 28/27 Q1005 NOSIG RMK A2968
RPLL,2025-09-26 05:00,RPLL 260500Z 07011KT 9999 SCT020 OVC080 30/26 Q1004 NOSIG RMK A2965
RPLL,2025-09-26 06:00,RPLL 260600Z 09014KT 060V130 9999 SCT020 OVC080 30/24 Q1004 NOSIG RMK A2965
RPLL,2025-09-26 07:00,RPLL 260700Z 08016KT 9999 SCT020 OVC080 29/24 Q1003 NOSIG RMK A2962
RPLL,2025-09-26 07:30,RPLL 260730Z 09015G29KT 9999 SCT025 BKN100 29/24 Q1003 NOSIG RMK A2962
RPLL,2025-09-26 08:00,RPLL 260800Z 09012KT 060V120 9999 FEW025 SCT100 29/24 Q1004 NOSIG RMK A2965
RPLL,2025-09-26 09:00,RPLL 260900Z 11013KT 9999 SCT025 OVC100 28/25 Q1004 NOSIG RMK A2965
RPLL,2025-09-26 10:00,RPLL 261000Z 12012G25KT 070V150 9999 FEW025 BKN100 28/24 Q1005 NOSIG RMK A2968
RPLL,2025-09-26 11:00,RPLL 261100Z 10012KT 070V130 9999 FEW025 BKN100 28/24 Q1006 NOSIG RMK A2971
RPLL,2025-09-26 11:13,COR RPLL 261113Z 10013G25KT 070V130 9999 FEW025 BKN100 28/24 Q1007 NOSIG RMK A2974
RPLL,2025-09-26 12:00,RPLL 261200Z 10016G26KT 070V130 9999 FEW025 BKN100 28/24 Q1007 NOSIG RMK A2974
RPLL,2025-09-26 13:00,RPLL 261300Z 11011KT 080V140 9999 FEW025 BKN100 28/24 Q1009 NOSIG RMK A2980
RPLL,2025-09-26 13:33,RPLL 261333Z 12012G23KT 090V150 9999 FEW025 BKN100 28/24 Q1009 NOSIG RMK A2980
RPLL,2025-09-26 14:00,RPLL 261400Z 12010KT 080V160 9999 FEW025 BKN100 28/24 Q1010 NOSIG RMK A2983
RPLL,2025-09-26 14:24,RPLL 261424Z 12012G22KT 080V150 9999 -RA FEW025 BKN100 27/24 Q1009 NOSIG RMK A2980
RPLL,2025-09-26 15:00,RPLL 261500Z 11008KT 070V160 9999 FEW025 OVC100 27/24 Q1009 NOSIG RMK A2980
RPLL,2025-09-26 16:00,RPLL 261600Z 11007KT 080V160 9999 FEW025 OVC100 27/23 Q1010 NOSIG RMK A2983
RPLL,2025-09-26 17:00,RPLL 261700Z 10007KT 070V130 9999 FEW025 OVC100 27/23 Q1009 NOSIG RMK A2980
RPLL,2025-09-26 18:00,RPLL 261800Z 10008KT 070V130 9999 FEW025 OVC100 27/24 Q1009 NOSIG RMK A2980
RPLL,2025-09-26 19:00,RPLL 261900Z 11006KT 070V150 9999 FEW025 BKN100 27/24 Q1009 NOSIG RMK A2980
RPLL,2025-09-26 20:00,RPLL 262000Z 11007KT 080V140 9999 FEW025 BKN100 27/24 Q1009 NOSIG RMK A2980
RPLL,2025-09-26 21:00,RPLL 262100Z 10009KT 9999 FEW025 BKN100 28/24 Q1010 NOSIG RMK A2983
RPLL,2025-09-26 22:00,RPLL 262200Z 11006KT 070V150 9999 FEW025 BKN100 27/25 Q1010 NOSIG RMK A2983
RPLL,2025-09-26 23:00,RPLL 262300Z 09008KT 060V120 9999 FEW025 BKN100 28/25 Q1011 NOSIG RMK A2985
RPLL,2025-09-27 00:00,RPLL 270000Z 11008KT 080V150 9999 FEW025 BKN100 28/25 Q1012 NOSIG RMK A2985
RPLL,2025-09-27 01:00,RPLL 270100Z 12006KT 080V180 9999 FEW025 BKN100 29/25 Q1012 NOSIG RMK A2988
RPLL,2025-09-27 02:00,RPLL 270200Z 11008KT 070V140 9999 FEW025 BKN100 30/25 Q1012 NOSIG RMK A2988
RPLL,2025-09-27 03:00,RPLL 270300Z 09009KT 070V140 9999 FEW025 BKN100 30/24 Q1011 NOSIG RMK A2985
RPLL,2025-09-27 04:00,RPLL 270400Z 11008KT 070V160 9999 FEW025 BKN100 31/24 Q1011 NOSIG RMK A2985
RPLL,2025-09-27 05:00,RPLL 270500Z 11007KT 060V190 9999 FEW025 BKN100 31/24 Q1010 NOSIG RMK A2983
RPLL,2025-09-27 06:00,RPLL 270600Z 11007KT 060V180 9999 FEW025 BKN100 32/24 Q1009 A2980
RPLL,2025-09-27 07:00,RPLL 270700Z 11008KT 070V140 9999 FEW025 BKN100 31/25 Q1009 NOSIG RMK A2980
RPLL,2025-09-27 08:00,RPLL 270800Z 13006KT 070V160 9999 FEW025 BKN100 31/24 Q1009 NOSIG RMK A2980
RPLL,2025-09-27 09:00,RPLL 270900Z 14006KT 090V190 9999 FEW025 31/25 Q1010 NOSIG RMK A2983
RPLL,2025-09-27 10:00,RPLL 271000Z 17003KT 100V210 9999 FEW025 30/25 Q1010 NOSIG RMK A2983
RPLL,2025-09-27 11:00,RPLL 271100Z 14003KT 100V200 9999 FEW025 29/25 Q1011 NOSIG RMK A2985
RPLL,2025-09-27 12:00,RPLL 271200Z 14003KT 090V170 9999 FEW025 29/26 Q1012 NOSIG RMK A2988
RPLL,2025-09-27 13:00,RPLL 271300Z 18004KT 9999 FEW025 29/26 Q1012 NOSIG RMK A2988
RPLL,2025-09-27 14:00,COR RPLL 271400Z 19003KT 150V220 9999 FEW025 28/26 Q1012 NOSIG RMK A2988
RPLL,2025-09-27 15:00,RPLL 271500Z VRB02KT 9999 FEW025 28/26 Q1012 NOSIG RMK A2988
RPLL,2025-09-27 16:00,RPLL 271600Z 13004KT 080V170 9999 FEW025 28/26 Q1012 NOSIG RMK A2988
RPLL,2025-09-27 17:00,RPLL 271700Z 13005KT 100V180 9999 FEW025 SCT100 28/26 Q1011 NOSIG RMK A2985
RPLL,2025-09-27 18:00,RPLL 271800Z 14003KT 090V250 9999 FEW025 27/26 Q1011 NOSIG RMK A2985
RPLL,2025-09-27 19:00,RPLL 271900Z 13003KT 080V180 9999 FEW025 27/26 Q1011 NOSIG RMK A2985
RPLL,2025-09-27 20:00,RPLL 272000Z VRB01KT 9999 FEW025 27/26 Q1011 NOSIG RMK A2985
RPLL,2025-09-27 21:00,RPLL 272100Z 00000KT 9999 FEW025 26/26 Q1011 NOSIG RMK A2985
RPLL,2025-09-27 22:00,RPLL 272200Z 00000KT 9999 FEW025 SCT100 26/25 Q1012 NOSIG RMK A2988
RPLL,2025-09-27 23:00,RPLL 272300Z VRB01KT 9999 FEW025 28/25 Q1012 NOSIG RMK A2988
RPLL,2025-09-28 00:00,RPLL 280000Z VRB02KT 9999 FEW025 SCT100 29/26 Q1013 NOSIG RMK A2991
RPLL,2025-09-28 01:00,RPLL 280100Z VRB03KT 9999 FEW025 SCT100 30/25 Q1013 NOSIG RMK A2991
RPLL,2025-09-28 02:00,RPLL 280200Z VRB03KT 9999 FEW025 SCT100 31/25 Q1013 NOSIG RMK A2991
RPLL,2025-09-28 03:00,RPLL 280300Z VRB04KT 9999 FEW025 BKN100 32/25 Q1013 NOSIG RMK A2991
RPLL,2025-09-28 04:00,RPLL 280400Z VRB05KT 9999 FEW025 BKN100 32/26 Q1012 NOSIG RMK A2988
RPLL,2025-09-28 05:00,RPLL 280500Z 35009KT 300V030 9000 TS FEW022CB SCT023 BKN100 30/24 Q1012 TEMPO 7000 -TSRA RMK A2988 CB OHD NE-E
RPLL,2025-09-28 06:00,RPLL 280600Z 36004KT 320V030 9999 SCT025 BKN100 28/25 Q1011 RETS NOSIG RMK A2985
RPLL,2025-09-28 07:00,RPLL 280700Z VRB02KT 9999 FEW025 32/25 Q1010 NOSIG RMK A2983
RPLL,2025-09-28 08:00,RPLL 280800Z 29003KT 240V050 9999 FEW025 33/25 Q1010 NOSIG RMK A2983
RPLL,2025-09-28 09:00,RPLL 280900Z VRB03KT 9999 FEW025 33/24 Q1010 NOSIG RMK A2983
RPLL,2025-09-28 10:00,RPLL 281000Z 27006KT 9999 FEW025 BKN100 30/25 Q1011 RMK A2985
RPLL,2025-09-28 11:00,RPLL 281100Z 30005KT 250V330 9999 FEW025 SCT100 30/25 Q1011 NOSIG RMK A2985
RPLL,2025-09-28 12:00,RPLL 281200Z VRB02KT 9999 FEW025 30/25 Q1011 NOSIG RMK A2985
RPLL,2025-09-28 13:00,RPLL 281300Z VRB01KT 9999 SCT025 29/25 Q1012 NOSIG RMK A2988
RPLL,2025-09-28 14:00,RPLL 281400Z VRB01KT 9999 SCT025 29/26 Q1012 NOSIG RMK A2988
RPLL,2025-09-28 15:00,RPLL 281500Z VRB02KT 9999 FEW025 SCT100 29/27 Q1012 NOSIG RMK A2988
RPLL,2025-09-28 16:00,RPLL 281600Z VRB02KT 9999 FEW023CB SCT025 28/26 Q1012 NOSIG RMK A2988 CB/OCNL LTG W
RPLL,2025-09-28 17:00,RPLL 281700Z 22002KT 9999 FEW025 SCT100 28/26 Q1012 NOSIG RMK A2988
RPLL,2025-09-28 18:00,RPLL 281800Z VRB01KT 9999 FEW025 28/26 Q1011 NOSIG RMK A2985
RPLL,2025-09-28 19:00,RPLL 281900Z VRB01KT 9999 FEW025 27/26 Q1011 NOSIG RMK A2985
RPLL,2025-09-28 20:00,RPLL 282000Z 26003KT 220V280 9999 FEW025 SCT100 27/26 Q1011 NOSIG RMK A2985
RPLL,2025-09-28 21:00,RPLL 282100Z 00000KT 9999 FEW025 SCT100 27/26 Q1011 NOSIG RMK A2985
RPLL,2025-09-28 22:00,RPLL 282200Z VRB02KT 9999 FEW025 SCT100 27/26 Q1011 NOSIG RMK A2985
RPLL,2025-09-28 23:00,RPLL 282300Z VRB03KT 9999 FEW025 SCT100 28/25 Q1012 NOSIG RMK A2988
RPLL,2025-09-29 00:00,RPLL 290000Z 01004KT 310V070 9999 FEW025 SCT100 2925 Q1012 Q1012 NOSIG RMK A2988
RPLL,2025-09-29 01:00,RPLL 290100Z 06004KT 010V110 9999 FEW025 BKN100 31/25 Q1012 NOSIG RMK A2988
RPLL,2025-09-29 02:00,RPLL 290200Z VRB03KT 9999 FEW025 BKN100 31/26 Q1012 NOSIG RMK A2988
RPLL,2025-09-29 03:00,RPLL 290300Z 34008KT 9999 FEW023CB SCT025 BKN100 28/26 Q1012 NOSIG RMK A2988 CB/OCNL LTG W
RPLL,2025-09-29 04:00,RPLL 290400Z 31006KT 260V340 9999 FEW023CB SCT025 BKN100 29/26 Q1011 NOSIG RMK A2985 CB/OCNL LTG NW-SE
RPLL,2025-09-29 05:00,RPLL 290500Z 04012KT 360V080 6000 -TSRA SCT023CB BKN025 OVC090 25/25 Q1011 TEMPO 5000 TSRA RMK A2985 CB/OCNL LTG OHD  NW-SE
RPLL,2025-09-29 05:06,RPLL 290506Z 04011KT 3000 +TSRA SCT023CB BKN025 OVC090 26/25 Q1011 TEMPO 5000 TSRA RMK A2985 CB/OCNL LTG OHD  NW-SE
RPLL,2025-09-29 06:00,RPLL 290600Z 29005KT 260V350 8000 -TSRA FEW023CB SCT025 BKN100 26/25 Q1010 RERA NOSIG RMK A2983 CB/OCNL LTG NW
RPLL,2025-09-29 07:00,RPLL 290700Z VRB01KT 9000 FEW023CB SCT025 BKN100 27/26 Q1010 RETS NOSIG RMK A2983 CB NE
RPLL,2025-09-29 08:00,RPLL 290800Z VRB02KT 9000 -RA SCT023 OVC100 27/26 Q1010 NOSIG RMK A2983
RPLL,2025-09-29 09:00,RPLL 290900Z 10003KT 9000 -RA SCT023 OVC100 27/26 Q1010 NOSIG RMK A2983
RPLL,2025-09-29 10:00,RPLL 291000Z VRB02KT 9999 -RA SCT025 OVC100 27/26 Q1010 NOSIG RMK A2983
RPLL,2025-09-29 11:00,RPLL 291100Z 00000KT 9999 FEW025 BKN100 27/26 Q1011 NOSIG RMK A2985
RPLL,2025-09-29 12:00,RPLL 291200Z VRB02KT 9999 FEW025 BKN100 27/26 Q1011 NOSIG RMK A2985
RPLL,2025-09-29 13:00,RPLL 291300Z 00000KT 9999 FEW025 BKN100 27/26 Q1012 NOSIG RMK A2988
RPLL,2025-09-29 14:00,RPLL 291400Z VRB01KT 9999 FEW025 27/27 Q1012 NOSIG RMK A2988
RPLL,2025-09-29 15:00,RPLL 291500Z VRB02KT 9999 FEW025 SCT100 27/27 Q1012 NOSIG RMK A2988
RPLL,2025-09-29 16:00,RPLL 291600Z VRB01KT 9999 SCT025 BKN100 26/26 Q1011 NOSIG RMK A2985
RPLL,2025-09-29 17:00,COR RPLL 291700Z VRB02KT 9999 FEW025 SCT100 26/26 Q1011 NOSIG RMK A2985
RPLL,2025-09-29 18:00,RPLL 291800Z VRB02KT 9999 FEW025 BKN100 26/26 Q1010 NOSIG RMK A2983
RPLL,2025-09-29 19:00,RPLL 291900Z 07004KT 050V110 9000 -RA SCT025 OVC100 26/26 Q1010 NOSIG RMK A2983
RPLL,2025-09-29 20:00,RPLL 292000Z VRB01KT 7000 -RA SCT023 OVC090 26/26 Q1010 NOSIG RMK A2983
RPLL,2025-09-29 21:00,RPLL 292100Z 00000KT 9000 SCT025 BKN100 26/26 Q1010 NOSIG RMK A2983
RPLL,2025-09-29 22:00,RPLL 292200Z VRB01KT 9000 SCT025 BKN100 26/26 Q1011 NOSIG RMK A2985
RPLL,2025-09-29 23:00,RPLL 292300Z 00000KT 9000 SCT025 BKN100 26/26 Q1011 NOSIG RMK A2985
RPLL,2025-09-30 00:00,RPLL 300000Z VRB01KT 9000 FEW025 BKN100 27/27 Q1011 NOSIG RMK A2985
RPLL,2025-09-30 01:00,RPLL 300100Z 18003KT 130V230 9000 FEW025 BKN100 28/27 Q1011 NOSIG RMK A2985
RPLL,2025-09-30 02:00,RPLL 300200Z VRB02KT 9999 FEW025 BKN100 29/25 Q1011 NOSIG RMK A2985
RPLL,2025-09-30 03:00,RPLL 300300Z VRB02KT 9999 FEW025 BKN100 29/26 Q1010 NOSIG RMK A2983
RPLL,2025-09-30 04:00,RPLL 300400Z VRB03KT 9999 FEW025 BKN100 32/25 Q1010 NOSIG RMK A2983
RPLL,2025-09-30 05:00,RPLL 300500Z 14007KT 100V180 9999 FEW025 BKN100 31/26 Q1009 NOSIG RMK A2980
RPLL,2025-09-30 06:00,RPLL 300600Z 12004KT 030V160 9999 FEW023CB SCT025 BKN100 32/25 Q1008 TEMPO TS RMK A2977 CB NW/N
RPLL,2025-09-30 06:19,RPLL 300619Z 06005KT 350V090 8000 -SHRA FEW022CB SCT023 OVC100 28/27 Q1009 NOSIG RMK A2980 CB NW/N
RPLL,2025-09-30 07:00,COR RPLL 300700Z 29006KT 260V330 8000 -RA FEW022CB SCT023 OVC100 27/26 Q1009 NOSIG RMK A2980 CB W
RPLL,2025-09-30 08:00,RPLL 300800Z 26005KT 9000 -RA SCT023 OVC100 27/27 Q1008 NOSIG RMK A2977
RPLL,2025-09-30 09:00,RPLL 300900Z 24004KT 190V260 9999 SCT023 OVC100 27/26 Q1008 NOSIG RMK A2977
RPLL,2025-09-30 10:00,RPLL 301000Z 25004KT 9999 SCT023 OVC100 27/26 Q1010 NOSIG RMK A2983
RPLL,2025-09-30 11:00,RPLL 301100Z VRB02KT 9999 SCT023 BKN100 27/26 Q1010 NOSIG RMK A2983
RPLL,2025-09-30 12:00,RPLL 301200Z VRB01KT 9999 FEW023 BKN100 27/26 Q1011 NOSIG RMK A2985
RPLL,2025-09-30 13:00,RPLL 301300Z VRB02KT 9999 FEW025 BKN100 27/26 Q1011 NOSIG RMK A2985
RPLL,2025-09-30 14:00,RPLL 301400Z VRB01KT 9999 SCT023 BKN100 27/26 Q1011 NOSIG RMK A2985
RPLL,2025-09-30 15:00,RPLL 301500Z VRB02KT 9999 SCT025 BKN100 27/26 Q1011 NOSIG RMK A2985
RPLL,2025-09-30 16:00,RPLL 301600Z 31003KT 260V050 9000 -RA SCT023 OVC090 27/26 Q1010 NOSIG RMK A2983
RPLL,2025-09-30 17:00,RPLL 301700Z VRB03KT 9999 SCT023 BKN100 27/26 Q1010 NOSIG RMK A2983
RPLL,2025-09-30 18:00,RPLL 301800Z 35003KT 320V030 9999 FEW025 BKN100 27/26 Q1010 NOSIG RMK A2983
RPLL,2025-09-30 19:00,RPLL 301900Z 01005KT 9000 FEW025 BKN100 26/26 Q1010 NOSIG RMK A2983
RPLL,2025-09-30 20:00,RPLL 302000Z 21002KT 8000 FEW023 BKN100 26/26 Q1010 NOSIG RMK A2983
RPLL,2025-09-30 21:00,RPLL 302100Z 00000KT 9000 FEW025 BKN100 26/26 Q1010 NOSIG RMK A2983
RPLL,2025-09-30 22:00,RPLL 302200Z 13002KT 9000 FEW025 SCT100 26/26 Q1010 NOSIG RMK A2983
RPLL,2025-09-30 23:00,RPLL 302300Z VRB02KT 9999 FEW025 28/26 Q1011 NOSIG RMK A2985
RPLL,2025-10-01 00:00,RPLL 010000Z 13004KT 070V200 9999 FEW025 29/26 Q1011 NOSIG RMK A2985
RPLL,2025-10-01 01:00,RPLL 010100Z VRB03KT 9999 FEW025 31/25 Q1011 NOSIG RMK A2985
RPLL,2025-10-01 02:00,RPLL 010200Z 12004KT 070V170 9999 FEW025 SCT100 30/26 Q1011 NOSIG RMK A2985
RPLL,2025-10-01 03:00,COR RPLL 010300Z 13006KT 080V210 9999 FEW025 32/25 Q1010 NOSIG RMK A2983
RPLL,2025-10-01 04:00,RPLL 010400Z 13007KT 090V190 9999 FEW025 33/25 Q1009 NOSIG RMK A2980
RPLL,2025-10-01 05:00,RPLL 010500Z 11007KT 060V180 9999 FEW025 33/24 Q1008 NOSIG RMK A2977
RPLL,2025-10-01 06:00,RPLL 010600Z 15007KT 080V200 9999 FEW023CB 34/25 Q1007 NOSIG RMK A2974 CB N
RPLL,2025-10-01 07:00,RPLL 010700Z 14007KT 080V210 9999 FEW023CB SCT025 33/25 Q1007 RMK A2974 CB N
RPLL,2025-10-01 08:00,RPLL 010800Z 17005KT 130V210 9999 FEW025 32/25 Q1008 RMK A2977
RPLL,2025-10-01 09:00,RPLL 010900Z 20004KT 170V260 9999 FEW025 32/25 Q1009 NOSIG RMK A2980
RPLL,2025-10-01 10:00,RPLL 011000Z 14004KT 090V190 9999 FEW025 31/25 Q1009 NOSIG RMK A2980
RPLL,2025-10-01 11:00,RPLL 011100Z 14005KT 080V200 9999 FEW025 SCT100 30/25 Q1010 NOSIG RMK A2983
RPLL,2025-10-01 12:00,RPLL 011200Z 12004KT 070V170 9999 FEW025 SCT100 30/26 Q1011 NOSIG RMK A2985
RPLL,2025-10-01 13:00,RPLL 011300Z 13003KT 100V170 9999 FEW025 29/26 Q1012 NOSIG RMK A2988
RPLL,2025-10-01 14:00,RPLL 011400Z 12003KT 9999 FEW025 29/25 Q1012 NOSIG RMK A2988
RPLL,2025-10-01 15:00,RPLL 011500Z 13003KT 090V180 9999 FEW023CB 29/25 Q1011 NOSIG RMK A2985
RPLL,2025-10-01 16:00,RPLL 011600Z 10003KT 9999 FEW023CB 28/25 Q1011 NOSIG RMK A2985 CB/OCNL LTG W
RPLL,2025-10-01 17:00,RPLL 011700Z 13003KT 9999 FEW023CB SCT025 28/25 Q1010 NOSIG RMK A2985 CB/OCNL LTG SW
RPLL,2025-10-01 18:00,RPLL 011800Z 00000KT 9999 FEW023 27/25 Q1010 NOSIG RMK A2983
RPLL,2025-10-01 19:00,RPLL 011900Z VRB02KT 9999 FEW023 28/25 Q1010 NOSIG RMK A2983
RPLL,2025-10-01 20:00,RPLL 012000Z VRB01KT 9999 FEW025 27/26 Q1009 NOSIG RMK A2980
RPLL,2025-10-01 21:00,RPLL 012100Z VRB01KT 9999 FEW025 27/26 Q1009 NOSIG RMK A2980
RPLL,2025-10-01 22:00,RPLL 012200Z VRB01KT 9999 SCT025 27/26 Q1010 NOSIG RMK A2983
RPLL,2025-10-01 23:00,RPLL 012300Z 00000KT 9999 FEW025 28/26 Q1011 NOSIG RMK A2985
RPLL,2025-10-02 00:00,RPLL 020000Z 04005KT 350V070 9999 FEW025 29/25 Q1011 NOSIG RMK A2985
RPLL,2025-10-02 01:00,RPLL 020100Z 29006KT 260V340 9999 FEW025 29/26 Q1011 NOSIG RMK A2985
RPLL,2025-10-02 02:00,RPLL 020200Z 32007KT 9999 FEW025 30/25 Q1012 NOSIG RMK A2988
RPLL,2025-10-02 03:00,COR RPLL 020300Z 29008KT 9999 FEW025 SCT100 30/25 Q1011 NOSIG RMK A2985
RPLL,2025-10-02 04:00,RPLL 020400Z 28009KT 9999 FEW025 SCT100 31/26 Q1010 NOSIG RMK A2983
RPLL,2025-10-02 05:00,RPLL 020500Z 29010KT 9999 FEW025 SCT100 31/26 Q1009 NOSIG RMK A2980
RPLL,2025-10-02 06:00,RPLL 020600Z 28008KT 240V310 9999 FEW023CB SCT025 30/25 Q1009 TEMPO TS RMK A2980 CB NE-SE
RPLL,2025-10-02 06:31,RPLL 020631Z 12009KT 070V210 9000 -TSRA FEW022CB SCT023 BKN100 28/25 Q1010 TEMPO 5000 TSRA RMK A2983 CB OHD  NE-SE
RPLL,2025-10-02 07:00,RPLL 020700Z 08007KT 5000 TSRA FEW022CB SCT023 OVC100 25/25 Q1009 NOSIG RMK A2980 CB OHD/NE
RPLL,2025-10-02 08:00,COR RPLL 020800Z 20003KT 150V240 9999 SCT023 BKN100 28/26 Q1008 RETSRA NOSIG RMK A2977
RPLL,2025-10-02 09:00,RPLL 020900Z 17005KT 130V190 9999 FEW025 SCT100 28/26 Q1008 RMK A2977
RPLL,2025-10-02 10:00,RPLL 021000Z 12003KT 080V160 9999 FEW025 28/26 Q1008 NOSIG RMK A2977
RPLL,2025-10-02 11:00,RPLL 021100Z VRB01KT 9999 FEW023CB SCT025 BKN100 27/26 Q1009 NOSIG RMK A2980 CB/FRQ LTG NW-NE
RPLL,2025-10-02 12:00,COR RPLL 021200Z 01007KT 330V040 8000 -SHRA FEW023CB SCT025 OVC090 26/26 Q1010 NOSIG RMK A2983 CB/OCNL LTG SW-NW
RPLL,2025-10-02 13:00,RPLL 021300Z VRB01KT 9999 FEW025 26/26 Q1010 NOSIG RMK A2983
RPLL,2025-10-02 14:00,RPLL 021400Z 03003KT 330V110 9999 SCT025 BKN100 27/25 Q1010 NOSIG RMK A2983
RPLL,2025-10-02 14:44,RPLL 021444Z 29003KT 260V030 8000 -RA SCT025 BKN270 27/24 Q1010 NOSIG RMK A2983
RPLL,2025-10-02 15:00,RPLL 021500Z 26004KT 240V300 9999 SCT023 BKN270 27/24 Q1009 NOSIG RMK A2980
RPLL,2025-10-02 16:00,RPLL 021600Z 26003KT 220V320 9999 SCT023 BKN090 26/25 Q1009 NOSIG RMK A2980
RPLL,2025-10-02 17:00,RPLL 021700Z 26003KT 240V320 9999 SCT023 BKN100 27/25 Q1008 NOSIG RMK A2977
RPLL,2025-10-02 18:00,RPLL 021800Z 26003KT 240V320 9999 SCT023 BKN100 27/26 Q1007 NOSIG RMK A2974
RPLL,2025-10-02 19:00,RPLL 021900Z VRB01KT 9000 -RA SCT023 OVC100 27/26 Q1007 NOSIG RMK A2974
RPLL,2025-10-02 20:00,RPLL 022000Z VRB02KT 9000 -RA FEW025 BKN100 26/26 Q1006 NOSIG RMK A2971
RPLL,2025-10-02 21:00,RPLL 022100Z VRB02KT 9000 FEW025 BKN150 27/27 Q1006 NOSIG RMK A2971
RPLL,2025-10-02 22:00,RPLL 022200Z VRB02KT 8000 -RA FEW025 OVC100 27/26 Q1006 TEMPO 5000 RA RMK A2971
RPLL,2025-10-02 23:00,RPLL 022300Z 22008KT 8000 -RA SCT023 OVC090 27/25 Q1007 NOSIG RMK A2974
RPLL,2025-10-03 00:00,RPLL 030000Z 24007KT 8000 -RA SCT023 OVC090 26/26 Q1008 NOSIG RMK A2977
RPLL,2025-10-03 01:00,RPLL 030100Z 23010KT 9000 -RA SCT023 OVC100 27/25 Q1008 NOSIG RMK A2977
RPLL,2025-10-03 02:00,RPLL 030200Z 23013KT 7000 -RA SCT022 OVC090 26/25 Q1008 NOSIG RMK A2977
RPLL,2025-10-03 03:00,RPLL 030300Z 22010KT 190V250 7000 -RA SCT022 OVC090 26/25 Q1008 NOSIG RMK A2977
RPLL,2025-10-03 04:00,RPLL 030400Z 22008KT 180V250 8000 -RA SCT023 OVC090 26/25 Q1008 NOSIG RMK A2977
RPLL,2025-10-03 05:00,RPLL 030500Z 23008KT 190V250 6000 -RA SCT022 OVC090 25/24 Q1008 NOSIG RMK A2977
RPLL,2025-10-03 06:00,RPLL 030600Z 23007KT 200V260 6000 -RA SCT022 OVC090 25/25 Q1007 NOSIG RMK A2974
RPLL,2025-10-03 07:00,RPLL 030700Z 24004KT 210V280 7000 -RA SCT023 OVC090 26/26 Q1007 NOSIG RMK A2974
RPLL,2025-10-03 08:00,RPLL 030800Z 21004KT 170V260 8000 -RA SCT023 OVC090 26/26 Q1008 NOSIG RMK A2977
RPLL,2025-10-03 09:00,RPLL 030900Z VRB02KT 7000 -RA SCT022 OVC090 26/26 Q1008 NOSIG RMK A2977
RPLL,2025-10-03 10:00,RPLL 031000Z VRB02KT 8000 -RA SCT023 OVC090 26/25 Q1009 NOSIG RMK A2980
RPLL,2025-10-03 11:00,RPLL 031100Z 10003KT 070V130 9000 -RA SCT023 OVC090 26/26 Q1010 NOSIG RMK A2983
RPLL,2025-10-03 12:00,RPLL 031200Z 12004KT 080V140 9999 SCT025 OVC100 26/26 Q1011 NOSIG RMK A2985
RPLL,2025-10-03 13:00,RPLL 031300Z 13003KT 080V190 9999 SCT025 OVC100 27/26 Q1011 NOSIG RMK A2985
RPLL,2025-10-03 14:00,RPLL 031400Z VRB02KT 9999 SCT025 OVC100 27/26 Q1011 NOSIG RMK A2985
RPLL,2025-10-03 15:00,RPLL 031500Z VRB01KT 9999 SCT025 BKN100 27/26 Q1012 NOSIG RMK A2988
RPLL,2025-10-03 16:00,RPLL 031600Z VRB02KT 9999 FEW025 SCT100 27/26 Q1011 NOSIG RMK A2985
RPLL,2025-10-03 17:00,RPLL 031700Z 29004KT 9999 FEW025 SCT100 26/26 Q1011 NOSIG RMK A2985
RPLL,2025-10-03 18:00,RPLL 031800Z 26004KT 9999 SCT025 BKN100 26/25 Q1011 RMK A2985
RPLL,2025-10-03 19:00,RPLL 031900Z 00000KT 9999 FEW025 25/25 Q1011 NOSIG RMK A2985
RPLL,2025-10-03 20:00,RPLL 032000Z 10003KT 9999 FEW025 BKN100 25/25 Q1011 NOSIG RMK A2985
RPLL,2025-10-03 21:00,RPLL 032100Z VRB02KT 9999 FEW025 SCT130 25/25 Q1010 NOSIG RMK A2983
RPLL,2025-10-03 22:00,RPLL 032200Z 00000KT 9999 FEW025 25/25 Q1010 NOSIG RMK A2983
RPLL,2025-10-03 23:00,RPLL 032300Z VRB02KT 9999 FEW025 27/26 Q1012 NOSIG RMK A2988
RPLL,2025-10-04 00:00,RPLL 040000Z VRB03KT 9999 FEW025 29/26 Q1012 NOSIG RMK A2988
RPLL,2025-10-04 01:00,RPLL 040100Z 11006KT 070V160 9999 FEW025 30/25 Q1013 NOSIG RMK A2991
RPLL,2025-10-04 02:00,RPLL 040200Z 13006KT 070V210 9999 FEW025 31/25 Q1013 NOSIG RMK A2991
RPLL,2025-10-04 03:00,RPLL 040300Z 14008KT 090V210 9999 FEW025 32/25 Q1013 NOSIG RMK A2991
RPLL,2025-10-04 04:00,RPLL 040400Z 12006KT 070V170 9999 FEW025 33/25 Q1012 NOSIG RMK A2988
RPLL,2025-10-04 05:00,RPLL 040500Z 12007KT 070V160 9999 FEW023CB SCT025 BKN100 33/24 Q1011 NOSIG RMK A2985 CB SW-W
RPLL,2025-10-04 06:00,RPLL 040600Z 24014KT 9999 VCTS VCSH FEW022CB SCT023 OVC090 27/24 Q1011 TEMPO 7000 -TSRA RMK A2985 CB/VCSH S-SW
RPLL,2025-10-04 06:15,RPLL 040615Z 25010KT 9000 -TSRA FEW022CB SCT023 OVC090 25/24 Q1011 NOSIG RMK A2985 CB OHD S-SW
RPLL,2025-10-04 07:00,RPLL 040700Z 25011KT 9000 -SHRA FEW022CB SCT023 OVC090 26/23 Q1011 RETS NOSIG RMK A2985
RPLL,2025-10-04 08:00,RPLL 040800Z 26004KT 230V330 9000 -RA SCT023 OVC100 27/25 Q1011 NOSIG RMK A2985
RPLL,2025-10-04 09:00,RPLL 040900Z VRB02KT 9999 FEW025 BKN100 28/25 Q1011 NOSIG RMK A2985
RPLL,2025-10-04 10:00,RPLL 041000Z 19003KT 140V240 9999 FEW025 BKN100 28/26 Q1012 NOSIG RMK A2988
RPLL,2025-10-04 11:00,RPLL 041100Z VRB02KT 9999 FEW025 BKN100 27/26 Q1013 NOSIG RMK A2991
RPLL,2025-10-04 12:00,RPLL 041200Z 21003KT 140V240 9999 FEW025 BKN100 27/24 Q1014 NOSIG RMK A2994
RPLL,2025-10-04 13:00,RPLL 041300Z VRB02KT 9999 FEW025 26/23 Q1014 NOSIG RMK A2994
RPLL,2025-10-04 14:00,RPLL 041400Z 00000KT 9999 FEW025 26/24 Q1014 NOSIG RMK A2994
RPLL,2025-10-04 15:00,RPLL 041500Z VRB01KT 9999 FEW025 SCT100 27/24 Q1013 NOSIG RMK A2991
RPLL,2025-10-04 16:00,RPLL 041600Z VRB02KT 9999 FEW025 SCT100 26/25 Q1013 NOSIG RMK A2991
RPLL,2025-10-04 17:00,RPLL 041700Z 24003KT 210V270 9000 FEW025 SCT100 25/25 Q1013 NOSIG RMK A2991
RPLL,2025-10-04 18:00,COR RPLL 041800Z 00000KT 9000 FEW025 SCT100 26/25 Q1012 NOSIG RMK A2988
RPLL,2025-10-04 19:00,RPLL 041900Z VRB01KT 8000 FEW025 25/25 Q1012 NOSIG RMK A2988
RPLL,2025-10-04 20:00,RPLL 042000Z VRB01KT 9000 FEW025 25/25 Q1012 NOSIG RMK A2988
RPLL,2025-10-04 21:00,RPLL 042100Z VRB01KT 9000 FEW025 25/25 Q1012 NOSIG RMK A2988
RPLL,2025-10-04 22:00,RPLL 042200Z 00000KT 9000 FEW025 25/25 Q1013 NOSIG RMK A2991
RPLL,2025-10-04 23:00,RPLL 042300Z VRB02KT 9999 FEW025 27/26 Q1013 NOSIG RMK A2991
RPLL,2025-10-05 00:00,RPLL 050000Z VRB02KT 9000 FEW025 29/26 Q1014 NOSIG RMK A2994
RPLL,2025-10-05 01:00,RPLL 050100Z 15004KT 080V250 9000 FEW025 31/25 Q1015 NOSIG RMK A2997
RPLL,2025-10-05 02:00,RPLL 050200Z 17004KT 110V240 9999 FEW025 32/24 Q1014 NOSIG RMK A2994
RPLL,2025-10-05 03:00,RPLL 050300Z 28007KT 250V320 9999 FEW025 31/26 Q1013 NOSIG RMK A2991
RPLL,2025-10-05 04:00,RPLL 050400Z 28010KT 9999 FEW025 31/26 Q1013 NOSIG RMK A2991
RPLL,2025-10-05 05:00,RPLL 050500Z 30008G18KT 260V330 9999 FEW025 32/25 Q1011 NOSIG RMK A2988
RPLL,2025-10-05 06:00,RPLL 050600Z 28007KT 240V320 9999 FEW023CB SCT100 32/25 Q1011 NOSIG RMK A2985
RPLL,2025-10-05 07:00,COR RPLL 050700Z 29007KT 260V320 9999 FEW023CB SCT025 BKN100 31/25 Q1010 NOSIG RMK A2983 CB NE
RPLL,2025-10-05 08:00,RPLL 050800Z 27007KT 240V300 9999 FEW025 31/24 Q1010 NOSIG RMK A2983
RPLL,2025-10-05 09:00,RPLL 050900Z 27010KT 9999 FEW025 30/25 Q1010 NOSIG RMK A2983
RPLL,2025-10-05 10:00,RPLL 051000Z 27009KT 9999 FEW025 30/25 Q1010 NOSIG RMK A2983
RPLL,2025-10-05 11:00,RPLL 051100Z 23006KT 9999 FEW025 29/25 Q1012 NOSIG RMK A2988
RPLL,2025-10-05 12:00,RPLL 051200Z 23004KT 170V260 9999 FEW025 BKN100 28/26 Q1012 NOSIG RMK A2988
RPLL,2025-10-05 13:00,RPLL 051300Z 23004KT 190V260 9999 FEW025 BKN100 28/26 Q1012 NOSIG RMK A2988
RPLL,2025-10-05 14:00,RPLL 051400Z VRB02KT 9999 FEW025 BKN100 28/26 Q1012 NOSIG RMK A2988
RPLL,2025-10-05 15:00,RPLL 051500Z 27006KT 230V320 9999 SCT025 BKN100 28/26 Q1012 NOSIG RMK A2988
RPLL,2025-10-05 16:00,RPLL 051600Z VRB02KT 9999 SCT025 BKN100 27/26 Q1012 NOSIG RMK A2988
RPLL,2025-10-05 17:00,RPLL 051700Z VRB02KT 9999 SCT025 BKN100 27/26 Q1012 NOSIG RMK A2988
RPLL,2025-10-05 18:00,RPLL 051800Z VRB02KT 9999 FEW025 SCT100 27/26 Q1011 NOSIG RMK A2985
RPLL,2025-10-05 19:00,RPLL 051900Z VRB02KT 9999 FEW025 27/26 Q1011 NOSIG RMK A2985
RPLL,2025-10-05 20:00,RPLL 052000Z VRB02KT 9999 FEW025 27/26 Q1010 NOSIG RMK A2983
RPLL,2025-10-05 21:00,RPLL 052100Z 10003KT 070V140 9999 FEW025 27/26 Q1010 NOSIG RMK A2983
RPLL,2025-10-05 22:00,RPLL 052200Z VRB02KT 9999 FEW025 27/26 Q1011 NOSIG RMK A2985
RPLL,2025-10-05 23:00,RPLL 052300Z VRB01KT 9000 FEW025 SCT100 28/26 Q1012 NOSIG RMK A2988
RPLL,2025-10-06 00:00,RPLL 060000Z VRB02KT 9000 FEW025 SCT100 28/26 Q1012 NOSIG RMK A2988
RPLL,2025-10-06 01:00,RPLL 060100Z 27003KT 230V320 9000 FEW025 SCT100 29/27 Q1012 NOSIG RMK A2988
RPLL,2025-10-06 02:00,RPLL 060200Z 29005KT 250V340 9000 FEW025 SCT100 30/26 Q1012 NOSIG RMK A2988
RPLL,2025-10-06 03:00,RPLL 060300Z 28006KT 240V330 9000 FEW025 BKN100 30/25 Q1011 NOSIG RMK A2985
RPLL,2025-10-06 04:00,RPLL 060400Z 27008KT 9000 FEW025 SCT100 31/27 Q1010 NOSIG RMK A2983
RPLL,2025-10-06 05:00,RPLL 060500Z 28009KT 9999 FEW025 31/27 Q1010 NOSIG RMK A2983
RPLL,2025-10-06 06:00,RPLL 060600Z 26006KT 210V290 9999 FEW025 BKN100 30/26 Q1009 NOSIG RMK A2980
RPLL,2025-10-06 06:36,RPLL 060636Z 13007KT 070V170 9000 -SHRA SCT025 BKN100 28/26 Q1009 NOSIG RMK A2980
RPLL,2025-10-06 07:00,COR RPLL 060700Z 17007KT 140V210 5000 TSRA FEW022CB SCT023 BKN100 25/25 Q1009 TEMPO 3000 +TSRA RMK A2980 CB OHD SW W
RPLL,2025-10-06 08:00,RPLL 060800Z 18003KT 110V230 9000 SCT023 BKN100 27/26 Q1009 RETSRA NOSIG RMK A2980
RPLL,2025-10-06 09:00,RPLL 060900Z VRB02KT 9999 FEW025 BKN100 28/26 Q1009 NOSIG RMK A2980
RPLL,2025-10-06 10:00,RPLL 061000Z VRB01KT 9999 FEW025 BKN100 28/26 Q1009 NOSIG RMK A2980
RPLL,2025-10-06 11:00,RPLL 061100Z VRB02KT 9999 FEW025 SCT100 27/26 Q1010 NOSIG RMK A2983
RPLL,2025-10-06 12:00,RPLL 061200Z 18004KT 150V220 9999 FEW025 SCT100 28/26 Q1011 NOSIG RMK A2985 DSNT LTG NW
RPLL,2025-10-06 13:00,RPLL 061300Z VRB01KT 9999 FEW025 27/26 Q1011 NOSIG RMK A2985 DSNT LTG SW
RPLL,2025-10-06 14:00,RPLL 061400Z 10003KT 080V140 9999 FEW025 27/26 Q1011 NOSIG RMK A2985 DSNT LTG SW
RPLL,2025-10-06 15:00,RPLL 061500Z VRB02KT 9999 FEW025 27/25 Q1011 NOSIG RMK A2985
RPLL,2025-10-06 16:00,RPLL 061600Z 36003KT 310V120 9999 FEW025 28/24 Q1011 NOSIG RMK A2985
RPLL,2025-10-06 17:00,RPLL 061700Z 02004KT 350V060 9999 FEW025 28/25 Q1010 NOSIG RMK A2983
RPLL,2025-10-06 18:00,RPLL 061800Z 31003KT 280V350 9999 FEW025 SCT100 28/26 Q1010 NOSIG RMK A2983
RPLL,2025-10-06 19:00,RPLL 061900Z VRB02KT 9999 FEW025 SCT100 27/26 Q1010 NOSIG RMK A2983
RPLL,2025-10-06 20:00,RPLL 062000Z VRB03KT 9999 SCT025 BKN100 27/25 Q1010 NOSIG RMK A2980
RPLL,2025-10-06 21:00,RPLL 062100Z 02005KT 340V060 9999 SCT025 BKN100 27/25 Q1009 NOSIG RMK A2980
RPLL,2025-10-06 22:00,RPLL 062200Z VRB04KT 9999 SCT025 BKN100 27/25 Q1009 NOSIG RMK A2980
RPLL,2025-10-06 23:00,RPLL 062300Z 02004KT 350V100 9999 SCT025 BKN100 27/25 Q1010 NOSIG RMK A2983
RPLL,2025-10-07 00:00,RPLL 070000Z VRB02KT 9999 FEW025 BKN100 29/25 Q1011 NOSIG RMK A2985
RPLL,2025-10-07 01:00,RPLL 070100Z VRB03KT 9999 FEW025 SCT100 30/25 Q1011 NOSIG RMK A2985
RPLL,2025-10-07 02:00,RPLL 070200Z VRB03KT 9999 FEW025 BKN100 30/24 Q1011 NOSIG RMK A2985
RPLL,2025-10-07 03:00,RPLL 070300Z 23003KT 150V280 9000 FEW025 BKN100 30/25 Q1010 NOSIG RMK A2983
RPLL,2025-10-07 04:00,RPLL 070400Z 20003KT 100V260 9000 FEW025 BKN150 32/24 Q1009 NOSIG RMK A2980
RPLL,2025-10-07 05:00,RPLL 070500Z 28007KT 210V340 8000 FEW025 BKN150 31/26 Q1008 NOSIG RMK A2977
RPLL,2025-10-07 06:00,RPLL 070600Z 29008KT 7000 SCT025 BKN100 31/25 Q1008 NOSIG RMK A2977
RPLL,2025-10-07 07:00,RPLL 070700Z 31004KT 260V360 9000 FEW025 SCT100 31/26 Q1008 NOSIG RMK A2977
RPLL,2025-10-07 08:00,RPLL 070800Z 25005KT 190V280 9999 FEW025 SCT100 31/26 Q1007 NOSIG RMK A2974
RPLL,2025-10-07 09:00,RPLL 070900Z 20003KT 150V240 9999 FEW025 31/25 Q1008 NOSIG RMK A2977
RPLL,2025-10-07 10:00,RPLL 071000Z VRB02KT 9999 FEW025 30/25 Q1008 NOSIG RMK A2977
RPLL,2025-10-07 11:00,RPLL 071100Z VRB02KT 9000 FEW025 30/25 Q1009 NOSIG RMK A2980
RPLL,2025-10-07 12:00,RPLL 071200Z VRB01KT 9000 FEW025 29/26 Q1009 NOSIG RMK A2980
RPLL,2025-10-07 13:00,RPLL 071300Z VRB02KT 9000 FEW025 SCT100 29/26 Q1010 NOSIG RMK A2983
RPLL,2025-10-07 14:00,RPLL 071400Z VRB01KT 9000 FEW025 SCT100 28/26 Q1010 NOSIG RMK A2983
RPLL,2025-10-07 15:00,RPLL 071500Z 13004KT 090V170 9000 -RA FEW025 BKN090 29/25 Q1010 NOSIG RMK A2983
RPLL,2025-10-07 16:00,RPLL 071600Z VRB01KT 9999 FEW025 SCT100 28/25 Q1010 NOSIG RMK A2983
RPLL,2025-10-07 17:00,RPLL 071700Z 25004KT 9000 FEW025 BKN100 27/26 Q1009 NOSIG RMK A2983
RPLL,2025-10-07 18:00,RPLL 071800Z 30005KT 270V330 9000 SCT025 BKN100 27/25 Q1009 NOSIG RMK A2980
RPLL,2025-10-07 19:00,RPLL 071900Z VRB02KT 9000 SCT025 BKN100 27/25 Q1008 NOSIG RMK A2977
RPLL,2025-10-07 20:00,RPLL 072000Z 04006KT 9000 SCT025 BKN100 27/25 Q1008 NOSIG RMK A2977
RPLL,2025-10-07 21:00,RPLL 072100Z 09003KT 070V130 9000 SCT025 BKN100 27/24 Q1008 NOSIG RMK A2977
RPLL,2025-10-07 22:00,RPLL 072200Z 09005KT 060V120 8000 -RA SCT025 OVC100 27/24 Q1008 NOSIG RMK A2977
RPLL,2025-10-07 23:00,RPLL 072300Z VRB02KT 9000 -RA SCT023 OVC090 26/25 Q1009 NOSIG RMK A2980
RPLL,2025-10-08 00:00,RPLL 080000Z VRB01KT 9000 SCT023 BKN090 26/26 Q1010 RMK A2983
RPLL,2025-10-08 01:00,RPLL 080100Z VRB02KT 9000 SCT023 BKN090 27/26 Q1010 NOSIG RMK A2983
RPLL,2025-10-08 02:00,COR RPLL 080200Z 20003KT 160V230 9000 SCT025 BKN100 28/26 Q1010 NOSIG RMK A2983
RPLL,2025-10-08 02:33,RPLL 080233Z VRB02KT 8000 -SHRA SCT023 OVC090 27/27 Q1010 NOSIG RMK A2983
RPLL,2025-10-08 03:00,RPLL 080300Z 17003KT 130V200 5000 RA SCT023 BKN090 26/26 Q1010 NOSIG RMK A2983
RPLL,2025-10-08 04:00,RPLL 080400Z 18004KT 7000 -RA SCT023 BKN090 27/26 Q1009 RERA NOSIG RMK A2980
RPLL,2025-10-08 05:00,RPLL 080500Z VRB02KT 8000 -RA FEW025 BKN100 28/26 Q1008 NOSIG RMK A2977
RPLL,2025-10-08 06:00,RPLL 080600Z VRB01KT 8000 FEW025 BKN100 30/26 Q1007 NOSIG RMK A2974
RPLL,2025-10-08 07:00,RPLL 080700Z 27003KT 230V030 9000 FEW025 BKN100 29/26 Q1007 NOSIG RMK A2974
RPLL,2025-10-08 08:00,RPLL 080800Z VRB03KT 9000 FEW025 BKN100 30/26 Q1007 NOSIG RMK A2974
RPLL,2025-10-08 09:00,RPLL 080900Z 31005KT 290V350 8000 FEW025 SCT100 29/25 Q1007 NOSIG RMK A2974
RPLL,2025-10-08 10:00,RPLL 081000Z VRB02KT 9000 FEW025 SCT100 29/25 Q1007 NOSIG RMK A2974
RPLL,2025-10-08 11:00,RPLL 081100Z VRB02KT 8000 FEW025 29/26 Q1008 NOSIG RMK A2977
RPLL,2025-10-08 12:00,RPLL 081200Z 22003KT 190V250 9000 FEW025 28/25 Q1009 NOSIG RMK A2980
RPLL,2025-10-08 13:00,RPLL 081300Z VRB02KT 9999 FEW025 28/26 Q1009 NOSIG RMK A2980
RPLL,2025-10-08 14:00,RPLL 081400Z VRB02KT 9000 FEW025 27/25 Q1009 NOSIG RMK A2980
RPLL,2025-10-08 15:00,RPLL 081500Z 18003KT 090V230 9999 SCT025 BKN100 27/25 Q1009 NOSIG RMK A2980
RPLL,2025-10-08 16:00,RPLL 081600Z VRB01KT 9999 SCT025 BKN100 27/25 Q1009 NOSIG RMK A2980
RPLL,2025-10-08 17:00,RPLL 081700Z VRB01KT 9999 SCT025 BKN100 27/25 Q1008 NOSIG RMK A2977
RPLL,2025-10-08 18:00,RPLL 081800Z VRB02KT 9999 FEW025 SCT100 27/25 Q1008 NOSIG RMK A2977
RPLL,2025-10-08 19:00,RPLL 081900Z 05004KT 020V090 9000 -SHRA FEW025 OVC100 27/25 Q1008 NOSIG RMK A2977
RPLL,2025-10-08 20:00,RPLL 082000Z 11003KT 080V150 8000 -RA SCT025 OVC090 26/26 Q1008 NOSIG RMK A2977
RPLL,2025-10-08 21:00,RPLL 082100Z VRB02KT 9000 FEW025 BKN100 26/26 Q1008 NOSIG RMK A2977
RPLL,2025-10-08 22:00,RPLL 082200Z VRB02KT 9000 -RA FEW025 BKN100 26/26 Q1009 NOSIG RMK A2980
RPLL,2025-10-08 23:00,RPLL 082300Z VRB02KT 9000 -RA FEW025 BKN090 26/26 Q1009 NOSIG RMK A2980
RPLL,2025-10-09 00:00,RPLL 090000Z 07004KT 040V100 9000 FEW025 BKN100 27/27 Q1010 NOSIG RMK A2983
RPLL,2025-10-09 01:00,RPLL 090100Z 04003KT 350V110 9000 FEW025 BKN100 29/26 Q1011 NOSIG RMK A2985
RPLL,2025-10-09 02:00,RPLL 090200Z 28004KT 230V350 9999 FEW025 BKN100 29/26 Q1011 NOSIG RMK A2985
RPLL,2025-10-09 03:00,RPLL 090300Z 27009KT 260V320 9999 FEW025 SCT100 29/26 Q1010 NOSIG RMK A2983
RPLL,2025-10-09 04:00,RPLL 090400Z 31008KT 270V340 9999 FEW025 30/26 Q1009 NOSIG RMK A2980
RPLL,2025-10-09 05:00,RPLL 090500Z 29010KT 260V330 9999 FEW025 30/27 Q1008 NOSIG RMK A2977
RPLL,2025-10-09 06:00,RPLL 090600Z 28011KT 9999 FEW025 30/27 Q1007 NOSIG RMK A2974
RPLL,2025-10-09 07:00,RPLL 090700Z 31009KT 270V330 9000 FEW023CB SCT100 30/26 Q1007 NOSIG RMK A2974 CB N
RPLL,2025-10-09 08:00,RPLL 090800Z 30006KT 9000 -TSRA FEW023CB SCT025 BKN100 29/25 Q1007 NOSIG RMK A2974 CB OHD SE S
RPLL,2025-10-09 09:00,RPLL 090900Z 25008KT 9000 -RA FEW022CB SCT023 OVC100 28/26 Q1008 RETS NOSIG RMK A2977 CB SE S
RPLL,2025-10-09 09:44,RPLL 090944Z 19006KT 140V250 5000 TSRA FEW020CB SCT022 OVC090 26/26 Q1009 NOSIG RMK A2980 CB OHD
RPLL,2025-10-09 10:00,RPLL 091000Z 24004KT 180V290 5000 TSRA FEW020CB SCT022 OVC090 25/25 Q1009 NOSIG RMK A2980 CB OHD
RPLL,2025-10-09 11:00,RPLL 091100Z VRB02KT 9000 SCT023 BKN100 26/26 Q1010 RETSRA NOSIG RMK A2983
RPLL,2025-10-09 12:00,RPLL 091200Z VRB02KT 9999 SCT023 BKN100 27/26 Q1010 NOSIG RMK A2983
RPLL,2025-10-09 13:00,RPLL 091300Z VRB02KT 9999 FEW023 BKN100 27/26 Q1010 NOSIG RMK A2983
RPLL,2025-10-09 14:00,RPLL 091400Z VRB02KT 9999 FEW023 BKN100 27/26 Q1010 NOSIG RMK A2983
RPLL,2025-10-09 15:00,RPLL 091500Z VRB01KT 9999 FEW025 BKN150 27/26 Q1010 NOSIG RMK A2983
RPLL,2025-10-09 16:00,RPLL 091600Z VRB02KT 9999 FEW025 BKN150 27/26 Q1010 NOSIG RMK A2983
RPLL,2025-10-09 17:00,RPLL 091700Z VRB01KT 9999 FEW025 SCT100 26/25 Q1009 NOSIG RMK A2980
RPLL,2025-10-09 18:00,RPLL 091800Z VRB02KT 9999 FEW025 26/25 Q1009 NOSIG RMK A2980
RPLL,2025-10-09 19:00,RPLL 091900Z 08002KT 9000 FEW025 SCT100 26/25 Q1009 NOSIG RMK A2980
RPLL,2025-10-09 20:00,RPLL 092000Z VRB01KT 8000 FEW025 BKN100 26/25 Q1009 NOSIG RMK A2980
RPLL,2025-10-09 21:00,RPLL 092100Z VRB02KT 8000 FEW025 SCT100 26/26 Q1010 NOSIG RMK A2983
RPLL,2025-10-09 22:00,RPLL 092200Z VRB01KT 8000 FEW025 SCT100 26/26 Q1010 NOSIG RMK A2983
RPLL,2025-10-09 23:00,RPLL 092300Z VRB01KT 7000 FEW025 BKN100 27/26 Q1010 NOSIG RMK A2983
RPLL,2025-10-10 00:00,RPLL 100000Z VRB02KT 7000 FEW025 BKN100 28/26 Q1010 NOSIG RMK A2983
RPLL,2025-10-10 01:00,RPLL 100100Z VRB02KT 8000 FEW025 BKN100 29/26 Q1010 NOSIG RMK A2983
RPLL,2025-10-10 02:00,RPLL 100200Z 28005KT 8000 FEW023 BKN100 29/26 Q1011 NOSIG RMK A2985
RPLL,2025-10-10 03:00,RPLL 100300Z 27007KT 8000 FEW025 BKN100 29/26 Q1010 NOSIG RMK A2983
RPLL,2025-10-10 04:00,RPLL 100400Z 28007KT 250V310 8000 FEW022CB SCT023 BKN100 30/26 Q1009 NOSIG RMK A2980 CB N-NE
RPLL,2025-10-10 05:00,RPLL 100500Z 04009KT 010V070 5000 -SHRA BR FEW022CB SCT023 OVC090 27/26 Q1009 TEMPO 3000 TSRA RMK A2980 CB N  S-SW
RPLL,2025-10-10 06:00,RPLL 100600Z 27003KT 220V330 7000 FEW025CB SCT025 BKN100 28/27 Q1008 NOSIG RMK A2977 CB S
RPLL,2025-10-10 07:00,RPLL 100700Z 21003KT 140V250 6000 -RA SCT022 OVC090 27/27 Q1008 NOSIG RMK A2977
RPLL,2025-10-10 08:00,RPLL 100800Z VRB02KT 6000 SCT025 BKN100 28/27 Q1009 NOSIG RMK A2980
RPLL,2025-10-10 09:00,RPLL 100900Z VRB02KT 8000 SCT025 BKN100 28/26 Q1009 NOSIG RMK A2980
RPLL,2025-10-10 10:00,RPLL 101000Z VRB02KT 9000 SCT025 BKN100 28/27 Q1010 NOSIG RMK A2983
RPLL,2025-10-10 11:00,RPLL 101100Z VRB02KT 9000 SCT025 BKN100 28/26 Q1010 NOSIG RMK A2983
RPLL,2025-10-10 12:00,RPLL 101200Z 10003KT 9000 FEW025 BKN100 27/26 Q1011 NOSIG RMK A2985
RPLL,2025-10-10 13:00,RPLL 101300Z VRB02KT 9000 FEW025 BKN100 27/26 Q1011 NOSIG RMK A2985
RPLL,2025-10-10 14:00,RPLL 101400Z VRB02KT 9000 FEW025 BKN100 27/26 Q1011 NOSIG RMK A2985
RPLL,2025-10-10 15:00,RPLL 101500Z VRB02KT 9000 FEW025 SCT100 27/26 Q1011 NOSIG RMK A2985
RPLL,2025-10-10 16:00,RPLL 101600Z 00000KT 9000 FEW025 SCT100 26/26 Q1011 NOSIG RMK A2985
RPLL,2025-10-10 17:00,RPLL 101700Z VRB01KT 8000 FEW025 26/26 Q1010 NOSIG RMK A2983
RPLL,2025-10-10 18:00,RPLL 101800Z 19002KT 8000 SCT025 BKN100 26/26 Q1009 NOSIG RMK A2980
RPLL,2025-10-10 19:00,RPLL 101900Z VRB01KT 6000 FEW025 BKN100 26/26 Q1009 NOSIG RMK A2980
RPLL,2025-10-10 20:00,RPLL 102000Z 00000KT 6000 FEW025 BKN100 26/26 Q1010 NOSIG RMK A2983
RPLL,2025-10-10 21:00,RPLL 102100Z VRB01KT 6000 FEW025 BKN100 26/26 Q1010 NOSIG RMK A2983
RPLL,2025-10-10 22:00,RPLL 102200Z VRB02KT 7000 FEW025 26/26 Q1010 NOSIG RMK A2983
RPLL,2025-10-10 23:00,RPLL 102300Z VRB01KT 8000 FEW025 27/26 Q1011 NOSIG RMK A2985
RPLL,2025-10-11 00:00,RPLL 110000Z VRB02KT 6000 FEW025 BKN100 28/26 Q1012 NOSIG RMK A2988
RPLL,2025-10-11 01:00,RPLL 110100Z VRB02KT 5000 HZ FEW025 BKN100 29/26 Q1012 NOSIG RMK A2988
RPLL,2025-10-11 02:00,RPLL 110200Z VRB03KT 9000 SCT025 BKN100 31/25 Q1012 NOSIG RMK A2988
RPLL,2025-10-11 03:00,RPLL 110300Z 28007KT 250V310 9000 SCT025 BKN100 29/26 Q1011 NOSIG RMK A2985
RPLL,2025-10-11 04:00,RPLL 110400Z 26009KT 8000 FEW023CB SCT025 BKN100 29/26 Q1011 NOSIG RMK A2985 CB E-S
RPLL,2025-10-11 05:00,RPLL 110500Z 26011KT 230V290 9000 FEW025 BKN100 30/25 Q1010 NOSIG RMK A2983
RPLL,2025-10-11 06:00,RPLL 110600Z 25008KT 9000 -SHRA SCT023 BKN090 28/26 Q1009 NOSIG RMK A2980
RPLL,2025-10-11 07:00,RPLL 110700Z VRB06G18KT 9999 FEW023CB SCT025 BKN100 29/26 Q1009 NOSIG RMK A2980 CB N
RPLL,2025-10-11 08:00,RPLL 110800Z 28007KT 9999 FEW025 SCT100 29/26 Q1009 NOSIG RMK A2980
RPLL,2025-10-11 09:00,RPLL 110900Z 28005KT 9999 FEW025 SCT100 29/25 Q1010 NOSIG RMK A2983
RPLL,2025-10-11 10:00,RPLL 111000Z 26005KT 9999 FEW025 26/25 Q1010 NOSIG RMK A2983
RPLL,2025-10-11 11:00,RPLL 111100Z VRB02KT 9999 FEW025 28/26 Q1011 NOSIG RMK A2985
RPLL,2025-10-11 12:00,RPLL 111200Z VRB01KT 9999 FEW025 28/26 Q1011 NOSIG RMK A2985
RPLL,2025-10-11 13:00,RPLL 111300Z VRB01KT 9999 FEW025 27/26 Q1012 NOSIG RMK A2988
RPLL,2025-10-11 14:00,COR RPLL 111400Z VRB02KT 9999 -SHRA FEW025 BKN100 27/26 Q1012 NOSIG RMK A2988
RPLL,2025-10-11 15:00,RPLL 111500Z VRB01KT 9999 -RA FEW025 BKN100 27/26 Q1012 NOSIG RMK A2988
RPLL,2025-10-11 16:00,RPLL 111600Z VRB02KT 9000 -RA FEW025 BKN100 27/27 Q1012 NOSIG RMK A2988
RPLL,2025-10-11 17:00,RPLL 111700Z VRB02KT 9999 -RA FEW025 BKN100 26/26 Q1011 NOSIG RMK A2985
RPLL,2025-10-11 18:00,RPLL 111800Z VRB02KT 9999 FEW025 BKN100 26/26 Q1011 NOSIG RMK A2985
RPLL,2025-10-11 19:00,RPLL 111900Z VRB02KT 9999 FEW025 BKN100 26/26 Q1010 NOSIG RMK A2983
RPLL,2025-10-11 20:00,RPLL 112000Z VRB01KT 9999 FEW025 BKN100 26/26 Q1010 NOSIG RMK A2983
RPLL,2025-10-11 21:00,RPLL 112100Z VRB02KT 9999 FEW025 BKN100 26/26 Q1011 NOSIG RMK A2985
RPLL,2025-10-11 22:00,RPLL 112200Z VRB02KT 9000 -SHRA SCT025 BKN100 26/26 Q1012 NOSIG RMK A2988
RPLL,2025-10-11 23:00,RPLL 112300Z 09003KT 060V120 9000 SCT025 BKN100 27/26 Q1012 NOSIG RMK A2988
RPLL,2025-10-12 00:00,RPLL 120000Z 07005KT 9999 FEW025 SCT100 28/25 Q1012 NOSIG RMK A2988
RPLL,2025-10-12 01:00,RPLL 120100Z 04005KT 360V090 9999 FEW025 SCT100 29/25 Q1013 NOSIG RMK A2991
RPLL,2025-10-12 02:00,RPLL 120200Z 12003KT 060V210 9999 SCT025 31/24 Q1012 NOSIG RMK A2988
RPLL,2025-10-12 03:00,RPLL 120300Z 07005KT 020V110 9999 SCT025 31/25 Q1012 NOSIG RMK A2988
RPLL,2025-10-12 04:00,RPLL 120400Z 01004KT 310V120 9999 SCT025 32/26 Q1011 NOSIG RMK A2985
RPLL,2025-10-12 05:00,RPLL 120500Z 32006KT 280V010 9999 FEW025 SCT100 31/25 Q1010 NOSIG RMK A2983
RPLL,2025-10-12 06:00,RPLL 120600Z 26006KT 230V010 9999 FEW025 SCT100 31/26 Q1009 NOSIG RMK A2980
RPLL,2025-10-12 07:00,RPLL 120700Z 30006KT 250V330 9999 FEW025 33/25 Q1008 NOSIG RMK A2977
RPLL,2025-10-12 08:00,RPLL 120800Z 30005KT 280V350 9999 FEW025 SCT100 32/26 Q1009 NOSIG RMK A2980
RPLL,2025-10-12 09:00,RPLL 120900Z 30004KT 220V350 9999 FEW025 SCT100 30/25 Q1009 NOSIG RMK A2980
RPLL,2025-10-12 09:21,RPLL 120921Z 23006KT 150V280 8000 -TSRA FEW022CB SCT023 BKN100 27/25 Q1010 NOSIG RMK A2983 CB SW/NW/OHD
RPLL,2025-10-12 10:00,RPLL 121000Z 28004KT 250V320 9000 -TSRA FEW022CB SCT023 BKN100 28/26 Q1010 NOSIG RMK A2983 CB SW-NW/OHD
RPLL,2025-10-12 11:00,RPLL 121100Z 29003KT 250V020 9999 FEW023CB SCT100 27/26 Q1011 RETS NOSIG RMK A2985 CB/FRQ LTG SW
RPLL,2025-10-12 12:00,RPLL 121200Z VRB02KT 9999 FEW023CB SCT100 28/26 Q1011 NOSIG RMK A2985 CB/FRQ LTG S-SW
RPLL,2025-10-12 13:00,RPLL 121300Z 27004KT 250V340 9999 FEW025 27/27 Q1012 NOSIG RMK A2988
RPLL,2025-10-12 14:00,RPLL 121400Z VRB02KT 9999 FEW025 28/27 Q1012 NOSIG RMK A2988
RPLL,2025-10-12 15:00,RPLL 121500Z VRB02KT 9999 FEW025 SCT100 27/26 Q1012 NOSIG RMK A2988
RPLL,2025-10-12 16:00,RPLL 121600Z 12003KT 080V160 9999 SCT025 BKN100 28/26 Q1012 NOSIG RMK A2988
RPLL,2025-10-12 17:00,RPLL 121700Z VRB02KT 9999 -RA SCT025 BKN090 27/26 Q1011 NOSIG RMK A2985
RPLL,2025-10-12 18:00,RPLL 121800Z 11004KT 080V140 9999 SCT025 BKN100 27/26 Q1011 NOSIG RMK A2985
RPLL,2025-10-12 19:00,RPLL 121900Z 13004KT 090V170 9999 FEW025 BKN100 26/26 Q1011 NOSIG RMK A2985
RPLL,2025-10-12 20:00,RPLL 122000Z 10003KT 9999 FEW025 26/26 Q1011 NOSIG RMK A2985
RPLL,2025-10-12 21:00,RPLL 122100Z 06004KT 9999 FEW025 26/26 Q1011 NOSIG RMK A2985
RPLL,2025-10-12 22:00,RPLL 122200Z VRB02KT 9999 FEW025 26/26 Q1011 NOSIG RMK A2985
RPLL,2025-10-12 23:00,RPLL 122300Z VRB02KT 9999 FEW025 28/25 Q1012 NOSIG RMK A2988
RPLL,2025-10-13 00:00,RPLL 130000Z 35004KT 300V050 9999 FEW025 29/25 Q1012 NOSIG RMK A2988
RPLL,2025-10-13 01:00,RPLL 130100Z 29004KT 240V020 9999 FEW025 29/26 Q1012 NOSIG RMK A2988
RPLL,2025-10-13 02:00,RPLL 130200Z 26006KT 200V310 9999 FEW025 SCT100 31/26 Q1012 NOSIG RMK A2988
RPLL,2025-10-13 03:00,RPLL 130300Z 32005KT 270V350 9999 FEW025 BKN100 29/26 Q1011 NOSIG RMK A2985
RPLL,2025-10-13 04:00,COR RPLL 130400Z VRB04KT 9999 FEW023CB SCT025 BKN100 30/25 Q1011 NOSIG RMK A2985 CB N
RPLL,2025-10-13 05:00,RPLL 130500Z 15004KT 070V210 9999 FEW025 BKN100 31/25 Q1010 NOSIG RMK A2983
RPLL,2025-10-13 06:00,RPLL 130600Z 13005KT 060V210 9999 FEW025 BKN100 32/25 Q1010 NOSIG RMK A2983
RPLL,2025-10-13 07:00,RPLL 130700Z VRB04KT 9999 FEW023CB BKN100 30/26 Q1009 NOSIG RMK A2980 CB E
RPLL,2025-10-13 07:25,RPLL 130725Z 12008KT 080V190 8000 -SHRA FEW022CB SCT023 BKN100 27/26 Q1009 NOSIG RMK A2980 CB N
RPLL,2025-10-13 08:00,RPLL 130800Z VRB02KT 9000 -SHRA FEW023CB SCT025 OVC100 27/26 Q1010 TEMPO -TSRA RMK A2983 CB W/NW
RPLL,2025-10-13 09:00,RPLL 130900Z VRB02KT 9000 FEW022CB SCT023 OVC100 27/26 Q1010 NOSIG RMK A2983 CB SW
RPLL,2025-10-13 10:00,RPLL 131000Z 00000KT 9999 FEW025 BKN100 28/26 Q1010 NOSIG RMK A2983
RPLL,2025-10-13 11:00,RPLL 131100Z 36004KT 320V120 9999 FEW025 BKN100 28/26 Q1011 NOSIG RMK A2985
RPLL,2025-10-13 12:00,RPLL 131200Z VRB02KT 9999 FEW025 BKN100 28/26 Q1011 NOSIG RMK A2985
RPLL,2025-10-13 13:00,RPLL 131300Z VRB01KT 9999 FEW025 BKN100 28/26 Q1011 NOSIG RMK A2985
RPLL,2025-10-13 14:00,RPLL 131400Z VRB01KT 9999 SCT025 BKN100 28/26 Q1011 NOSIG RMK A2985
RPLL,2025-10-13 15:00,RPLL 131500Z VRB01KT 9999 FEW025 BKN100 28/26 Q1011 NOSIG RMK A2985
RPLL,2025-10-13 16:00,RPLL 131600Z VRB01KT 9999 FEW025 BKN100 27/27 Q1011 NOSIG RMK A2985
RPLL,2025-10-13 17:00,RPLL 131700Z VRB02KT 9999 FEW025 27/27 Q1010 NOSIG RMK A2983
RPLL,2025-10-13 18:00,RPLL 131800Z VRB02KT 9999 FEW025 27/27 Q1009 NOSIG RMK A2980
RPLL,2025-10-13 19:00,RPLL 131900Z VRB02KT 9999 FEW025 26/26 Q1009 NOSIG RMK A2980
RPLL,2025-10-13 20:00,RPLL 132000Z 24003KT 210V270 9999 FEW025 BKN100 26/26 Q1008 NOSIG RMK A2977
RPLL,2025-10-13 21:00,RPLL 132100Z 01003KT 330V100 9999 FEW025 27/25 Q1009 NOSIG RMK A2980
RPLL,2025-10-13 22:00,RPLL 132200Z VRB02KT 9999 SCT025 OVC090 27/26 Q1010 NOSIG RMK A2983
RPLL,2025-10-13 23:00,RPLL 132300Z 00000KT 9999 FEW025 BKN100 27/27 Q1011 TEMPO SHRA RMK A2985
RPLL,2025-10-13 23:40,RPLL 132340Z 00000KT 9000 -SHRA SCT023 OVC100 27/27 Q1011 TEMPO SHRA RMK A2985
RPLL,2025-10-14 00:00,RPLL 140000Z VRB02KT 9000 -SHRA SCT023 OVC100 27/27 Q1011 TEMPO 5000 SHRA RMK A2985
RPLL,2025-10-14 01:00,RPLL 140100Z VRB02KT 9000 -RA SCT023 OVC100 26/26 Q1011 NOSIG RMK A2985
RPLL,2025-10-14 02:00,RPLL 140200Z VRB01KT 9000 -RA SCT023 OVC100 26/26 Q1011 NOSIG RMK A2985
RPLL,2025-10-14 03:00,RPLL 140300Z 18003KT 9000 SCT023 OVC100 28/26 Q1010 NOSIG RMK A2983
RPLL,2025-10-14 04:00,RPLL 140400Z 27005KT 9000 SCT023 OVC100 28/26 Q1010 NOSIG RMK A2983
RPLL,2025-10-14 05:00,RPLL 140500Z 27004KT 250V310 9000 SCT023 BKN100 28/26 Q1009 NOSIG RMK A2980
RPLL,2025-10-14 06:00,RPLL 140600Z 27006KT 240V300 9000 SCT023 OVC100 28/26 Q1009 NOSIG RMK A2980
RPLL,2025-10-14 07:00,RPLL 140700Z 28004KT 240V310 9000 SCT023 OVC100 28/26 Q1008 NOSIG RMK A2977
RPLL,2025-10-14 08:00,RPLL 140800Z 26004KT 240V320 9000 SCT023 OVC100 29/26 Q1008 NOSIG RMK A2977
RPLL,2025-10-14 09:00,RPLL 140900Z 24003KT 190V280 9000 SCT025 OVC100 29/26 Q1008 NOSIG RMK A2977
RPLL,2025-10-14 10:00,RPLL 141000Z VRB02KT 9999 FEW025 BKN100 28/25 Q1009 NOSIG RMK A2980
RPLL,2025-10-14 11:00,RPLL 141100Z 27003KT 9999 FEW025 27/25 Q1009 NOSIG RMK A2980
RPLL,2025-10-14 12:00,RPLL 141200Z VRB02KT 9999 FEW025 BKN100 28/26 Q1010 NOSIG RMK A2983
RPLL,2025-10-14 13:00,RPLL 141300Z VRB02KT 9999 FEW025 28/25 Q1010 NOSIG RMK A2983
RPLL,2025-10-14 14:00,RPLL 141400Z VRB01KT 9999 FEW025 27/26 Q1010 NOSIG RMK A2983
RPLL,2025-10-14 15:00,RPLL 141500Z VRB02KT 9000 FEW025 SCT100 27/26 Q1010 NOSIG RMK A2983
RPLL,2025-10-14 16:00,RPLL 141600Z VRB02KT 9000 FEW025 BKN100 27/26 Q1010 NOSIG RMK A2983
RPLL,2025-10-14 17:00,RPLL 141700Z 00000KT 9000 FEW025 BKN100 27/26 Q1009 NOSIG RMK A2980
RPLL,2025-10-14 18:00,RPLL 141800Z VRB01KT 9000 FEW025 SCT100 26/26 Q1009 NOSIG RMK A2980
RPLL,2025-10-14 19:00,RPLL 141900Z 32003KT 270V350 9999 FEW023CB 26/26 Q1009 NOSIG RMK A2980 CB/OCNL LTG N
RPLL,2025-10-14 20:00,RPLL 142000Z 00000KT 9999 FEW025 SCT100 26/26 Q1009 NOSIG RMK A2980
RPLL,2025-10-14 21:00,RPLL 142100Z VRB01KT 9999 FEW023CB SCT100 26/26 Q1009 TEMPO -SHRA RMK A2980 CB/OCNL LTG N-E
RPLL,2025-10-14 22:00,RPLL 142200Z 01008KT 8000 FEW023CB SCT025 BKN100 27/26 Q1010 TEMPO -SHRA RMK A2983 CB/OCNL LTG N
RPLL,2025-10-14 23:00,RPLL 142300Z 01009KT 9000 SCT025 OVC100 26/25 Q1010 NOSIG RMK A2983
RPLL,2025-10-15 00:00,RPLL 150000Z 03003KT 280V090 9000 SCT023 OVC100 26/25 Q1011 NOSIG RMK A2985
RPLL,2025-10-15 01:00,RPLL 150100Z VRB02KT 9000 SCT023 OVC100 27/26 Q1011 TEMPO -SHRA RMK A2985
RPLL,2025-10-15 02:00,COR RPLL 150200Z 01005G15KT 340V050 9000 SCT023 OVC100 26/26 Q1011 NOSIG RMK A2985
RPLL,2025-10-15 02:30,RPLL 150230Z 01005KT 350V110 9000 -SHRA SCT023 OVC100 27/26 Q1010 NOSIG RMK A2983
RPLL,2025-10-15 03:00,RPLL 150300Z 36004KT 330V030 9000 SCT023 BKN100 27/26 Q1010 NOSIG RMK A2983
RPLL,2025-10-15 04:00,RPLL 150400Z VRB02KT 9999 FEW025 BKN100 29/25 Q1009 NOSIG RMK A2980
RPLL,2025-10-15 05:00,RPLL 150500Z 29006KT 170V330 9999 FEW025 BKN100 29/26 Q1008 NOSIG RMK A2977
RPLL,2025-10-15 06:00,RPLL 150600Z 31005KT 260V330 9000 FEW025 BKN100 29/26 Q1008 NOSIG RMK A2977
RPLL,2025-10-15 07:00,RPLL 150700Z 29007KT 9000 -SHRA FEW022CB SCT023 BKN100 29/26 Q1007 NOSIG RMK A2974 CB N/NE
RPLL,2025-10-15 08:00,RPLL 150800Z VRB01KT 9000 -RA SCT023 OVC100 29/26 Q1008 NOSIG RMK A2977
RPLL,2025-10-15 09:00,RPLL 150900Z 00000KT 9000 FEW025 SCT100 29/26 Q1008 NOSIG RMK A2977
RPLL,2025-10-15 10:00,RPLL 151000Z VRB02KT 9000 VCSH FEW025 BKN090 28/26 Q1009 NOSIG RMK A2980 VCSH N
RPLL,2025-10-15 11:00,RPLL 151100Z VRB02KT 9000 FEW025 BKN100 28/26 Q1009 NOSIG RMK A2980
RPLL,2025-10-15 12:00,RPLL 151200Z 00000KT 9999 FEW025 BKN100 28/26 Q1010 NOSIG RMK A2983
RPLL,2025-10-15 13:00,RPLL 151300Z 00000KT 9000 FEW025 28/26 Q1010 NOSIG RMK A2983
RPLL,2025-10-15 14:00,RPLL 151400Z VRB01KT 9000 FEW025 28/27 Q1010 NOSIG RMK A2983
RPLL,2025-10-15 15:00,RPLL 151500Z VRB02KT 9000 FEW025 SCT100 28/27 Q1010 NOSIG RMK A2983
RPLL,2025-10-15 16:00,RPLL 151600Z VRB02G12KT 9000 FEW025 SCT100 28/27 Q1009 NOSIG RMK A2980
RPLL,2025-10-15 17:00,RPLL 151700Z 32003KT 280V010 9999 FEW025 SCT100 27/26 Q1009 NOSIG RMK A2980
RPLL,2025-10-15 18:00,RPLL 151800Z 08005KT 060V120 9999 -RA FEW025 BKN100 27/26 Q1009 TEMPO 5000 RA RMK A2980
RPLL,2025-10-15 19:00,RPLL 151900Z 09003KT 060V140 9999 -RA FEW025 BKN100 26/25 Q1008 NOSIG RMK A2977
RPLL,2025-10-15 20:00,RPLL 152000Z VRB02KT 9999 FEW025 BKN100 26/26 Q1008 NOSIG RMK A2977
RPLL,2025-10-15 21:00,RPLL 152100Z VRB01KT 9999 FEW025 BKN100 26/26 Q1009 NOSIG RMK A2980
RPLL,2025-10-15 22:00,RPLL 152200Z 00000KT 9999 FEW025 BKN100 26/26 Q1010 NOSIG RMK A2983
RPLL,2025-10-15 23:00,RPLL 152300Z 00000KT 9999 FEW025 BKN100 27/26 Q1010 NOSIG RMK A2983
RPLL,2025-10-16 00:00,RPLL 160000Z VRB02KT 9000 FEW025 BKN100 28/26 Q1010 NOSIG RMK A2983
RPLL,2025-10-16 01:00,RPLL 160100Z 08003KT 050V130 9000 FEW025 BKN100 29/25 Q1010 NOSIG RMK A2983
RPLL,2025-10-16 02:00,RPLL 160200Z 07004KT 030V120 9000 FEW025 BKN100 30/25 Q1010 NOSIG RMK A2983
RPLL,2025-10-16 03:00,RPLL 160300Z 28005KT 240V340 9000 FEW025 BKN100 30/26 Q1009 NOSIG RMK A2980
RPLL,2025-10-16 04:00,RPLL 160400Z 30005KT 250V360 9999 FEW025 BKN100 31/25 Q1008 NOSIG RMK A2977
RPLL,2025-10-16 05:00,RPLL 160500Z 12006KT 070V150 9999 FEW025 SCT100 33/24 Q1007 NOSIG RMK A2974
RPLL,2025-10-16 06:00,RPLL 160600Z 11006KT 060V140 9999 FEW025 SCT100 33/24 Q1007 NOSIG RMK A2974
RPLL,2025-10-16 07:00,RPLL 160700Z 10008KT 060V140 9999 FEW025 SCT100 33/24 Q1007 NOSIG RMK A2974
RPLL,2025-10-16 08:00,RPLL 160800Z 11008KT 070V150 9999 FEW025 SCT100 32/24 Q1007 NOSIG RMK A2974
RPLL,2025-10-16 09:00,RPLL 160900Z 10006KT 070V140 9999 FEW025 SCT100 32/24 Q1008 NOSIG RMK A2977
RPLL,2025-10-16 10:00,RPLL 161000Z 13005KT 090V160 9999 FEW025 BKN100 30/25 Q1008 NOSIG RMK A2977
RPLL,2025-10-16 11:00,RPLL 161100Z 12007KT 070V160 9999 FEW025 BKN100 30/25 Q1008 NOSIG RMK A2977
RPLL,2025-10-16 12:00,RPLL 161200Z 11008KT 080V140 9999 FEW025 BKN130 29/25 Q1009 NOSIG RMK A2980
RPLL,2025-10-16 13:00,RPLL 161300Z 12005KT 090V170 9999 FEW025 BKN150 29/25 Q1009 NOSIG RMK A2980
RPLL,2025-10-16 14:00,RPLL 161400Z 07003KT 9999 FEW025 SCT150 28/25 Q1009 NOSIG RMK A2980
RPLL,2025-10-16 15:00,RPLL 161500Z 08004KT 9999 FEW025 BKN100 29/25 Q1009 NOSIG RMK A2980
RPLL,2025-10-16 16:00,RPLL 161600Z 07003KT 9999 FEW025 BKN100 28/26 Q1009 NOSIG RMK A2980
RPLL,2025-10-16 17:00,RPLL 161700Z VRB02KT 9999 FEW025 BKN150 28/25 Q1008 NOSIG RMK A2977
RPLL,2025-10-16 18:00,RPLL 161800Z VRB02KT 9999 FEW025 BKN100 28/25 Q1008 NOSIG RMK A2977
RPLL,2025-10-16 19:00,RPLL 161900Z VRB01KT 9999 FEW025 BKN100 28/25 Q1008 NOSIG RMK A2977
RPLL,2025-10-16 20:00,RPLL 162000Z 09003KT 050V130 8000 -RA SCT025 BKN090 27/26 Q1008 NOSIG RMK A2977
RPLL,2025-10-16 21:00,RPLL 162100Z 35005KT 310V030 9999 FEW025 BKN130 27/26 Q1008 NOSIG RMK A2977
RPLL,2025-10-16 22:00,RPLL 162200Z VRB02KT 9999 FEW025 BKN100 27/26 Q1009 NOSIG RMK A2980
RPLL,2025-10-16 23:00,RPLL 162300Z 08003KT 050V130 9999 -RA FEW025 BKN100 27/26 Q1010 NOSIG RMK A2983
RPLL,2025-10-17 00:00,RPLL 170000Z 14003KT 090V180 9999 FEW025 BKN100 30/25 Q1010 NOSIG RMK A2983
RPLL,2025-10-17 01:00,RPLL 170100Z 10004KT 060V190 9999 FEW025 BKN100 30/25 Q1010 NOSIG RMK A2983
RPLL,2025-10-17 02:00,RPLL 170200Z 07003KT 030V200 9999 FEW025 SCT100 31/25 Q1010 NOSIG RMK A2983
RPLL,2025-10-17 03:00,RPLL 170300Z 30006KT 260V030 9999 FEW023 BKN090 30/25 Q1009 NOSIG RMK A2980
RPLL,2025-10-17 04:00,RPLL 170400Z 30004KT 230V010 9999 SCT023 BKN100 31/26 Q1009 NOSIG RMK A2980
RPLL,2025-10-17 05:00,RPLL 170500Z 26006KT 220V330 9999 SCT023 BKN100 31/26 Q1007 NOSIG RMK A2974
RPLL,2025-10-17 06:00,RPLL 170600Z 10005KT 040V150 9999 SCT023 BKN090 33/24 Q1007 NOSIG RMK A2974
RPLL,2025-10-17 07:00,RPLL 170700Z 13005KT 090V190 9999 SCT023 BKN090 32/24 Q1007 NOSIG RMK A2974
RPLL,2025-10-17 08:00,RPLL 170800Z 13005KT 080V170 9999 SCT023 BKN090 31/25 Q1007 NOSIG RMK A2974
RPLL,2025-10-17 09:00,RPLL 170900Z VRB02KT 9999 FEW025 BKN090 31/25 Q1007 NOSIG RMK A2974
RPLL,2025-10-17 10:00,RPLL 171000Z VRB03KT 9999 FEW025 BKN090 30/25 Q1007 NOSIG RMK A2974
RPLL,2025-10-17 11:00,RPLL 171100Z 03007KT 340V060 9999 FEW025 SCT100 30/24 Q1008 NOSIG RMK A2977
RPLL,2025-10-17 12:00,RPLL 171200Z 08005KT 040V130 9999 -RA SCT023 BKN090 30/24 Q1008 NOSIG RMK A2977
RPLL,2025-10-17 13:00,RPLL 171300Z 09004KT 9999 SCT023 BKN090 30/24 Q1008 NOSIG RMK A2977
RPLL,2025-10-17 14:00,RPLL 171400Z 09005KT 9999 FEW023 BKN090 29/25 Q1008 NOSIG RMK A2977
RPLL,2025-10-17 15:00,RPLL 171500Z 11002KT 9999 FEW023 BKN090 29/25 Q1008 NOSIG RMK A2977
RPLL,2025-10-17 16:00,RPLL 171600Z VRB02KT 9999 FEW025 SCT100 28/25 Q1007 NOSIG RMK A2974
RPLL,2025-10-17 17:00,RPLL 171700Z VRB02KT 9999 FEW025 28/26 Q1007 NOSIG RMK A2974
RPLL,2025-10-17 18:00,RPLL 171800Z VRB01KT 9999 FEW025 28/26 Q1006 NOSIG RMK A2971
RPLL,2025-10-17 19:00,RPLL 171900Z VRB01KT 9999 FEW025 27/26 Q1006 NOSIG RMK A2971
RPLL,2025-10-17 20:00,RPLL 172000Z 22003KT 200V260 9999 FEW025 27/26 Q1006 NOSIG RMK A2971
RPLL,2025-10-17 21:00,RPLL 172100Z VRB02KT 9999 FEW025 27/24 Q1006 NOSIG RMK A2971
RPLL,2025-10-17 22:00,RPLL 172200Z 01005KT 340V060 9999 FEW025 SCT100 28/24 Q1006 NOSIG RMK A2971
RPLL,2025-10-17 23:00,RPLL 172300Z 07004KT 010V140 9999 SCT025 BKN090 28/25 Q1007 NOSIG RMK A2974
RPLL,2025-10-18 00:00,RPLL 180000Z 07006KT 360V100 9999 SCT023 30/25 Q1007 NOSIG RMK A2974
RPLL,2025-10-18 01:00,RPLL 180100Z VRB04KT 9999 SCT023 BKN090 30/25 Q1008 NOSIG RMK A2977
RPLL,2025-10-18 01:14,RPLL 180114Z 28007KT 250V310 8000 -RA SCT023 BKN080 29/25 Q1008 NOSIG RMK A2977
RPLL,2025-10-18 02:00,RPLL 180200Z VRB02KT 9999 SCT025 BKN080 30/24 Q1008 NOSIG RMK A2977
RPLL,2025-10-18 03:00,RPLL 180300Z 03011KT 9000 -RA SCT023 OVC080 30/26 Q1007 NOSIG RMK A2974
RPLL,2025-10-18 04:00,RPLL 180400Z 06003KT 010V150 9000 -RA SCT023 OVC080 30/27 Q1006 NOSIG RMK A2971
RPLL,2025-10-18 05:00,RPLL 180500Z 05005KT 020V090 9000 -RA SCT022 OVC080 29/26 Q1005 NOSIG RMK A2968
RPLL,2025-10-18 06:00,RPLL 180600Z 03005KT 360V090 9999 SCT025 BKN100 31/25 Q1004 NOSIG RMK A2965
RPLL,2025-10-18 07:00,RPLL 180700Z 03008KT 9999 SCT023 BKN100 32/25 Q1004 NOSIG RMK A2965
RPLL,2025-10-18 08:00,COR RPLL 180800Z 03013KT 360V070 9999 SCT025 BKN100 31/24 Q1004 NOSIG RMK A2965
RPLL,2025-10-18 09:00,RPLL 180900Z 03011KT 9999 -RA SCT023 BKN100 30/24 Q1003 NOSIG RMK A2962
RPLL,2025-10-18 10:00,RPLL 181000Z 01007KT 330V040 9999 SCT023 BKN100 30/24 Q1004 NOSIG RMK A2965
RPLL,2025-10-18 11:00,RPLL 181100Z 02008KT 350V060 9999 SCT023 BKN100 30/24 Q1004 NOSIG RMK A2965
RPLL,2025-10-18 12:00,RPLL 181200Z 01006KT 330V040 9999 FEW023 BKN100 29/24 Q1004 NOSIG RMK A2965
RPLL,2025-10-18 13:00,RPLL 181300Z 01009KT 340V060 9999 FEW025 BKN100 29/24 Q1005 NOSIG RMK A2968
RPLL,2025-10-18 14:00,RPLL 181400Z 03011G21KT 360V060 9000 -RA SCT023 OVC090 29/25 Q1005 NOSIG RMK A2968
RPLL,2025-10-18 15:00,RPLL 181500Z 08004KT 050V130 8000 -RA SCT023 OVC090 27/25 Q1005 TEMPO 5000 RA RMK A2968
RPLL,2025-10-18 16:00,RPLL 181600Z 02004KT 340V060 7000 RA SCT023 OVC090 26/25 Q1004 TEMPO 3000 +RA RMK A2965
RPLL,2025-10-18 17:00,COR RPLL 181700Z 34005KT 310V060 9999 -RA FEW023 BKN090 26/25 Q1003 RERA NOSIG RMK A2962
RPLL,2025-10-18 18:00,RPLL 181800Z 02004KT 9999 -RA FEW023 BKN090 26/25 Q1002 NOSIG RMK A2959
RPLL,2025-10-18 19:00,RPLL 181900Z VRB02KT 9999 -RA FEW025 OVC100 26/25 Q1003 NOSIG RMK A2963
RPLL,2025-10-18 20:00,RPLL 182000Z 31003KT 230V040 9999 -RA SCT025 OVC090 26/25 Q1001 NOSIG RMK A2956
RPLL,2025-10-18 21:00,RPLL 182100Z VRB04KT 7000 RA SCT023 OVC090 26/25 Q1001 NOSIG RMK A2956
RPLL,2025-10-18 22:00,RPLL 182200Z VRB03KT 9000 -RA BKN020 OVC090 25/25 Q1002 RERA NOSIG RMK A2959
RPLL,2025-10-18 23:00,RPLL 182300Z 01007KT 9000 -RA SCT020 OVC090 26/25 Q1002 NOSIG RMK A2959
RPLL,2025-10-19 00:00,RPLL 190000Z 33008KT 280V030 9000 -RA SCT020 OVC090 26/25 Q1003 NOSIG RMK A2962
RPLL,2025-10-19 01:00,COR RPLL 190100Z 04005KT 9000 -RA SCT020 OVC090 26/25 Q1003 NOSIG RMK A2962
RPLL,2025-10-19 02:00,RPLL 190200Z 17005KT 050V200 5000 RA BKN020 OVC090 25/25 Q1004 NOSIG RMK A2965
RPLL,2025-10-19 03:00,RPLL 190300Z 18004KT 8000 -RA BKN020 OVC090 26/26 Q1004 RERA NOSIG RMK A2965
RPLL,2025-10-19 04:00,RPLL 190400Z 16005KT 120V210 9000 -RA SCT022 OVC090 26/26 Q1004 NOSIG RMK A2965
RPLL,2025-10-19 05:00,RPLL 190500Z 16006KT 130V200 9000 -RA SCT022 OVC090 27/26 Q1004 NOSIG RMK A2965
RPLL,2025-10-19 06:00,RPLL 190600Z 15005KT 070V200 9000 -RA SCT022 OVC090 27/26 Q1003 NOSIG RMK A2962
RPLL,2025-10-19 07:00,RPLL 190700Z 15004KT 110V210 9000 -RA SCT022 OVC090 27/26 Q1004 NOSIG RMK A2965
RPLL,2025-10-19 08:00,RPLL 190800Z 17005KT 140V200 9000 -RA SCT022 OVC090 27/26 Q1004 NOSIG RMK A2965
RPLL,2025-10-19 09:00,RPLL 190900Z 12003KT 070V160 9000 -RA SCT022 OVC090 27/26 Q1005 NOSIG RMK A2968
RPLL,2025-10-19 10:00,RPLL 191000Z 15004KT 090V220 9000 -RA SCT022 BKN090 27/27 Q1005 NOSIG RMK A2968
RPLL,2025-10-19 11:00,RPLL 191100Z 13003KT 090V160 9999 FEW022 SCT090 27/26 Q1006 NOSIG RMK A2971
RPLL,2025-10-19 12:00,RPLL 191200Z VRB02KT 9999 SCT022 BKN090 27/27 Q1007 NOSIG RMK A2974
RPLL,2025-10-19 13:00,RPLL 191300Z VRB02KT 9999 SCT022 BKN090 27/26 Q1008 NOSIG RMK A2977
RPLL,2025-10-19 14:00,RPLL 191400Z VRB02KT 9999 SCT022 BKN090 27/26 Q1008 NOSIG RMK A2977
RPLL,2025-10-19 15:00,RPLL 191500Z VRB01KT 9999 SCT025 BKN090 27/26 Q1008 NOSIG RMK A2977
RPLL,2025-10-19 16:00,RPLL 191600Z 11004KT 080V140 9999 FEW025 BKN100 27/26 Q1008 NOSIG RMK A2977
RPLL,2025-10-19 17:00,RPLL 191700Z 11003KT 070V150 9999 FEW025 27/26 Q1007 NOSIG RMK A2974
RPLL,2025-10-19 18:00,RPLL 191800Z 11005KT 070V160 9999 FEW025 27/26 Q1005 NOSIG RMK A2968
RPLL,2025-10-19 19:00,RPLL 191900Z 12004KT 090V160 9999 FEW025 27/26 Q1005 NOSIG RMK A2968
RPLL,2025-10-19 20:00,RPLL 192000Z 11006KT 080V150 9999 FEW025 27/26 Q1005 NOSIG RMK A2968
RPLL,2025-10-19 21:00,RPLL 192100Z 11005KT 070V140 9999 FEW025 27/26 Q1005 NOSIG RMK A2968
RPLL,2025-10-19 22:00,RPLL 192200Z 10005KT 070V130 9999 FEW025 SCT100 27/26 Q1006 NOSIG RMK A2971
RPLL,2025-10-19 23:00,RPLL 192300Z 05005KT 050V110 9999 FEW025 28/26 Q1007 NOSIG RMK A2974
RPLL,2025-10-20 00:00,COR RPLL 200000Z 09006KT 050V110 9999 FEW025 SCT100 29/26 Q1008 NOSIG RMK A2977
RPLL,2025-10-20 01:00,COR RPLL 200100Z 05006KT 9999 FEW025 SCT100 31/25 Q1008 NOSIG RMK A2977
RPLL,2025-10-20 02:00,COR RPLL 200200Z 10009KT 070V130 9999 FEW025 31/25 Q1008 NOSIG RMK A2977
RPLL,2025-10-20 03:00,RPLL 200300Z 09010KT 060V150 9999 FEW025 32/25 Q1007 NOSIG RMK A2974
RPLL,2025-10-20 04:00,RPLL 200400Z 11008KT 080V150 9999 FEW025 33/25 Q1006 NOSIG RMK A2971
RPLL,2025-10-20 05:00,COR RPLL 200500Z 10008KT 060V150 9999 FEW025 33/25 Q1006 RMK A2971
RPLL,2025-10-20 06:00,COR RPLL 200600Z 11008KT 070V150 9999 FEW025 34/25 Q1005 NOSIG RMK A2968
RPLL,2025-10-20 07:00,RPLL 200700Z 10008KT 070V140 9999 FEW025 SCT100 33/24 Q1005 NOSIG RMK A2968
RPLL,2025-10-20 08:00,RPLL 200800Z 11007KT 070V140 9999 FEW025 SCT100 33/24 Q1005 NOSIG RMK A2968
RPLL,2025-10-20 09:00,RPLL 200900Z 11008KT 080V140 9999 FEW025 SCT100 32/25 Q1005 NOSIG RMK A2968
RPLL,2025-10-20 10:00,RPLL 201000Z 12005KT 060V140 9999 FEW025 SCT100 31/25 Q1006 NOSIG RMK A2968
RPLL,2025-10-20 11:00,RPLL 201100Z 12004KT 090V160 9999 FEW025 30/26 Q1007 NOSIG RMK A2974
RPLL,2025-10-20 12:00,RPLL 201200Z 12004KT 070V160 9999 FEW025 30/25 Q1008 NOSIG RMK A2977
RPLL,2025-10-20 13:00,RPLL 201300Z 12004KT 080V150 9999 FEW025 29/26 Q1009 NOSIG RMK A2980
RPLL,2025-10-20 14:00,RPLL 201400Z 12005KT 080V160 9999 SCT025 29/25 Q1009 NOSIG RMK A2980
RPLL,2025-10-20 15:00,RPLL 201500Z 12003KT 060V160 9999 FEW025 29/25 Q1009 NOSIG RMK A2980
RPLL,2025-10-20 16:00,RPLL 201600Z 16003KT 120V200 9999 FEW025 29/25 Q1009 NOSIG RMK A2980
RPLL,2025-10-20 17:00,RPLL 201700Z VRB02KT 9999 FEW025 28/25 Q1008 NOSIG RMK A2977
RPLL,2025-10-20 18:00,RPLL 201800Z 11004KT 080V140 9999 FEW025 28/25 Q1008 NOSIG RMK A2977
RPLL,2025-10-20 19:00,RPLL 201900Z VRB02KT 9999 FEW025 SCT100 28/26 Q1007 NOSIG RMK A2974
RPLL,2025-10-20 20:00,RPLL 202000Z 10003KT 9999 FEW025 SCT100 27/26 Q1007 NOSIG RMK A2974
RPLL,2025-10-20 21:00,RPLL 202100Z 08003KT 9999 FEW025 SCT100 27/26 Q1007 NOSIG RMK A2974
RPLL,2025-10-20 22:00,RPLL 202200Z VRB01KT 9999 FEW025 SCT100 27/25 Q1008 NOSIG RMK A2977
RPLL,2025-10-20 23:00,RPLL 202300Z VRB02KT 9999 FEW025 SCT100 29/26 Q1008 NOSIG RMK A2977
RPLL,2025-10-21 00:00,RPLL 210000Z 07004KT 030V110 9999 FEW025 30/25 Q1009 NOSIG RMK A2980
RPLL,2025-10-21 01:00,RPLL 210100Z 13003KT 070V200 9999 FEW025 31/25 Q1009 NOSIG RMK A2980
RPLL,2025-10-21 02:00,RPLL 210200Z VRB02KT 9999 FEW025 SCT100 31/25 Q1009 NOSIG RMK A2980
RPLL,2025-10-21 03:00,RPLL 210300Z 27005KT 220V340 9999 FEW025 BKN100 30/26 Q1008 NOSIG RMK A2977
RPLL,2025-10-21 04:00,COR RPLL 210400Z 32005KT 270V360 9000 FEW025 BKN100 31/26 Q1008 NOSIG RMK A2977
RPLL,2025-10-21 05:00,RPLL 210500Z 16006KT 070V210 9000 -SHRA SCT023 BKN100 29/27 Q1007 NOSIG RMK A2974
RPLL,2025-10-21 06:00,RPLL 210600Z VRB02KT 9000 FEW022CB SCT023 BKN100 31/26 Q1007 NOSIG RMK A2974 CB NE
RPLL,2025-10-21 07:00,COR RPLL 210700Z 01006KT 330V050 9999 SCT025 SCT100 31/25 Q1006 NOSIG RMK A2971
RPLL,2025-10-21 08:00,RPLL 210800Z 05003KT 360V100 9999 SCT025 32/25 Q1006 NOSIG RMK A2971
RPLL,2025-10-21 09:00,RPLL 210900Z 14004KT 100V170 9999 FEW025 32/25 Q1006 NOSIG RMK A2971
RPLL,2025-10-21 10:00,RPLL 211000Z 12003KT 080V160 9999 FEW025 30/25 Q1007 NOSIG RMK A2974
RPLL,2025-10-21 11:00,COR RPLL 211100Z 13004KT 090V160 9999 FEW025 SCT100 30/25 Q1008 NOSIG RMK A2977
RPLL,2025-10-21 12:00,RPLL 211200Z 14004KT 090V190 9999 FEW025 SCT100 29/25 Q1008 NOSIG RMK A2977
RPLL,2025-10-21 13:00,RPLL 211300Z 11003KT 080V140 9999 FEW025 29/26 Q1009 NOSIG RMK A2980
RPLL,2025-10-21 14:00,RPLL 211400Z 12003KT 080V160 9999 FEW025 29/26 Q1009 NOSIG RMK A2980
RPLL,2025-10-21 15:00,RPLL 211500Z 13004KT 100V170 9999 FEW025 BKN100 29/26 Q1009 NOSIG RMK A2980
RPLL,2025-10-21 16:00,RPLL 211600Z 14003KT 080V190 9999 FEW025 BKN100 29/26 Q1009 NOSIG RMK A2980
RPLL,2025-10-21 17:00,RPLL 211700Z VRB02KT 9999 FEW025 BKN090 28/26 Q1008 NOSIG RMK A2977
RPLL,2025-10-21 18:00,RPLL 211800Z 11003KT 080V140 9999 FEW025 BKN090 28/25 Q1008 NOSIG RMK A2977
RPLL,2025-10-21 19:00,RPLL 211900Z VRB02KT 9999 SCT025 BKN090 28/25 Q1007 NOSIG RMK A2974
RPLL,2025-10-21 20:00,RPLL 212000Z VRB02KT 9999 FEW025 28/25 Q1007 NOSIG RMK A2974
RPLL,2025-10-21 21:00,RPLL 212100Z 04001KT 9999 FEW025 27/25 Q1007 NOSIG RMK A2974
RPLL,2025-10-21 22:00,RPLL 212200Z VRB01KT 9999 FEW025 SCT090 27/25 Q1008 NOSIG RMK A2977
RPLL,2025-10-21 23:00,RPLL 212300Z VRB02KT 9999 FEW025 28/26 Q1008 NOSIG RMK A2977
RPLL,2025-10-22 00:00,RPLL 220000Z VRB02KT 9999 FEW030 30/25 Q1009 NOSIG RMK A2980
RPLL,2025-10-22 01:00,RPLL 220100Z VRB04KT 9999 FEW023 SCT100 31/25 Q1009 NOSIG RMK A2980
RPLL,2025-10-22 02:00,RPLL 220200Z 11006KT 050V180 9999 FEW025 32/25 Q1009 NOSIG RMK A2980
RPLL,2025-10-22 03:00,RPLL 220300Z 09004KT 030V190 9999 FEW025 33/25 Q1008 NOSIG RMK A2977
RPLL,2025-10-22 04:00,RPLL 220400Z VRB05KT 9999 SCT025 34/24 Q1008 NOSIG RMK A2977
RPLL,2025-10-22 05:00,RPLL 220500Z VRB05KT 9999 SCT025 34/25 Q1007 NOSIG RMK A2974
RPLL,2025-10-22 06:00,RPLL 220600Z 15004KT 080V220 9999 SCT025 34/25 Q1006 NOSIG RMK A2971
RPLL,2025-10-22 07:00,RPLL 220700Z VRB04KT 9999 FEW023CB SCT025 BKN090 32/25 Q1006 NOSIG RMK A2971 CB N
RPLL,2025-10-22 08:00,RPLL 220800Z 31005KT 280V340 9999 -SHRA SCT023 BKN090 31/25 Q1006 NOSIG RMK A2971
RPLL,2025-10-22 09:00,RPLL 220900Z 36014KT 8000 -RA SCT022 OVC080 27/27 Q1007 NOSIG RMK A2974
RPLL,2025-10-22 10:00,RPLL 221000Z VRB02KT 9999 FEW023CB SCT025 27/25 Q1007 NOSIG RMK A2974 CB/LTG W
RPLL,2025-10-22 11:00,RPLL 221100Z 09003KT 9999 FEW025 28/25 Q1008 NOSIG RMK A2977
RPLL,2025-10-22 12:00,RPLL 221200Z VRB01KT 9999 FEW025 28/26 Q1009 NOSIG RMK A2980
RPLL,2025-10-22 13:00,RPLL 221300Z VRB02KT 9999 FEW025 SCT150 29/26 Q1009 NOSIG RMK A2980
RPLL,2025-10-22 14:00,RPLL 221400Z 11003KT 080V140 9999 FEW025 SCT100 29/25 Q1009 NOSIG RMK A2980
RPLL,2025-10-22 15:00,RPLL 221500Z 09003KT 050V120 9999 FEW025 28/25 Q1009 NOSIG RMK A2980
RPLL,2025-10-22 16:00,RPLL 221600Z VRB02KT 9999 FEW025 SCT100 28/26 Q1009 NOSIG RMK A2980
RPLL,2025-10-22 17:00,RPLL 221700Z 34003KT 280V050 9999 FEW025 28/25 Q1008 NOSIG RMK A2977
RPLL,2025-10-22 18:00,RPLL 221800Z VRB02KT 9999 FEW025 SCT100 28/25 Q1008 NOSIG RMK A2977
RPLL,2025-10-22 19:00,RPLL 221900Z VRB01KT 9999 FEW025 SCT130 28/26 Q1007 NOSIG RMK A2974
RPLL,2025-10-22 20:00,RPLL 222000Z 00000KT 9999 FEW025 BKN130 27/25 Q1007 NOSIG RMK A2974
RPLL,2025-10-22 21:00,RPLL 222100Z VRB01KT 9999 FEW025 27/25 Q1008 NOSIG RMK A2977
RPLL,2025-10-22 22:00,RPLL 222200Z VRB01KT 9999 FEW025 SCT100 27/25 Q1008 NOSIG RMK A2977
RPLL,2025-10-22 23:00,RPLL 222300Z VRB01KT 9999 FEW025 28/26 Q1008 NOSIG RMK A2977
RPLL,2025-10-23 00:00,RPLL 230000Z VRB02KT 9000 FEW023 30/25 Q1009 NOSIG RMK A2980
RPLL,2025-10-23 01:00,RPLL 230100Z VRB04KT 9999 FEW025 31/25 Q1009 NOSIG RMK A2980
RPLL,2025-10-23 02:00,RPLL 230200Z 11007KT 060V160 9999 FEW025 BKN090 32/24 Q1010 NOSIG RMK A2983
RPLL,2025-10-23 03:00,RPLL 230300Z VRB03KT 9999 FEW025 BKN090 32/24 Q1009 NOSIG RMK A2980
RPLL,2025-10-23 04:00,RPLL 230400Z VRB04KT 9999 FEW025 BKN100 33/25 Q1008 NOSIG RMK A2977
RPLL,2025-10-23 05:00,RPLL 230500Z 12006KT 070V180 9999 SCT025 33/25 Q1007 NOSIG RMK A2974
RPLL,2025-10-23 06:00,RPLL 230600Z 13007KT 070V180 9999 FEW025 34/26 Q1006 NOSIG RMK A2971
RPLL,2025-10-23 07:00,RPLL 230700Z 11008KT 080V160 9999 FEW025 33/25 Q1006 NOSIG RMK A2971
RPLL,2025-10-23 08:00,RPLL 230800Z 12007KT 080V170 9999 FEW025 33/26 Q1006 NOSIG RMK A2971
RPLL,2025-10-23 09:00,RPLL 230900Z 12008KT 080V170 9999 SCT025 32/25 Q1006 NOSIG RMK A2971
RPLL,2025-10-23 10:00,RPLL 231000Z 12007KT 090V170 9999 SCT025 31/25 Q1007 NOSIG RMK A2974
RPLL,2025-10-23 11:00,RPLL 231100Z 11006KT 060V160 9999 FEW023CB 30/25 Q1008 NOSIG RMK A2977 CB/OCNL LTG W
RPLL,2025-10-23 12:00,RPLL 231200Z 12003KT 050V190 9999 FEW023CB 30/25 Q1009 NOSIG RMK A2980 CB/OCNL LTG W
RPLL,2025-10-23 13:00,RPLL 231300Z 12004KT 080V160 9999 SCT025 29/26 Q1009 NOSIG RMK A2980
RPLL,2025-10-23 14:00,RPLL 231400Z 11006KT 080V150 9999 SCT025 BKN100 29/26 Q1010 NOSIG RMK A2983
RPLL,2025-10-23 15:00,RPLL 231500Z 11004KT 070V160 9999 FEW025 SCT100 29/26 Q1009 NOSIG RMK A2980
RPLL,2025-10-23 16:00,RPLL 231600Z 10003KT 060V140 9999 FEW025 SCT100 29/25 Q1009 NOSIG RMK A2980
RPLL,2025-10-23 17:00,RPLL 231700Z 10005KT 070V140 9000 -RA SCT023 BKN090 29/26 Q1009 NOSIG RMK A2980
RPLL,2025-10-23 18:00,RPLL 231800Z 13003KT 080V180 9999 FEW025 BKN100 29/25 Q1009 NOSIG RMK A2980
RPLL,2025-10-23 19:00,RPLL 231900Z 11004KT 070V150 9999 FEW025 BKN100 29/26 Q1009 NOSIG RMK A2980
RPLL,2025-10-23 20:00,RPLL 232000Z 09006KT 050V110 9999 FEW025 BKN100 27/24 Q1009 NOSIG RMK A2980
RPLL,2025-10-23 21:00,RPLL 232100Z 10006KT 070V140 9999 -RA SCT025 BKN100 27/24 Q1009 NOSIG RMK A2980
RPLL,2025-10-23 22:00,RPLL 232200Z 08004KT 9999 -RA FEW025 BKN100 25/25 Q1009 NOSIG RMK A2980
RPLL,2025-10-23 23:00,RPLL 232300Z VRB02KT 9999 FEW025 BKN100 26/25 Q1009 NOSIG RMK A2980
RPLL,2025-10-24 00:00,RPLL 240000Z 11004KT 060V170 9999 FEW025 BKN100 28/24 Q1010 NOSIG RMK A2983
RPLL,2025-10-24 01:00,COR RPLL 240100Z 07004KT 020V130 9999 FEW025 SCT100 30/25 Q1010 NOSIG RMK A2983
RPLL,2025-10-24 02:00,RPLL 240200Z 09004KT 040V150 9999 FEW025 SCT100 31/24 Q1010 NOSIG RMK A2983
RPLL,2025-10-24 03:00,RPLL 240300Z 13007KT 080V210 9999 FEW025 32/25 Q1009 NOSIG RMK A2980
RPLL,2025-10-24 04:00,RPLL 240400Z 13008KT 070V180 9999 FEW025 33/24 Q1008 NOSIG RMK A2977
RPLL,2025-10-24 05:00,RPLL 240500Z 13008KT 090V190 9999 FEW025 33/25 Q1007 NOSIG RMK A2974
RPLL,2025-10-24 06:00,RPLL 240600Z 13008KT 080V170 9999 FEW023CB SCT025 34/24 Q1007 NOSIG RMK A2974 CB NW-N
RPLL,2025-10-24 07:00,RPLL 240700Z 12007KT 070V170 9999 FEW023CB SCT025 33/24 Q1006 NOSIG RMK A2971 CB N
RPLL,2025-10-24 08:00,RPLL 240800Z 36006KT 300V040 9999 SCT025 BKN090 30/24 Q1007 NOSIG RMK A2974
RPLL,2025-10-24 09:00,RPLL 240900Z 01007KT 340V050 9999 SCT025 29/24 Q1007 NOSIG RMK A2974
RPLL,2025-10-24 10:00,RPLL 241000Z VRB02KT 9999 SCT025 29/24 Q1008 NOSIG RMK A2977
RPLL,2025-10-24 11:00,RPLL 241100Z VRB01KT 9999 FEW025 29/24 Q1009 NOSIG RMK A2980
RPLL,2025-10-24 12:00,RPLL 241200Z 11003KT 080V150 9999 FEW025 SCT100 30/25 Q1010 NOSIG RMK A2983
RPLL,2025-10-24 13:00,RPLL 241300Z 12005KT 090V150 9999 FEW025 SCT100 29/25 Q1010 NOSIG RMK A2983
RPLL,2025-10-24 14:00,RPLL 241400Z VRB02KT 9999 FEW025 SCT100 29/25 Q1010 NOSIG RMK A2983
RPLL,2025-10-24 15:00,RPLL 241500Z 12003KT 080V170 9999 FEW025 BKN100 29/25 Q1010 NOSIG RMK A2983
RPLL,2025-10-24 16:00,RPLL 241600Z 15003KT 110V180 9999 FEW025 28/25 Q1010 NOSIG RMK A2983
RPLL,2025-10-24 17:00,RPLL 241700Z VRB02KT 9999 FEW025 28/25 Q1009 NOSIG RMK A2980
RPLL,2025-10-24 18:00,RPLL 241800Z VRB02KT 9999 FEW025 28/25 Q1009 NOSIG RMK A2980
RPLL,2025-10-24 19:00,RPLL 241900Z VRB02KT 9999 FEW025 27/26 Q1009 NOSIG RMK A2980
RPLL,2025-10-24 20:00,RPLL 242000Z VRB02KT 9999 FEW025 27/26 Q1009 NOSIG RMK A2980
RPLL,2025-10-24 21:00,RPLL 242100Z VRB02KT 9999 FEW025 BKN100 28/25 Q1010 NOSIG RMK A2983
RPLL,2025-10-24 22:00,RPLL 242200Z VRB02KT 9999 SCT025 BKN100 27/25 Q1010 NOSIG RMK A2983
RPLL,2025-10-24 23:00,RPLL 242300Z VRB02KT 9999 SCT025 BKN100 28/26 Q1010 NOSIG RMK A2983
RPLL,2025-10-25 00:00,RPLL 250000Z VRB02KT 9999 FEW025 BKN100 29/25 Q1011 NOSIG RMK A2985
RPLL,2025-10-25 01:00,RPLL 250100Z VRB02KT 9999 FEW025 SCT100 32/24 Q1011 NOSIG RMK A2985
RPLL,2025-10-25 02:00,RPLL 250200Z 17005KT 120V210 9999 FEW025 BKN100 32/24 Q1011 NOSIG RMK A2985
RPLL,2025-10-25 03:00,RPLL 250300Z 15005KT 090V200 9999 FEW025 BKN100 32/24 Q1010 NOSIG RMK A2983
RPLL,2025-10-25 04:00,RPLL 250400Z 25005KT 210V290 8000 FEW025 BKN100 30/26 Q1010 NOSIG RMK A2983
RPLL,2025-10-25 05:00,RPLL 250500Z 30006KT 240V360 9000 SCT025 BKN100 31/26 Q1009 NOSIG RMK A2980
RPLL,2025-10-25 06:00,RPLL 250600Z 28006KT 9000 SCT025 BKN100 31/26 Q1008 NOSIG RMK A2977
RPLL,2025-10-25 07:00,RPLL 250700Z 31004KT 220V360 9999 SCT025 BKN100 32/25 Q1008 NOSIG RMK A2977
RPLL,2025-10-25 08:00,RPLL 250800Z 13003KT 030V180 9999 FEW025 BKN100 32/25 Q1008 NOSIG RMK A2977
RPLL,2025-10-25 09:00,RPLL 250900Z VRB02KT 9999 FEW025 BKN100 32/25 Q1009 NOSIG RMK A2980
RPLL,2025-10-25 10:00,RPLL 251000Z 14004KT 100V200 9999 FEW025 BKN100 30/25 Q1009 NOSIG RMK A2980
RPLL,2025-10-25 11:00,RPLL 251100Z 16003KT 110V200 9999 -RA FEW025 BKN100 29/26 Q1010 NOSIG RMK A2983
RPLL,2025-10-25 12:00,RPLL 251200Z 13003KT 100V170 9999 FEW025 BKN100 29/26 Q1010 NOSIG RMK A2983
RPLL,2025-10-25 13:00,RPLL 251300Z VRB02KT 9999 FEW025 SCT100 29/26 Q1010 NOSIG RMK A2983
RPLL,2025-10-25 14:00,RPLL 251400Z 14003KT 080V190 9999 FEW030 29/26 Q1011 NOSIG RMK A2985
RPLL,2025-10-25 15:00,RPLL 251500Z 14003KT 110V180 9999 FEW025 BKN100 29/25 Q1011 NOSIG RMK A2985
RPLL,2025-10-25 16:00,RPLL 251600Z 17003KT 140V210 9999 FEW025 BKN100 29/25 Q1011 NOSIG RMK A2985
RPLL,2025-10-25 17:00,RPLL 251700Z 12004KT 090V150 9999 FEW025 BKN100 29/25 Q1011 NOSIG RMK A2985
RPLL,2025-10-25 18:00,RPLL 251800Z 10003KT 9999 FEW025 28/25 Q1010 NOSIG RMK A2983
RPLL,2025-10-25 19:00,RPLL 251900Z 09003KT 060V130 9999 FEW025 28/25 Q1009 NOSIG RMK A2980
RPLL,2025-10-25 20:00,RPLL 252000Z 08004KT 9999 FEW025 27/25 Q1009 NOSIG RMK A2980
RPLL,2025-10-25 21:00,RPLL 252100Z 07003KT 030V110 9999 FEW025 27/25 Q1009 NOSIG RMK A2980
RPLL,2025-10-25 22:00,RPLL 252200Z 22002KT 9999 FEW025TCU 27/26 Q1009 NOSIG RMK A2980 TCU E
RPLL,2025-10-25 23:00,RPLL 252300Z VRB02KT 9999 FEW025 28/25 Q1010 NOSIG RMK A2983
RPLL,2025-10-26 00:00,RPLL 260000Z VRB02KT 9999 FEW025 30/25 Q1011 NOSIG RMK A2985
RPLL,2025-10-26 01:00,RPLL 260100Z VRB02KT 9999 FEW025 32/25 Q1011 NOSIG RMK A2985
RPLL,2025-10-26 02:00,RPLL 260200Z 14006KT 080V200 9999 FEW025 SCT100 32/26 Q1011 NOSIG RMK A2985
RPLL,2025-10-26 03:00,RPLL 260300Z 14006KT 100V210 9999 FEW025 SCT100 31/26 Q1011 NOSIG RMK A2985
RPLL,2025-10-26 04:00,COR RPLL 260400Z 16005KT 120V210 9999 FEW025 SCT100 32/26 Q1010 NOSIG RMK A2983
RPLL,2025-10-26 05:00,RPLL 260500Z 11006KT 080V140 9999 FEW025 BKN100 31/26 Q1009 NOSIG RMK A2980
RPLL,2025-10-26 06:00,RPLL 260600Z 13005KT 030V190 9999 FEW023CB SCT025 BKN100 32/26 Q1009 NOSIG RMK A2980 CB N
RPLL,2025-10-26 07:00,RPLL 260700Z 04005KT 310V090 9999 SCT025 BKN100 31/25 Q1009 NOSIG RMK A2980
RPLL,2025-10-26 08:00,RPLL 260800Z 12005KT 070V210 9999 FEW025 BKN100 32/25 Q1009 NOSIG RMK A2980
RPLL,2025-10-26 08:14,RPLL 260814Z 13008KT 090V190 9999 -SHRA FEW025 BKN100 31/26 Q1009 NOSIG RMK A2980
RPLL,2025-10-26 09:00,RPLL 260900Z 12005KT 070V180 9999 FEW025 BKN100 30/26 Q1010 NOSIG RMK A2983
RPLL,2025-10-26 10:00,RPLL 261000Z 10003KT 060V130 9999 FEW025 BKN100 28/26 Q1010 NOSIG RMK A2983
RPLL,2025-10-26 11:00,RPLL 261100Z 11003KT 070V150 9999 FEW025 BKN100 28/26 Q1011 NOSIG RMK A2985
RPLL,2025-10-26 12:00,RPLL 261200Z 11003KT 9999 FEW025 BKN100 28/26 Q1011 NOSIG RMK A2985
RPLL,2025-10-26 13:00,RPLL 261300Z VRB01KT 9999 FEW025 BKN100 29/26 Q1012 NOSIG RMK A2988
RPLL,2025-10-26 14:00,RPLL 261400Z VRB01KT 9999 -RA FEW025 OVC090 29/26 Q1012 NOSIG RMK A2988
RPLL,2025-10-26 15:00,RPLL 261500Z 33005KT 300V030 9999 FEW025 BKN090 28/26 Q1012 NOSIG RMK A2988
RPLL,2025-10-26 16:00,RPLL 261600Z 35006KT 320V030 9999 FEW025 BKN090 28/25 Q1012 NOSIG RMK A2988
RPLL,2025-10-26 17:00,RPLL 261700Z 35005KT 320V020 9999 FEW025 28/25 Q1010 NOSIG RMK A2983
RPLL,2025-10-26 18:00,RPLL 261800Z 36006KT 9999 FEW025 27/25 Q1010 NOSIG RMK A2983
RPLL,2025-10-26 19:00,RPLL 261900Z 09003KT 070V130 9999 FEW025 27/25 Q1009 NOSIG RMK A2980
RPLL,2025-10-26 20:00,RPLL 262000Z VRB02KT 9999 -SHRA FEW025 BKN100 27/26 Q1010 NOSIG RMK A2983
RPLL,2025-10-26 21:00,RPLL 262100Z VRB02KT 9999 FEW025 BKN100 27/26 Q1010 NOSIG RMK A2983
RPLL,2025-10-26 22:00,RPLL 262200Z 36005KT 320V060 9999 FEW025 SCT130 27/26 Q1010 NOSIG RMK A2983
RPLL,2025-10-26 23:00,RPLL 262300Z 33003KT 270V040 9999 FEW025 SCT100 28/26 Q1011 NOSIG RMK A2985
RPLL,2025-10-27 00:00,RPLL 270000Z 01005KT 290V090 9999 FEW025 29/25 Q1012 NOSIG RMK A2988
RPLL,2025-10-27 01:00,RPLL 270100Z VRB02KT 9999 FEW025 SCT100 31/26 Q1012 NOSIG RMK A2988
RPLL,2025-10-27 02:00,RPLL 270200Z VRB02KT 9999 FEW025 SCT100 31/25 Q1012 NOSIG RMK A2988
RPLL,2025-10-27 03:00,RPLL 270300Z 09005KT 040V180 9999 FEW025 SCT100 32/24 Q1011 NOSIG RMK A2985
RPLL,2025-10-27 04:00,RPLL 270400Z 09006KT 040V160 9999 FEW025 SCT100 33/25 Q1010 NOSIG RMK A2983
RPLL,2025-10-27 05:00,RPLL 270500Z 07008KT 010V150 9999 FEW025 SCT100 32/25 Q1009 NOSIG RMK A2980
RPLL,2025-10-27 06:00,RPLL 270600Z 10007KT 060V190 9999 FEW025 SCT100 33/25 Q1009 NOSIG RMK A2980
RPLL,2025-10-27 07:00,RPLL 270700Z 10008KT 060V130 9999 FEW025 BKN100 32/25 Q1009 NOSIG RMK A2980
RPLL,2025-10-27 08:00,RPLL 270800Z 13006KT 100V160 9999 FEW025 BKN100 31/25 Q1009 NOSIG RMK A2980
RPLL,2025-10-27 08:37,RPLL 270837Z 14005KT 070V190 9999 -SHRA SCT023 BKN100 29/26 Q1010 NOSIG RMK A2983
RPLL,2025-10-27 09:00,COR RPLL 270900Z 14004KT 070V190 9999 -SHRA SCT025 BKN100 28/27 Q1010 NOSIG RMK A2983
RPLL,2025-10-27 10:00,RPLL 271000Z 12007KT 070V160 9999 -RA SCT023 OVC100 27/26 Q1010 NOSIG RMK A2983
RPLL,2025-10-27 11:00,RPLL 271100Z 10007KT 070V130 7000 RA SCT023 OVC100 27/26 Q1010 TEMPO 5000 RMK A2983
RPLL,2025-10-27 12:00,RPLL 271200Z 08006KT 9999 -RA SCT023 OVC100 27/26 Q1011 RERA NOSIG RMK A2985
RPLL,2025-10-27 13:00,RPLL 271300Z 09004KT 060V120 9999 -RA SCT023 OVC100 27/26 Q1012 TEMPO 7000 RMK A2988
RPLL,2025-10-27 14:00,RPLL 271400Z 17003KT 140V200 9999 -RA SCT023 OVC100 27/26 Q1012 NOSIG RMK A2988
RPLL,2025-10-27 15:00,RPLL 271500Z VRB02KT 9999 -RA SCT023 OVC090 27/26 Q1011 NOSIG RMK A2985
RPLL,2025-10-27 16:00,RPLL 271600Z 12003KT 060V170 9999 SCT025 OVC100 27/26 Q1011 NOSIG RMK A2985
RPLL,2025-10-27 17:00,RPLL 271700Z 13005KT 090V170 9999 SCT025 BKN100 28/26 Q1010 NOSIG RMK A2983
RPLL,2025-10-27 18:00,RPLL 271800Z 12004KT 080V160 9999 FEW025 28/26 Q1009 NOSIG RMK A2980
RPLL,2025-10-27 19:00,RPLL 271900Z 12006KT 090V170 9999 SCT025 28/26 Q1009 NOSIG RMK A2980
RPLL,2025-10-27 20:00,RPLL 272000Z 11005KT 080V180 9999 FEW025 28/25 Q1010 NOSIG RMK A2983
RPLL,2025-10-27 21:00,RPLL 272100Z 11004KT 070V150 9999 FEW025 SCT100 28/25 Q1010 NOSIG RMK A2983
RPLL,2025-10-27 22:00,RPLL 272200Z 08006KT 9999 FEW025 SCT100 27/25 Q1011 NOSIG RMK A2985
RPLL,2025-10-27 23:00,RPLL 272300Z 07004KT 050V110 9999 FEW025 SCT100 27/25 Q1011 NOSIG RMK A2985
RPLL,2025-10-28 00:00,RPLL 280000Z 06004KT 9999 FEW025 BKN100 28/25 Q1012 NOSIG RMK A2988
RPLL,2025-10-28 01:00,RPLL 280100Z VRB02KT 9999 FEW025 BKN100 29/25 Q1012 NOSIG RMK A2988
RPLL,2025-10-28 02:00,RPLL 280200Z 03003KT 320V080 9999 FEW023 SCT100 30/24 Q1012 NOSIG RMK A2988
RPLL,2025-10-28 03:00,RPLL 280300Z VRB02KT 9999 FEW025 SCT100 31/24 Q1011 NOSIG RMK A2985
RPLL,2025-10-28 04:00,RPLL 280400Z 27005KT 9999 FEW025 SCT100 31/27 Q1011 NOSIG RMK A2985
RPLL,2025-10-28 05:00,RPLL 280500Z VRB03KT 9999 FEW025 32/25 Q1010 NOSIG RMK A2983
RPLL,2025-10-28 06:00,RPLL 280600Z 33005KT 270V050 9999 FEW025 31/26 Q1009 NOSIG RMK A2980
RPLL,2025-10-28 07:00,RPLL 280700Z 28007KT 9999 FEW025 SCT100 32/26 Q1009 NOSIG RMK A2980
RPLL,2025-10-28 08:00,RPLL 280800Z 28006KT 9999 FEW025 SCT100 32/26 Q1008 NOSIG RMK A2977
RPLL,2025-10-28 09:00,RPLL 280900Z 26003KT 220V290 9999 FEW023CB SCT025 BKN100 32/26 Q1009 NOSIG RMK A2980 CB N
RPLL,2025-10-28 10:00,RPLL 281000Z 15003KT 100V220 9999 SCT025 31/26 Q1010 NOSIG RMK A2983
RPLL,2025-10-28 11:00,RPLL 281100Z 07005KT 050V120 9999 SCT025 BKN100 29/27 Q1010 NOSIG RMK A2983
RPLL,2025-10-28 12:00,RPLL 281200Z 32003KT 270V306 9999 SCT025 BKN100 28/27 Q1011 NOSIG RMK A2985
RPLL,2025-10-28 13:00,RPLL 281300Z VRB02KT 9999 SCT025 BKN100 28/26 Q1012 NOSIG RMK A2988
RPLL,2025-10-28 14:00,RPLL 281400Z 24003KT 190V320 9999 FEW023CB SCT025 BKN090 28/27 Q1012 NOSIG RMK A2988 CB/OCNL LTG W
RPLL,2025-10-28 14:16,RPLL 281416Z VRB06KT 5000 SHRA SCT023CB BKN025 OVC090 27/27 Q1012 NOSIG RMK A2988 CB/OCNL LTG W
RPLL,2025-10-28 15:00,RPLL 281500Z 29005KT 200V350 8000 -RA SCT023 BKN090 27/26 Q1012 NOSIG RMK A2988
RPLL,2025-10-28 15:20,RPLL 281520Z 28005KT 9000 TS FEW023CB SCT025 BKN090 26/26 Q1012 TEMPO -TSRA RMK A2988 CB/OCNL LTG W
RPLL,2025-10-28 16:00,RPLL 281600Z 23003KT 190V270 9000 TS FEW023CB SCT025 BKN090 26/26 Q1012 NOSIG RMK A2988 CB/OCNL LTG W
RPLL,2025-10-28 17:00,COR RPLL 281700Z VRB01KT 9999 FEW025 26/26 Q1011 RETS NOSIG RMK A2985
RPLL,2025-10-28 18:00,RPLL 281800Z VRB02KT 9999 FEW025 SCT100 27/26 Q1010 NOSIG RMK A2983
RPLL,2025-10-28 18:18,RPLL 281818Z 23008KT 210V280 7000 RA BKN015 OVC080 25/25 Q1010 RMK A2983
RPLL,2025-10-28 19:00,RPLL 281900Z VRB01KT 9999 SCT025 26/26 Q1010 NOSIG RMK A2983
RPLL,2025-10-28 20:00,RPLL 282000Z VRB01KT 9999 FEW025 26/26 Q1010 NOSIG RMK A2983
RPLL,2025-10-28 21:00,RPLL 282100Z VRB02KT 9999 FEW025 27/26 Q1010 NOSIG RMK A2983
RPLL,2025-10-28 22:00,RPLL 282200Z 19003KT 160V230 9999 FEW025 SCT100 27/26 Q1011 NOSIG RMK A2985
RPLL,2025-10-28 23:00,RPLL 282300Z VRB02KT 9000 SCT025 BKN100 28/26 Q1012 NOSIG RMK A2988
RPLL,2025-10-29 00:00,RPLL 290000Z VRB01KT 9000 SCT025 BKN100 29/26 Q1012 NOSIG RMK A2988
RPLL,2025-10-29 01:00,RPLL 290100Z VRB03KT 9999 SCT025 30/26 Q1012 NOSIG RMK A2988
RPLL,2025-10-29 02:00,RPLL 290200Z VRB04KT 9000 SCT025 BKN100 SC025 BKN100 30/26 Q1012 NOSIG RMK A2988
RPLL,2025-10-29 03:00,RPLL 290300Z 26004KT 190V320 9000 FEW025 BKN100 30/26 Q1011 NOSIG RMK A2985
RPLL,2025-10-29 04:00,RPLL 290400Z 12006KT 070V160 9000 FEW025 BKN100 29/26 Q1011 NOSIG RMK A2985
RPLL,2025-10-29 04:20,RPLL 290420Z 15003KT 070V220 9000 -SHRA FEW025 BKN100 28/27 Q1010 NOSIG RMK A2983
RPLL,2025-10-29 05:00,RPLL 290500Z 14004KT 090V180 9000 FEW025 BKN100 29/26 Q1010 NOSIG RMK A2983
RPLL,2025-10-29 06:00,RPLL 290600Z 13005KT 080V160 9999 FEW025 BKN100 29/26 Q1009 NOSIG RMK A2980
RPLL,2025-10-29 07:00,RPLL 290700Z 14004KT 090V190 9999 FEW025 BKN100 30/26 Q1009 NOSIG RMK A2980
RPLL,2025-10-29 08:00,RPLL 290800Z 13004KT 090V170 9999 FEW025 BKN100 30/26 Q1008 NOSIG RMK A2977
RPLL,2025-10-29 09:00,RPLL 290900Z 11004KT 080V140 9999 FEW025 BKN100 29/26 Q1009 NOSIG RMK A2980
RPLL,2025-10-29 10:00,RPLL 291000Z VRB02KT 9999 FEW025 SCT100 29/26 Q1009 NOSIG RMK A2980
RPLL,2025-10-29 11:00,RPLL 291100Z 17003KT 130V210 9999 FEW025 SCT100 29/26 Q1010 NOSIG RMK A2983
RPLL,2025-10-29 12:00,RPLL 291200Z 18003KT 140V220 9999 FEW025 SCT100 28/26 Q1011 NOSIG RMK A2985
RPLL,2025-10-29 13:00,RPLL 291300Z VRB02KT 9999 FEW025 28/26 Q1012 NOSIG RMK A2988
RPLL,2025-10-29 14:00,RPLL 291400Z VRB02KT 9999 FEW025 28/26 Q1012 NOSIG RMK A2988
RPLL,2025-10-29 15:00,RPLL 291500Z VRB01KT 9999 FEW025 SCT100 28/26 Q1011 NOSIG RMK A2985
RPLL,2025-10-29 16:00,RPLL 291600Z VRB02KT 9999 SCT025 BKN100 28/26 Q1011 NOSIG RMK A2985
RPLL,2025-10-29 17:00,RPLL 291700Z 12003KT 080V170 9000 VCSH SCT025 OVC090 28/26 Q1011 TEMPO -RA RMK A2985 VCSH N
RPLL,2025-10-29 18:00,RPLL 291800Z VRB02KT 9999 SCT025 BKN100 27/27 Q1010 NOSIG RMK A2983
RPLL,2025-10-29 19:00,RPLL 291900Z VRB02KT 9999 FEW025 BKN100 27/27 Q1009 NOSIG RMK A2980
RPLL,2025-10-29 20:00,RPLL 292000Z VRB01KT 9999 FEW025 27/27 Q1009 NOSIG RMK A2980
RPLL,2025-10-29 21:00,RPLL 292100Z 17003KT 110V210 9999 -SHRA SCT023 BKN100 27/27 Q1010 NOSIG RMK A2983
RPLL,2025-10-29 22:00,RPLL 292200Z VRB02KT 9999 FEW025 BKN090 27/27 Q1010 NOSIG RMK A2983
RPLL,2025-10-29 23:00,RPLL 292300Z VRB01KT 9999 -RA FEW025 BKN090 27/27 Q1011 NOSIG RMK A2985
RPLL,2025-10-30 00:00,RPLL 300000Z 00000KT 9999 FEW025 OVC090 29/27 Q1012 NOSIG RMK A2988
RPLL,2025-10-30 00:22,RPLL 300022Z VRB01KT 9000 -RA SCT022 OVC080 28/26 Q1012 NOSIG RMK A2988
RPLL,2025-10-30 01:00,RPLL 300100Z 30004KT 250V350 9000 -RA SCT022 OVC080 28/27 Q1012 NOSIG RMK A2988
RPLL,2025-10-30 02:00,RPLL 300200Z 30007KT 250V030 8000 SCT022 OVC090 29/26 Q1012 NOSIG RMK A2988
RPLL,2025-10-30 03:00,RPLL 300300Z 32006KT 270V020 7000 SCT022 OVC080 29/27 Q1011 NOSIG RMK A2985
RPLL,2025-10-30 04:00,RPLL 300400Z 27006KT 8000 SCT023 OVC090 30/26 Q1010 NOSIG RMK A2983
RPLL,2025-10-30 05:00,RPLL 300500Z 32008KT 9000 FEW022CB SCT023 OVC090 30/27 Q1009 NOSIG RMK A2980
RPLL,2025-10-30 05:21,RPLL 300521Z 34007KT 8000 -TSRA FEW022CB SCT023 OVC080 29/27 Q1009 TEMPO 5000 TSRA RMK A2980 CB OHD
RPLL,2025-10-30 05:33,RPLL 300533Z 01009KT 4000 TSRA FEW020CB SCT022 OVC070 27/27 Q1009 NOSIG RMK A2980 CB OHD
RPLL,2025-10-30 06:00,RPLL 300600Z 31003KT 260V350 8000 -RA SCT022 OVC080 27/27 Q1009 RETSRA NOSIG RMK A2980
RPLL,2025-10-30 07:00,RPLL 300700Z 34006KT 300V030 9999 SCT023 BKN090 29/27 Q1008 NOSIG RMK A2977
RPLL,2025-10-30 08:00,RPLL 300800Z 33005KT 9999 SCT023 BKN100 29/26 Q1009 NOSIG RMK A2980
RPLL,2025-10-30 09:00,RPLL 300900Z 01003KT 300V060 8000 FEW023 SCT100 29/27 Q1009 NOSIG RMK A2980
RPLL,2025-10-30 10:00,RPLL 301000Z 10004KT 060V170 7000 -RA SCT023 OVC090 28/27 Q1010 NOSIG RMK A2983
RPLL,2025-10-30 11:00,RPLL 301100Z VRB02KT 9999 SCT023 BKN090 27/27 Q1010 NOSIG RMK A2983
RPLL,2025-10-30 12:00,RPLL 301200Z 35003KT 250V050 9999 FEW025 BKN090 28/26 Q1011 NOSIG RMK A2985
RPLL,2025-10-30 13:00,RPLL 301300Z VRB02KT 9999 FEW025 BKN100 28/26 Q1011 NOSIG RMK A2985
RPLL,2025-10-30 14:00,RPLL 301400Z VRB02KT 9999 FEW025 28/27 Q1011 NOSIG RMK A2985
RPLL,2025-10-30 15:00,RPLL 301500Z 25003KT 200V290 9999 SCT025 28/27 Q1012 NOSIG RMK A2988
RPLL,2025-10-30 16:00,RPLL 301600Z VRB01KT 9999 FEW025 SCT100 28/27 Q1011 NOSIG RMK A2985
RPLL,2025-10-30 17:00,RPLL 301700Z VRB02KT 9999 SCT023 BKN100 28/27 Q1010 NOSIG RMK A2983
RPLL,2025-10-30 18:00,RPLL 301800Z VRB02KT 9999 -RA SCT025 BKN100 28/27 Q1009 NOSIG RMK A2980
RPLL,2025-10-30 19:00,RPLL 301900Z VRB02KT 9999 FEW025 BKN150 27/27 Q1009 NOSIG RMK A2980
RPLL,2025-10-30 20:00,RPLL 302000Z 00000KT 9999 FEW025 27/27 Q1009 NOSIG RMK A2980
RPLL,2025-10-30 21:00,RPLL 302100Z VRB02KT 9999 FEW025 27/27 Q1010 NOSIG RMK A2983
RPLL,2025-10-30 22:00,RPLL 302200Z VRB01KT 9999 FEW025 27/27 Q1011 NOSIG RMK A2985
RPLL,2025-10-30 23:00,RPLL 302300Z 00000KT 9999 FEW025 28/27 Q1011 NOSIG RMK A2985
RPLL,2025-10-31 00:00,RPLL 310000Z 11003KT 060V180 9999 FEW025 30/27 Q1012 NOSIG RMK A2988
RPLL,2025-10-31 01:00,RPLL 310100Z 10007KT 060V160 9999 FEW025 31/26 Q1012 NOSIG RMK A2988
RPLL,2025-10-31 02:00,RPLL 310200Z 09007KT 060V140 9999 FEW025 32/25 Q1012 NOSIG RMK A2988
RPLL,2025-10-31 03:00,RPLL 310300Z 10005KT 050V190 9999 FEW023 SCT025 33/26 Q1011 NOSIG RMK A2985
RPLL,2025-10-31 04:00,RPLL 310400Z 32006KT 270V010 9999 VCSH SCT025 SCT100 31/27 Q1010 NOSIG RMK A2983 VCSH N
RPLL,2025-10-31 05:00,RPLL 310500Z 34005G16KT 310V040 9999 VCSH SCT025 BKN100 31/27 Q1009 NOSIG RMK A2980 VCSH N
RPLL,2025-10-31 06:00,RPLL 310600Z 35004G14KT 270V060 9999 FEW023TCU SCT025 33/27 Q1009 NOSIG RMK A2980 TCU NE
RPLL,2025-10-31 07:00,RPLL 310700Z 30004KT 210V360 9999 FEW025 SCT100 31/26 Q1008 NOSIG RMK A2977
RPLL,2025-10-31 08:00,RPLL 310800Z 12007KT 080V160 9999 FEW025 32/26 Q1008 NOSIG RMK A2977
RPLL,2025-10-31 09:00,RPLL 310900Z 12006KT 100V160 9999 FEW025 32/25 Q1009 NOSIG RMK A2980
RPLL,2025-10-31 10:00,RPLL 311000Z 13004KT 090V170 9999 FEW025 31/26 Q1010 NOSIG RMK A2983
RPLL,2025-10-31 11:00,RPLL 311100Z 10005KT 070V130 9999 FEW030 30/26 Q1010 NOSIG RMK A2983
RPLL,2025-10-31 12:00,RPLL 311200Z 12003KT 080V150 9999 FEW030 30/26 Q1011 NOSIG RMK A2985
RPLL,2025-10-31 13:00,RPLL 311300Z 11003KT 060V170 9999 FEW025 BKN100 30/26 Q1012 NOSIG RMK A2988
RPLL,2025-10-31 14:00,RPLL 311400Z 12004KT 080V150 9999 FEW025 SCT100 29/26 Q1012 NOSIG RMK A2988
RPLL,2025-10-31 15:00,RPLL 311500Z 12006KT 090V180 9999 FEW025 SCT130 29/25 Q1011 NOSIG RMK A2985
RPLL,2025-10-31 16:00,RPLL 311600Z 12006KT 080V160 9999 FEW025 SCT100 29/26 Q1011 NOSIG RMK A2985
RPLL,2025-10-31 17:00,RPLL 311700Z VRB03KT 9999 FEW025 BKN100 29/27 Q1011 NOSIG RMK A2985
RPLL,2025-10-31 18:00,RPLL 311800Z VRB02KT 9999 FEW025 SCT100 28/26 Q1010 NOSIG RMK A2983
RPLL,2025-10-31 19:00,RPLL 311900Z 09003KT 9999 FEW025 SCT100 28/26 Q1010 NOSIG RMK A2983
RPLL,2025-10-31 20:00,RPLL 312000Z 12004KT 090V150 9999 FEW025 SCT100 28/26 Q1010 NOSIG RMK A2983
RPLL,2025-10-31 21:00,RPLL 312100Z 12004KT 080V150 9999 FEW025 SCT100 28/25 Q1010 NOSIG RMK A2983
RPLL,2025-10-31 22:00,RPLL 312200Z 10004KT 060V140 9999 FEW025 BKN090 28/26 Q1011 NOSIG RMK A2985
RPLL,2025-10-31 23:00,RPLL 312300Z 07005KT 040V100 9999 FEW025 SCT100 29/26 Q1012 NOSIG RMK A2988
RPLL,2025-11-01 00:00,RPLL 010000Z VRB02KT 9999 FEW025 BKN100 29/25 Q1012 NOSIG RMK A2988
RPLL,2025-11-01 01:00,RPLL 010100Z 12005KT 080V180 9999 FEW025 SCT100 32/25 Q1013 NOSIG RMK A2991
RPLL,2025-11-01 02:00,COR RPLL 010200Z 12007KT 080V150 9999 FEW025 SCT100 31/25 Q1012 NOSIG RMK A2988
RPLL,2025-11-01 03:00,RPLL 010300Z 08007KT 9999 FEW025 BKN100 31/24 Q1012 NOSIG RMK A2988
RPLL,2025-11-01 04:00,RPLL 010400Z 11007KT 070V150 9999 FEW025 SCT100 32/25 Q1011 NOSIG RMK A2985
RPLL,2025-11-01 05:00,RPLL 010500Z 09008KT 060V120 9999 FEW025 BKN100 31/25 Q1010 NOSIG RMK A2983
RPLL,2025-11-01 06:00,RPLL 010600Z 06008KT 9999 FEW025 SCT100 31/26 Q1009 NOSIG RMK A2980
RPLL,2025-11-01 07:00,COR RPLL 010700Z 12007KT 070V160 9999 FEW025 33/25 Q1009 NOSIG RMK A2980
RPLL,2025-11-01 08:00,RPLL 010800Z 12007KT 090V170 9999 FEW025 SCT100 31/24 Q1009 NOSIG RMK A2980
RPLL,2025-11-01 09:00,RPLL 010900Z 10005KT 060V140 9999 FEW025 31/25 Q1010 NOSIG RMK A2983
RPLL,2025-11-01 10:00,RPLL 011000Z 11005KT 080V140 9999 FEW025 30/25 Q1010 NOSIG RMK A2983
RPLL,2025-11-01 11:00,RPLL 011100Z VRB01KT 9999 FEW025 SCT100 29/25 Q1011 NOSIG RMK A2985
RPLL,2025-11-01 12:00,RPLL 011200Z VRB02KT 9999 FEW025 29/26 Q1013 NOSIG RMK A2991
RPLL,2025-11-01 13:00,RPLL 011300Z VRB02KT 9999 FEW025 29/25 Q1013 NOSIG RMK A2991
RPLL,2025-11-01 14:00,RPLL 011400Z 13004KT 080V180 9999 FEW025 SCT100 29/25 Q1012 NOSIG RMK A2988
RPLL,2025-11-01 15:00,RPLL 011500Z 11004KT 070V160 9999 FEW025 29/25 Q1012 NOSIG RMK A2988
RPLL,2025-11-01 16:00,RPLL 011600Z 11005KT 080V150 9999 FEW025 28/25 Q1012 NOSIG RMK A2988
RPLL,2025-11-01 17:00,RPLL 011700Z 07005KT 9999 FEW025 27/26 Q1011 NOSIG RMK A2985
RPLL,2025-11-01 18:00,RPLL 011800Z 06004KT 9999 FEW025 27/26 Q1011 NOSIG RMK A2985
RPLL,2025-11-01 19:00,RPLL 011900Z 06003KT 030V100 9999 FEW025 27/25 Q1010 NOSIG RMK A2983
RPLL,2025-11-01 20:00,RPLL 012000Z VRB02KT 9999 FEW030 27/25 Q1010 NOSIG RMK A2983
RPLL,2025-11-01 21:00,RPLL 012100Z VRB02KT 9999 FEW030 27/24 Q1011 NOSIG RMK A2985
RPLL,2025-11-01 22:00,RPLL 012200Z 00000KT 9999 FEW025 27/25 Q1012 NOSIG RMK A2988
RPLL,2025-11-01 23:00,RPLL 012300Z VRB01KT 9999 FEW025 29/25 Q1012 NOSIG RMK A2988
RPLL,2025-11-02 00:00,RPLL 020000Z VRB02KT 9999 FEW025 30/25 Q1012 NOSIG RMK A2988
RPLL,2025-11-02 01:00,RPLL 020100Z VRB02KT 9999 FEW025 SCT100 32/24 Q1013 NOSIG RMK A2991
RPLL,2025-11-02 02:00,RPLL 020200Z 27004KT 220V300 9999 SCT025 BKN100 30/25 Q1013 NOSIG RMK A2991
RPLL,2025-11-02 03:00,RPLL 020300Z 32008KT 9999 SCT025 BKN100 30/25 Q1012 NOSIG RMK A2988
RPLL,2025-11-02 04:00,RPLL 020400Z 01007KT 9999 -RA SCT025 BKN100 29/27 Q1011 NOSIG RMK A2985
RPLL,2025-11-02 05:00,RPLL 020500Z VRB03KT 9999 SCT025 BKN100 32/24 Q1010 NOSIG RMK A2983
RPLL,2025-11-02 06:00,RPLL 020600Z 15006KT 060V210 9999 SCT025 BKN100 33/26 Q1009 NOSIG RMK A2980
RPLL,2025-11-02 07:00,RPLL 020700Z 30003KT 200V010 9999 SCT025 31/25 Q1008 NOSIG RMK A2977
RPLL,2025-11-02 08:00,RPLL 020800Z 27003KT 230V350 9999 BKN025 32/25 Q1008 NOSIG RMK A2977
RPLL,2025-11-02 09:00,RPLL 020900Z 09006KT 070V140 9999 SCT025 SCT100 32/23 Q1009 NOSIG RMK A2980
RPLL,2025-11-02 10:00,RPLL 021000Z 09005KT 060V140 9999 SCT025 SCT100 31/24 Q1010 NOSIG RMK A2983
RPLL,2025-11-02 11:00,RPLL 021100Z 10004KT 070V130 9999 SCT025 30/24 Q1011 NOSIG RMK A2985
RPLL,2025-11-02 12:00,RPLL 021200Z 10004KT 9999 FEW025 30/24 Q1011 NOSIG RMK A2985
RPLL,2025-11-02 13:00,RPLL 021300Z 10003KT 9999 FEW025 SCT100 29/24 Q1012 NOSIG RMK A2988
RPLL,2025-11-02 14:00,RPLL 021400Z VRB01KT 9999 FEW025 29/24 Q1012 NOSIG RMK A2988
RPLL,2025-11-02 15:00,RPLL 021500Z 09003KT 060V130 9999 FEW025 29/24 Q1012 NOSIG RMK A2988
RPLL,2025-11-02 16:00,RPLL 021600Z VRB03KT 9999 SCT025 28/23 Q1012 NOSIG RMK A2988
RPLL,2025-11-02 17:00,RPLL 021700Z 02008KT 360V060 9999 SCT025 BKN100 28/25 Q1011 NOSIG RMK A2985
RPLL,2025-11-02 18:00,RPLL 021800Z 02008KT 360V060 9999 SCT025 BKN100 28/25 Q1011 NOSIG RMK A2985
RPLL,2025-11-02 18:25,COR RPLL 021825Z 04004KT 340V080 7000 RA BKN025 OVC100 28/27 Q1011 TEMPO -RA RMK A2985
RPLL,2025-11-02 19:00,RPLL 021900Z 36005KT 5000 RA SCT023 OVC090 26/26 Q1011 NOSIG RMK A2985
RPLL,2025-11-02 19:34,RPLL 021934Z 33003KT 300V360 9000 SCT025 BKN100 26/25 Q1011 RERA NOSIG RMK A2985
RPLL,2025-11-02 20:00,RPLL 022000Z 02004KT 350V060 9999 SCT025 BKN100 26/25 Q1011 NOSIG RMK A2985
RPLL,2025-11-02 21:00,RPLL 022100Z VRB01KT 9999 FEW025 BKN100 26/26 Q1011 NOSIG RMK A2985
RPLL,2025-11-02 22:00,RPLL 022200Z 14003KT 110V180 9999 FEW025 SCT100 26/26 Q1011 NOSIG RMK A2985
RPLL,2025-11-02 23:00,RPLL 022300Z 08003KT 9999 FEW025 SCT100 26/26 Q1012 NOSIG RMK A2988
RPLL,2025-11-03 00:00,RPLL 030000Z 10004KT 060V130 8000 -RA SCT023 OVC090 27/26 Q1012 NOSIG RMK A2988
RPLL,2025-11-03 01:00,RPLL 030100Z 10004KT 060V140 9999 SCT025 OVC100 27/26 Q1012 NOSIG RMK A2988
RPLL,2025-11-03 02:00,RPLL 030200Z VRB02KT 9999 SCT025 BKN100 29/25 Q1011 NOSIG RMK A2988
RPLL,2025-11-03 03:00,RPLL 030300Z 04004KT 360V070 9000 -RA SCT023 BKN100 29/25 Q1011 NOSIG RMK A2985
RPLL,2025-11-03 04:00,RPLL 030400Z VRB03KT 9000 -RA FEW025 SCT100 30/25 Q1010 NOSIG RMK A2983
RPLL,2025-11-03 05:00,RPLL 030500Z 32005KT 280V040 8000 -RA SCT023 OVC100 28/26 Q1009 NOSIG RMK A2980
RPLL,2025-11-03 06:00,RPLL 030600Z 04010KT 3000 +RA SCT023 OVC090 25/25 Q1010 TEMPO 5000 RA RMK A2983
RPLL,2025-11-03 07:00,RPLL 030700Z VRB03KT 6000 RA SCT023 OVC090 26/25 Q1009 TEMPO 3000 +SHRA RMK A2980
RPLL,2025-11-03 08:00,RPLL 030800Z VRB02KT 9000 SCT023 BKN090 26/26 Q1009 RERA NOSIG RMK A2980
RPLL,2025-11-03 09:00,RPLL 030900Z 18003KT 130V220 9999 SCT023 BKN090 26/26 Q1009 NOSIG RMK A2980
RPLL,2025-11-03 10:00,COR RPLL 031000Z 21005KT 180V260 9000 -RA SCT023 OVC090 26/24 Q1010 NOSIG RMK A2983
RPLL,2025-11-03 11:00,COR RPLL 031100Z VRB03KT 5000 RA SCT020 OVC080 25/24 Q1011 TEMPO 2000 +RA RMK A2985
RPLL,2025-11-03 12:00,RPLL 031200Z VRB02KT 5000 RA SCT020 OVC080 25/25 Q1011 NOSIG RMK A2985
RPLL,2025-11-03 13:00,RPLL 031300Z 02005KT 340V040 9999 -RA SCT020 OVC080 26/24 Q1011 RERA NOSIG RMK A2985
RPLL,2025-11-03 14:00,RPLL 031400Z VRB02KT 9999 SCT025 OVC100 27/23 Q1011 NOSIG RMK A2985
RPLL,2025-11-03 15:00,RPLL 031500Z VRB01KT 9000 -RA SCT025 OVC100 25/24 Q1010 NOSIG RMK A2983
RPLL,2025-11-03 16:00,RPLL 031600Z 03005KT 340V060 8000 -RA SCT023 OVC090 26/24 Q1010 NOSIG RMK A2983
RPLL,2025-11-03 17:00,RPLL 031700Z 36006KT 8000 -RA SCT023 OVC100 26/24 Q1009 NOSIG RMK A2980
RPLL,2025-11-03 18:00,RPLL 031800Z 36005KT 320V040 9000 -RA SCT025 OVC100 26/24 Q1008 NOSIG RMK A2977
RPLL,2025-11-03 19:00,RPLL 031900Z 36006KT 9000 -RA SCT025 OVC100 26/24 Q1007 NOSIG RMK A2974
RPLL,2025-11-03 20:00,RPLL 032000Z 01005KT 330V030 9000 -RA SCT025 OVC100 26/24 Q1007 NOSIG RMK A2974
RPLL,2025-11-03 21:00,RPLL 032100Z 36006KT 9999 SCT025 BKN100 26/24 Q1007 NOSIG RMK A2974
RPLL,2025-11-03 22:00,RPLL 032200Z 36006KT 330V040 9999 SCT025 BKN100 26/24 Q1008 NOSIG RMK A2977
RPLL,2025-11-03 23:00,RPLL 032300Z 01008KT 340V050 9999 SCT025 OVC100 26/24 Q1008 NOSIG RMK A2977
RPLL,2025-11-04 00:00,RPLL 040000Z 33003KT 260V050 9999 FEW025 BKN100 27/24 Q1008 NOSIG RMK A2977
RPLL,2025-11-04 01:00,RPLL 040100Z 01006KT 9000 -RA FEW025 OVC100 27/24 Q1008 NOSIG RMK A2977
RPLL,2025-11-04 02:00,RPLL 040200Z 04006KT 010V070 9000 -RA SCT023 OVC100 26/25 Q1008 NOSIG RMK A2977
RPLL,2025-11-04 03:00,RPLL 040300Z VRB02KT 9000 -RA SCT023 OVC100 26/26 Q1008 NOSIG RMK A2977
RPLL,2025-11-04 04:00,RPLL 040400Z 01007KT 340V040 9000 -RA SCT023 OVC100 26/26 Q1007 NOSIG RMK A2974
RPLL,2025-11-04 05:00,RPLL 040500Z 01009KT 340V050 9999 -RA FEW023 OVC100 27/26 Q1006 NOSIG RMK A2971
RPLL,2025-11-04 06:00,RPLL 040600Z 36005KT 340V070 9999 -RA FEW023 OVC100 27/26 Q1006 NOSIG RMK A2971
RPLL,2025-11-04 07:00,RPLL 040700Z 36005KT 330V050 9000 -RA SCT023 OVC090 27/26 Q1005 NOSIG RMK A2968
RPLL,2025-11-04 08:00,RPLL 040800Z 01005KT 320V050 9000 -RA SCT023 OVC090 27/26 Q1005 NOSIG RMK A2968
RPLL,2025-11-04 09:00,RPLL 040900Z 05004KT 8000 -RA SCT022 OVC080 26/26 Q1006 NOSIG RMK A2971
RPLL,2025-11-04 10:00,RPLL 041000Z VRB01KT 9000 -RA SCT023 OVC090 26/26 Q1006 NOSIG RMK A2971
RPLL,2025-11-04 11:00,RPLL 041100Z VRB02KT 9999 -RA SCT023 OVC100 26/26 Q1006 NOSIG RMK A2971
RPLL,2025-11-04 12:00,RPLL 041200Z 12002KT 9999 SCT023 BKN100 26/26 Q1006 NOSIG RMK A2971
RPLL,2025-11-04 13:00,RPLL 041300Z 10004KT 070V150 9999 FEW025 BKN100 26/26 Q1006 NOSIG RMK A2971
RPLL,2025-11-04 14:00,RPLL 041400Z 08005KT 040V100 9000 -RA SCT023 OVC090 26/25 Q1007 NOSIG RMK A2974
RPLL,2025-11-04 15:00,RPLL 041500Z 03005KT 350V080 9999 FEW025 SCT100 27/24 Q1006 NOSIG RMK A2971
RPLL,2025-11-04 16:00,RPLL 041600Z 02005KT 340V060 9999 FEW025 27/25 Q1006 NOSIG RMK A2971
RPLL,2025-11-04 17:00,RPLL 041700Z VRB01KT 9999 FEW025 27/25 Q1005 NOSIG RMK A2968
RPLL,2025-11-04 18:00,RPLL 041800Z 03004KT 360V080 9999 FEW025 26/24 Q1004 NOSIG RMK A2965
RPLL,2025-11-04 19:00,RPLL 041900Z 10003KT 070V130 9000 -RA SCT025 OVC100 26/26 Q1003 NOSIG RMK A2962
RPLL,2025-11-04 20:00,RPLL 042000Z 08003KT 020V110 9000 -RA SCT025 OVC100 26/26 Q1004 NOSIG RMK A2964
RPLL,2025-11-04 21:00,RPLL 042100Z 06005KT 9999 SCT025 SCT100 26/25 Q1005 NOSIG RMK A2968
RPLL,2025-11-04 22:00,RPLL 042200Z 08009KT 9999 SCT025 BKN100 27/25 Q1005 NOSIG RMK A2968
RPLL,2025-11-04 23:00,RPLL 042300Z 09006KT 070V140 9999 SCT025 BKN100 28/25 Q1006 NOSIG RMK A2971
RPLL,2025-11-05 00:00,RPLL 050000Z 12008KT 070V150 9999 FEW025 BKN100 29/25 Q1006 NOSIG RMK A2971
RPLL,2025-11-05 01:00,RPLL 050100Z 11010KT 070V140 9999 FEW025 BKN100 30/25 Q1007 NOSIG RMK A2974
RPLL,2025-11-05 02:00,RPLL 050200Z 10008KT 060V140 9999 FEW025 BKN100 31/25 Q1007 NOSIG RMK A2974
RPLL,2025-11-05 03:00,RPLL 050300Z 10013KT 070V150 9999 FEW025 SCT100 31/25 Q1007 NOSIG RMK A2974
RPLL,2025-11-05 04:00,RPLL 050400Z 10011KT 070V140 9999 FEW025 BKN100 32/25 Q1005 NOSIG RMK A2968
RPLL,2025-11-05 05:00,RPLL 050500Z 11010KT 070V150 9999 FEW025 BKN100 32/25 Q1005 NOSIG RMK A2968
RPLL,2025-11-05 06:00,RPLL 050600Z 11010KT 080V160 9999 FEW025 BKN100 31/25 Q1004 NOSIG RMK A2965
RPLL,2025-11-05 07:00,RPLL 050700Z 11007KT 070V150 9999 FEW023 BKN100 31/25 Q1004 NOSIG RMK A2965
RPLL,2025-11-05 08:00,RPLL 050800Z 12008KT 080V150 9999 FEW023 BKN100 30/25 Q1004 NOSIG RMK A2965
RPLL,2025-11-05 09:00,RPLL 050900Z 12009KT 070V150 9999 FEW023 BKN100 30/25 Q1005 NOSIG RMK A2968
RPLL,2025-11-05 10:00,RPLL 051000Z 12007KT 090V150 9999 FEW025 SCT100 29/25 Q1006 NOSIG RMK A2971
RPLL,2025-11-05 11:00,RPLL 051100Z 10008KT 9999 FEW025 29/25 Q1006 NOSIG RMK A2971
RPLL,2025-11-05 12:00,RPLL 051200Z 10007KT 070V130 9999 FEW025 29/24 Q1007 NOSIG RMK A2974 METAR RPLB 051200Z 09014KT 9999 FEW020 SCT080 BKN300 29/23 Q1007 NOSIG RMK A2974
RPLL,2025-11-05 13:00,RPLL 051300Z 09006KT 9999 -RA FEW023 BKN090 29/25 Q1008 NOSIG RMK A2977
RPLL,2025-11-05 14:00,RPLL 051400Z 10006KT 070V150 9999 SCT023 BKN090 29/25 Q1008 NOSIG RMK A2977
RPLL,2025-11-05 15:00,RPLL 051500Z 12005KT 080V160 9999 FEW025 29/25 Q1008 NOSIG RMK A2977
RPLL,2025-11-05 16:00,RPLL 051600Z 11007KT 070V130 9999 FEW025 BKN100 29/25 Q1008 NOSIG RMK A2977
RPLL,2025-11-05 17:00,RPLL 051700Z 09006KT 9999 SCT023 BKN090 28/25 Q1008 NOSIG RMK A2977
RPLL,2025-11-05 18:00,RPLL 051800Z 10005KT 070V140 9999 SCT025 BKN100 28/25 Q1008 NOSIG RMK A2977
RPLL,2025-11-05 19:00,RPLL 051900Z 08005KT 9999 FEW025 BKN100 28/25 Q1008 NOSIG RMK A2977
RPLL,2025-11-05 20:00,RPLL 052000Z 09004KT 060V120 9999 FEW025 SCT150 28/25 Q1008 NOSIG RMK A2977
RPLL,2025-11-05 21:00,RPLL 052100Z 11005KT 060V130 9999 FEW025 SCT130 28/25 Q1008 NOSIG RMK A2977
RPLL,2025-11-05 22:00,RPLL 052200Z 11006KT 9999 FEW025 SCT130 28/25 Q1009 NOSIG RMK A2980
RPLL,2025-11-05 23:00,RPLL 052300Z 10004KT 060V140 9999 FEW025 SCT100 29/25 Q1009 NOSIG RMK A2980
RPLL,2025-11-06 00:00,RPLL 060000Z 11006KT 080V150 9999 FEW025 SCT100 30/25 Q1010 NOSIG RMK A2983
RPLL,2025-11-06 01:00,RPLL 060100Z 10008KT 070V180 9999 FEW025 31/26 Q1011 NOSIG RMK A2985
RPLL,2025-11-06 02:00,RPLL 060200Z 13009KT 080V160 9999 FEW025 31/25 Q1011 NOSIG RMK A2985
RPLL,2025-11-06 03:00,RPLL 060300Z 11009KT 060V150 9999 FEW025 32/25 Q1010 NOSIG RMK A2983
RPLL,2025-11-06 04:00,RPLL 060400Z 11007KT 070V170 9999 FEW025 32/25 Q1010 NOSIG RMK A2983
RPLL,2025-11-06 05:00,RPLL 060500Z 13008KT 080V200 9999 FEW025 33/25 Q1009 NOSIG RMK A2980
RPLL,2025-11-06 06:00,RPLL 060600Z 12007KT 080V160 9999 FEW025 33/25 Q1008 NOSIG RMK A2977
RPLL,2025-11-06 07:00,RPLL 060700Z 14007KT 100V190 9999 FEW025 34/25 Q1007 NOSIG RMK A2974
RPLL,2025-11-06 08:00,RPLL 060800Z 15006KT 100V180 9999 FEW025 34/24 Q1008 NOSIG RMK A2977
RPLL,2025-11-06 09:00,RPLL 060900Z 14004KT 090V180 9999 FEW025 32/25 Q1008 NOSIG RMK A2977
RPLL,2025-11-06 10:00,RPLL 061000Z 14003KT 090V170 9999 FEW025 31/26 Q1009 NOSIG RMK A2980
RPLL,2025-11-06 11:00,COR RPLL 061100Z 11005KT 070V160 9999 FEW025 BKN100 31/25 Q1010 NOSIG RMK A2983
RPLL,2025-11-06 12:00,RPLL 061200Z 13004KT 090V170 9000 -RA SCT023 OVC090 30/26 Q1011 NOSIG RMK A2985
RPLL,2025-11-06 13:00,COR RPLL 061300Z VRB02KT 9999 SCT025 OVC100 30/26 Q1011 NOSIG RMK A2985
RPLL,2025-11-06 14:00,RPLL 061400Z 09003KT 9999 SCT025 OVC100 30/26 Q1012 NOSIG RMK A2988
RPLL,2025-11-06 15:00,RPLL 061500Z 13004KT 070V170 9999 SCT025 BKN100 30/25 Q1012 NOSIG RMK A2988
RPLL,2025-11-06 16:00,RPLL 061600Z 12004KT 070V150 9999 FEW025 SCT100 29/26 Q1012 NOSIG RMK A2988
RPLL,2025-11-06 17:00,RPLL 061700Z 12003KT 060V170 9999 FEW025 29/25 Q1011 NOSIG RMK A2985
RPLL,2025-11-06 18:00,RPLL 061800Z 14003KT 100V170 9999 FEW025 28/25 Q1011 NOSIG RMK A2985
RPLL,2025-11-06 19:00,RPLL 061900Z 07003KT 050V110 9999 FEW025 27/25 Q1010 NOSIG RMK A2983
RPLL,2025-11-06 20:00,RPLL 062000Z 20003KT 160V230 9999 FEW025 SCT150 28/26 Q1010 NOSIG RMK A2983
RPLL,2025-11-06 21:00,RPLL 062100Z 24004KT 220V300 9999 FEW025 SCT100 27/26 Q1011 NOSIG RMK A2985
RPLL,2025-11-06 22:00,RPLL 062200Z 28004KT 250V340 9999 FEW025 27/26 Q1012 NOSIG RMK A2988
RPLL,2025-11-06 23:00,RPLL 062300Z 30005KT 240V010 9999 FEW025 28/26 Q1012 NOSIG RMK A2988
RPLL,2025-11-07 00:00,RPLL 070000Z VRB05KT 9999 FEW025 29/25 Q1012 NOSIG RMK A2988
RPLL,2025-11-07 01:00,RPLL 070100Z 31006KT 260V340 9999 FEW025 30/26 Q1012 NOSIG RMK A2988
RPLL,2025-11-07 02:00,RPLL 070200Z 27007KT 9999 SCT023 30/26 Q1013 NOSIG RMK A2991
RPLL,2025-11-07 03:00,COR RPLL 070300Z 25005KT 180V320 9000 FEW023 BKN100 31/26 Q1012 NOSIG RMK A2988
RPLL,2025-11-07 04:00,RPLL 070400Z 29007KT 260V330 8000 FEW023 BKN100 31/27 Q1012 NOSIG RMK A2988
RPLL,2025-11-07 05:00,RPLL 070500Z 28007KT 200V340 9000 FEW025 BKN090 32/26 Q1011 NOSIG RMK A2985
RPLL,2025-11-07 06:00,RPLL 070600Z VRB06KT 9000 SCT025 BKN090 32/26 Q1010 NOSIG RMK A2983
RPLL,2025-11-07 07:00,RPLL 070700Z 29006KT 260V320 9999 SCT025 BKN100 32/25 Q1009 NOSIG RMK A2980
RPLL,2025-11-07 08:00,RPLL 070800Z 26009KT 9999 FEW025 SCT100 31/26 Q1009 NOSIG RMK A2980
RPLL,2025-11-07 09:00,RPLL 070900Z 26008KT 9999 FEW025 SCT100 30/26 Q1010 NOSIG RMK A2983
RPLL,2025-11-07 10:00,RPLL 071000Z 23006KT 200V260 9999 SCT 025 BKN100 30/26 Q1010 NOSIG RMK A2983
RPLL,2025-11-07 10:31,RPLL 071031Z 22005KT 9999 -SHRA SCT025 BKN100 30/26 Q1010 NOSIG RMK A2983
RPLL,2025-11-07 11:00,RPLL 071100Z 23006KT 9999 SCT025 BKN100 29/26 Q1011 NOSIG RMK A2985
RPLL,2025-11-07 12:00,RPLL 071200Z 29006KT 250V320 9999 FEW025 BKN090 29/26 Q1012 NOSIG RMK A2988
RPLL,2025-11-07 13:00,RPLL 071300Z 02004KT 9999 FEW025 SCT100 29/25 Q1012 NOSIG RMK A2988
RPLL,2025-11-07 14:00,RPLL 071400Z 33004KT 280V360 9999 FEW025 BKN100 29/24 Q1012 NOSIG RMK A2988
RPLL,2025-11-07 15:00,RPLL 071500Z 36007KT 320V050 9999 FEW025 BKN100 29/24 Q1011 NOSIG RMK A2985
RPLL,2025-11-07 16:00,RPLL 071600Z 36005KT 300V040 9999 FEW025 BKN100 29/26 Q1011 NOSIG RMK A2985
RPLL,2025-11-07 17:00,RPLL 071700Z 11006KT 9999 SCT025 BKN100 29/26 Q1011 NOSIG RMK A2985
RPLL,2025-11-07 18:00,RPLL 071800Z 01006KT 8000 -RA SCT023 OVC090 27/26 Q1010 NOSIG RMK A2983
RPLL,2025-11-07 19:00,RPLL 071900Z 06003KT 030V090 8000 -RA SCT025 BKN090 27/27 Q1010 NOSIG RMK A2983
RPLL,2025-11-07 20:00,RPLL 072000Z VRB01KT 9999 FEW025 BKN100 27/26 Q1010 NOSIG RMK A2983
RPLL,2025-11-07 21:00,RPLL 072100Z VRB02KT 9999 FEW025 BKN100 27/26 Q1010 NOSIG RMK A2983
RPLL,2025-11-07 22:00,RPLL 072200Z VRB02KT 9999 SCT025 OVC100 27/26 Q1011 NOSIG RMK A2985
RPLL,2025-11-07 23:00,RPLL 072300Z 19003KT 140V220 9999 -RA SCT023 OVC100 27/27 Q1011 NOSIG RMK A2985
RPLL,2025-11-08 00:00,RPLL 080000Z 23003KT 210V280 9999 FEW025 OVC100 27/26 Q1011 NOSIG RMK A2985
RPLL,2025-11-08 01:00,RPLL 080100Z 28004KT 230V360 9999 FEW025 BKN130 29/26 Q1011 NOSIG RMK A2985
RPLL,2025-11-08 02:00,RPLL 080200Z VRB03KT 9999 FEW025 SCT130 29/25 Q1011 NOSIG RMK A2985
RPLL,2025-11-08 03:00,RPLL 080300Z 27009KT 9999 FEW025 BKN090 29/27 Q1010 NOSIG RMK A2983
RPLL,2025-11-08 04:00,RPLL 080400Z 28007KT 9999 SCT025 BKN090 30/27 Q1009 NOSIG RMK A2980
RPLL,2025-11-08 05:00,RPLL 080500Z 29008KT 250V330 9999 FEW025 BKN090 30/26 Q1008 NOSIG RMK A2977
RPLL,2025-11-08 06:00,RPLL 080600Z 29009KT 9999 FEW025 BKN090 30/27 Q1007 NOSIG RMK A2974
RPLL,2025-11-08 07:00,RPLL 080700Z 29010KT 9999 FEW025 BKN100 31/26 Q1006 NOSIG RMK A2971
RPLL,2025-11-08 08:00,RPLL 080800Z 29008KT 9999 FEW025 BKN090 30/25 Q1006 NOSIG RMK A2971
RPLL,2025-11-08 09:00,RPLL 080900Z 29005KT 9999 FEW025 BKN090 30/25 Q1006 NOSIG RMK A2971
RPLL,2025-11-08 10:00,RPLL 081000Z 26005KT 9999 FEW025 BKN090 29/25 Q1007 NOSIG RMK A2974
RPLL,2025-11-08 11:00,RPLL 081100Z VRB02KT 9999 FEW025 SCT100 30/25 Q1007 NOSIG RMK A2974
RPLL,2025-11-08 12:00,RPLL 081200Z VRB01KT 9999 FEW025 BKN100 29/24 Q1007 NOSIG RMK A2974
RPLL,2025-11-08 13:00,RPLL 081300Z VRB02KT 9999 FEW025 BKN100 29/26 Q1007 NOSIG RMK A2974
RPLL,2025-11-08 14:00,RPLL 081400Z VRB02KT 9999 FEW025 BKN100 29/26 Q1006 NOSIG RMK A2971
RPLL,2025-11-08 15:00,RPLL 081500Z 31004KT 220V360 9999 FEW025 BKN100 29/23 Q1005 NOSIG RMK A2968
RPLL,2025-11-08 16:00,RPLL 081600Z 02008KT 340V050 9999 FEW025 BKN100 29/23 Q1005 NOSIG RMK A2968
RPLL,2025-11-08 17:00,RPLL 081700Z 35006KT 310V040 9999 FEW025 BKN090 28/22 Q1004 NOSIG RMK A2965
RPLL,2025-11-08 18:00,RPLL 081800Z 01006KT 330V050 9999 FEW025 BKN090 28/22 Q1004 NOSIG RMK A2965
RPLL,2025-11-08 19:00,RPLL 081900Z 34006KT 310V010 9999 FEW025 OVC130 28/21 Q1002 NOSIG RMK A2959
RPLL,2025-11-08 20:00,RPLL 082000Z 33008KT 300V020 9999 -RA FEW025 OVC100 28/21 Q1001 NOSIG RMK A2956
RPLL,2025-11-08 21:00,RPLL 082100Z 33007KT 300V360 9999 -RA FEW025 OVC100 27/23 Q1001 NOSIG RMK A2956
RPLL,2025-11-08 22:00,RPLL 082200Z 32007KT 280V360 9999 -RA FEW025 OVC100 27/22 Q1001 NOSIG RMK A2956
RPLL,2025-11-08 23:00,RPLL 082300Z 31008KT 270V340 9999 -RA SCT023 OVC100 27/22 Q1001 NOSIG RMK A2956
RPLL,2025-11-09 00:00,RPLL 090000Z 31010KT 280V340 9999 -RA SCT023 OVC100 28/21 Q1000 NOSIG RMK A2953
RPLL,2025-11-09 01:00,RPLL 090100Z 29011KT 9999 -RA SCT023 OVC100 27/22 Q1000 NOSIG RMK A2953
RPLL,2025-11-09 02:00,RPLL 090200Z 27010KT 9999 -RA SCT023 OVC090 26/23 Q0999 NOSIG RMK A2950
RPLL,2025-11-09 03:00,RPLL 090300Z 28007KT 240V310 9999 -RA SCT023 OVC090 27/25 Q0998 NOSIG RMK A2947
RPLL,2025-11-09 04:00,RPLL 090400Z 01013KT 5000 RA SCT022 OVC090 26/25 Q0998 NOSIG RMK A2947
RPLL,2025-11-09 05:00,RPLL 090500Z 30009KT 260V350 9000 -RA SCT022 OVC090 25/24 Q0996 RERA NOSIG RMK A2941
RPLL,2025-11-09 06:00,RPLL 090600Z 28014KT 9000 -RA BKN018 OVC080 25/23 Q0994 NOSIG RMK A2935
RPLL,2025-11-09 07:00,RPLL 090700Z 27016G26KT 9000 -RA BKN018 OVC090 26/24 Q0991 NOSIG RMK A2926
RPLL,2025-11-09 08:00,RPLL 090800Z 26016KT 9000 -RA BKN018 OVC090 27/25 Q0990 NOSIG RMK A2923
RPLL,2025-11-09 09:00,RPLL 090900Z 26025KT 5000 RA BKN018 OVC080 27/26 Q0989 NOSIG RMK A2921
RPLL,2025-11-09 10:00,RPLL 091000Z 26023KT 8000 -RA BKN018 OVC080 28/27 Q0989 RERA NOSIG RMK A2921
RPLL,2025-11-09 11:00,RPLL 091100Z 25027G39KT 7000 -RA BKN018 OVC080 28/27 Q0988 TEMPO 5000 RA RMK A2918
RPLL,2025-11-09 12:00,RPLL 091200Z 25019G29KT 7000 -RA BKN018 OVC080 28/27 Q0990 NOSIG RMK A2923
RPLL,2025-11-09 13:00,RPLL 091300Z 25016KT 5000 RA BKN018 OVC080 27/27 Q0990 NOSIG RMK A2923
RPLL,2025-11-09 14:00,RPLL 091400Z 26021G31KT 8000 -RA BKN018 OVC080 28/26 Q0989 RERA NOSIG RMK A2921
RPLL,2025-11-09 15:00,RPLL 091500Z 24014KT 9000 -RA SCT023 OVC090 28/27 Q0989 NOSIG RMK A2921
RPLL,2025-11-09 16:00,RPLL 091600Z 25023G36KT 8000 -RA SCT022 OVC090 28/27 Q0991 NOSIG RMK A2926
RPLL,2025-11-09 17:00,RPLL 091700Z 25016KT 8000 -RA SCT022 OVC080 28/26 Q0992 NOSIG RMK A2929
RPLL,2025-11-09 17:31,RPLL 091731Z 25018G28KT 8000 -RA SCT022 OVC080 28/26 Q0992 NOSIG RMK A2929
RPLL,2025-11-09 18:00,COR RPLL 091800Z 24015KT 7000 -RA SCT022 OVC080 28/27 Q0992 NOSIG RMK A2929
RPLL,2025-11-09 19:00,COR RPLL 091900Z 23015KT 6000 RA BKN018 OVC080 26/26 Q0993 TEMPO 7000 -RA RMK A2932
RPLL,2025-11-09 20:00,RPLL 092000Z 23016G26KT 8000 -RA BKN022 OVC080 27/25 Q0993 RERA TEMPO 5000 RA RMK A2932
RPLL,2025-11-09 21:00,RPLL 092100Z 23014KT 8000 BKN022 OVC080 28/26 Q0994 TEMPO -RA RMK A2935
RPLL,2025-11-09 22:00,RPLL 092200Z 21011KT 8000 BKN022 BKN080 28/26 Q0996 TEMPO -RA RMK A2941
RPLL,2025-11-09 23:00,RPLL 092300Z 20010KT 170V230 9000 SCT022 OVC080 28/26 Q0997 NOSIG RMK A2944
RPLL,2025-11-10 00:00,COR RPLL 100000Z 22011KT 180V240 9000 SCT022 BKN100 29/26 Q0998 NOSIG RMK A2947
RPLL,2025-11-10 01:00,RPLL 100100Z 22012KT 190V250 8000 -RA SCT022 BKN090 28/26 Q1000 NOSIG RMK A2953
RPLL,2025-11-10 02:00,RPLL 100200Z 25014KT 5000 RA SCT022 OVC090 26/26 Q1001 TEMPO 2000 +RA RMK A2953
RPLL,2025-11-10 03:00,RPLL 100300Z 25019G32KT 4000 RA BKN022 OVC080 26/25 Q1001 NOSIG RMK A2956
RPLL,2025-11-10 04:00,COR RPLL 100400Z 23016KT 210V270 9000 SCT023 BKN090 30/26 Q1000 RERA NOSIG RMK A2953
RPLL,2025-11-10 05:00,RPLL 100500Z 24016G27KT 9999 FEW023 BKN100 31/25 Q0999 NOSIG RMK A2950
RPLL,2025-11-10 06:00,RPLL 100600Z 23010G20KT 200V260 9999 FEW025 SCT100 31/26 Q0999 NOSIG RMK A2950
RPLL,2025-11-10 07:00,RPLL 100700Z 23016KT 200V260 9999 FEW025 BKN100 31/25 Q0999 NOSIG RMK A2950
RPLL,2025-11-10 08:00,RPLL 100800Z 24016G26KT 9999 FEW025 SCT100 31/25 Q1000 NOSIG RMK A2953
RPLL,2025-11-10 09:00,RPLL 100900Z 23010KT 180V250 9999 FEW025 SCT100 30/25 Q1001 NOSIG RMK A2956
RPLL,2025-11-10 10:00,RPLL 101000Z 22008KT 9999 FEW025 SCT100 29/26 Q1002 NOSIG RMK A2959
RPLL,2025-11-10 11:00,RPLL 101100Z 22009KT 190V250 9000 SCT025 28/26 Q1002 NOSIG RMK A2959
RPLL,2025-11-10 12:00,RPLL 101200Z 22006KT 190V250 9999 FEW025 28/26 Q1003 NOSIG RMK A2962
RPLL,2025-11-10 13:00,RPLL 101300Z 22006KT 170V240 9999 FEW025 28/26 Q1004 NOSIG RMK A2965
RPLL,2025-11-10 14:00,RPLL 101400Z 22009KT 9000 SCT025 BKN100 29/25 Q1004 NOSIG RMK A2965
RPLL,2025-11-10 15:00,RPLL 101500Z 22009KT 170V250 9000 SCT025 BKN100 29/26 Q1005 NOSIG RMK A2968
RPLL,2025-11-10 16:00,RPLL 101600Z 23012KT 190V250 9000 -RA SCT025 BKN100 28/25 Q1005 NOSIG RMK A2968
RPLL,2025-11-10 17:00,RPLL 101700Z 23010KT 200V260 9000 FEW025 28/25 Q1004 NOSIG RMK A2965
RPLL,2025-11-10 18:00,RPLL 101800Z 23010KT 9000 FEW025 28/24 Q1004 NOSIG RMK A2965
RPLL,2025-11-10 19:00,RPLL 101900Z 23005KT 170V290 9000 FEW025 28/24 Q1005 NOSIG RMK A2968
RPLL,2025-11-10 20:00,RPLL 102000Z 00000KT 9000 SCT025 BKN100 27/25 Q1005 NOSIG RMK A2968
RPLL,2025-11-10 21:00,RPLL 102100Z VRB02KT 9999 FEW025 SCT100 27/25 Q1006 NOSIG RMK A2971
RPLL,2025-11-10 22:00,RPLL 102200Z 21004KT 160V250 8000 FEW025 BKN100 27/25 Q1007 NOSIG RMK A2974
RPLL,2025-11-10 23:00,RPLL 102300Z 25009KT 9000 FEW025 SCT100 29/26 Q1007 NOSIG RMK A2974
RPLL,2025-11-11 00:00,RPLL 110000Z 34013KT 300V010 9000 FEW023 BKN100 27/25 Q1009 NOSIG RMK A2980
RPLL,2025-11-11 01:00,RPLL 110100Z 33004KT 270V010 9999 FEW025 BKN100 27/25 Q1009 NOSIG RMK A2980
RPLL,2025-11-11 02:00,RPLL 110200Z 26015KT 9999 FEW025 BKN100 30/27 Q1008 NOSIG RMK A2977
RPLL,2025-11-11 03:00,RPLL 110300Z 26015KT 9999 FEW025 31/27 Q1008 NOSIG RMK A2977
RPLL,2025-11-11 04:00,RPLL 110400Z 26016KT 9999 FEW025 31/26 Q1007 NOSIG RMK A2974
RPLL,2025-11-11 05:00,RPLL 110500Z 27015KT 9999 FEW025 31/26 Q1007 NOSIG RMK A2974
RPLL,2025-11-11 06:00,RPLL 110600Z 27013KT 9999 FEW025 31/26 Q1006 NOSIG RMK A2971
RPLL,2025-11-11 07:00,RPLL 110700Z 26014KT 9999 FEW025 31/25 Q1006 NOSIG RMK A2971
RPLL,2025-11-11 08:00,RPLL 110800Z 27013KT 9999 FEW025 30/25 Q1006 NOSIG RMK A2971
RPLL,2025-11-11 09:00,RPLL 110900Z 26012KT 9999 FEW025 29/26 Q1006 NOSIG RMK A2971
RPLL,2025-11-11 10:00,RPLL 111000Z 24009KT 9999 FEW025 29/25 Q1007 NOSIG RMK A2974
RPLL,2025-11-11 11:00,RPLL 111100Z 26009KT 9999 FEW025 28/26 Q1007 NOSIG RMK A2974
RPLL,2025-11-11 12:00,RPLL 111200Z 24004KT 210V270 9999 SCT025 28/26 Q1008 NOSIG RMK A2977
RPLL,2025-11-11 13:00,RPLL 111300Z 23003KT 190V260 9999 SCT025 28/26 Q1009 NOSIG RMK A2980
RPLL,2025-11-11 14:00,RPLL 111400Z 19003KT 150V230 9999 FEW025 28/25 Q1009 NOSIG RMK A2980
RPLL,2025-11-11 15:00,RPLL 111500Z 20003KT 150V250 9999 FEW025 28/26 Q1009 NOSIG RMK A2980
RPLL,2025-11-11 16:00,RPLL 111600Z VRB01KT 9999 SCT023 BKN100 27/26 Q1009 NOSIG RMK A2980
RPLL,2025-11-11 17:00,RPLL 111700Z VRB02KT 9999 FEW025 SCT100 28/26 Q1009 NOSIG RMK A2980
RPLL,2025-11-11 18:00,RPLL 111800Z VRB02KT 9999 FEW025 SCT100 27/26 Q1008 NOSIG RMK A2977
RPLL,2025-11-11 19:00,RPLL 111900Z VRB01KT 9999 FEW025 27/25 Q1008 NOSIG RMK A2977
RPLL,2025-11-11 20:00,RPLL 112000Z VRB02KT 9999 FEW025 27/25 Q1008 NOSIG RMK A2977
RPLL,2025-11-11 21:00,RPLL 112100Z VRB01KT 9000 -RA SCT022 BKN090 27/26 Q1009 NOSIG RMK A2980
RPLL,2025-11-11 22:00,RPLL 112200Z VRB02KT 9999 SCT022 BKN090 27/26 Q1010 NOSIG RMK A2983
RPLL,2025-11-11 23:00,RPLL 112300Z VRB01KT 9999 FEW023 BKN100 29/26 Q1010 NOSIG RMK A2983
RPLL,2025-11-12 00:00,RPLL 120000Z 29004KT 240V340 9999 FEW025 29/26 Q1010 NOSIG RMK A2983
RPLL,2025-11-12 01:00,RPLL 120100Z 30005KT 250V330 9999 FEW025 SCT100 29/26 Q1010 NOSIG RMK A2983
RPLL,2025-11-12 02:00,RPLL 120200Z 26006KT 230V290 9999 FEW025 SCT100 30/26 Q1010 NOSIG RMK A2983
RPLL,2025-11-12 03:00,RPLL 120300Z 28008KT 240V320 9999 FEW025 SCT100 30/25 Q1010 NOSIG RMK A2983
RPLL,2025-11-12 04:00,RPLL 120400Z 28008KT 250V320 9999 FEW025 31/25 Q1010 NOSIG RMK A2983
RPLL,2025-11-12 05:00,RPLL 120500Z 29008KT 240V310 9999 FEW025 31/25 Q1009 NOSIG RMK A2980
RPLL,2025-11-12 06:00,RPLL 120600Z 28008KT 220V310 9999 FEW025 31/27 Q1008 NOSIG RMK A2977
RPLL,2025-11-12 07:00,RPLL 120700Z 26012KT 9999 FEW025 30/26 Q1008 NOSIG RMK A2977
RPLL,2025-11-12 08:00,RPLL 120800Z 27010KT 9999 FEW025 31/25 Q1008 NOSIG RMK A2977
RPLL,2025-11-12 09:00,RPLL 120900Z 26009KT 9999 FEW025 30/25 Q1008 NOSIG RMK A2977
RPLL,2025-11-12 10:00,RPLL 121000Z 25007KT 9999 FEW025 29/25 Q1009 NOSIG RMK A2980
RPLL,2025-11-12 11:00,RPLL 121100Z 24007KT 200V270 9999 FEW025 29/26 Q1010 NOSIG RMK A2983
RPLL,2025-11-12 12:00,RPLL 121200Z 24005KT 200V280 9999 FEW025 28/26 Q1011 NOSIG RMK A2985
RPLL,2025-11-12 13:00,RPLL 121300Z 23004KT 210V280 9999 FEW025 28/26 Q1011 NOSIG RMK A2985
RPLL,2025-11-12 14:00,RPLL 121400Z 23003KT 190V260 9999 FEW025 28/25 Q1011 NOSIG RMK A2985
RPLL,2025-11-12 15:00,RPLL 121500Z VRB02KT 9999 FEW025 28/25 Q1011 NOSIG RMK A2985
RPLL,2025-11-12 16:00,RPLL 121600Z VRB02KT 9000 FEW025 28/25 Q1011 NOSIG RMK A2985
RPLL,2025-11-12 17:00,RPLL 121700Z VRB02KT 9000 FEW025 27/26 Q1010 NOSIG RMK A2983
RPLL,2025-11-12 18:00,RPLL 121800Z VRB01KT 9000 FEW025 27/25 Q1010 NOSIG RMK A2983
RPLL,2025-11-12 19:00,RPLL 121900Z 23003KT 9000 FEW025 27/25 Q1010 NOSIG RMK A2983
RPLL,2025-11-12 20:00,RPLL 122000Z VRB02KT 9000 FEW025 27/26 Q1010 NOSIG RMK A2983
RPLL,2025-11-12 21:00,RPLL 122100Z 01007KT 9000 FEW025 27/24 Q1010 NOSIG RMK A2983
RPLL,2025-11-12 22:00,RPLL 122200Z 01007KT 330V030 9000 FEW025 27/25 Q1011 NOSIG RMK A2985
RPLL,2025-11-12 23:00,RPLL 122300Z 02006KT 350V050 9999 FEW025 27/25 Q1011 NOSIG RMK A2985
RPLL,2025-11-13 00:00,RPLL 130000Z 36006KT 310V040 9999 FEW025 28/24 Q1012 NOSIG RMK A2988
RPLL,2025-11-13 01:00,RPLL 130100Z 35007KT 310V030 9999 FEW025 29/24 Q1012 NOSIG RMK A2988
RPLL,2025-11-13 02:00,RPLL 130200Z 30008KT 9999 FEW025 30/26 Q1012 NOSIG RMK A2988
RPLL,2025-11-13 03:00,RPLL 130300Z 31009KT 280V340 9999 FEW025 30/25 Q1011 NOSIG RMK A2985
RPLL,2025-11-13 04:00,RPLL 130400Z 30010KT 9999 FEW025 31/25 Q1010 NOSIG RMK A2983
RPLL,2025-11-13 05:00,RPLL 130500Z 29009KT 270V330 9999 FEW025 31/25 Q1010 NOSIG RMK A2983
RPLL,2025-11-13 06:00,RPLL 130600Z 30010KT 9999 FEW025 32/25 Q1009 NOSIG RMK A2980
RPLL,2025-11-13 07:00,RPLL 130700Z 30009KT 270V340 9999 FEW025 32/25 Q1008 NOSIG RMK A2977
RPLL,2025-11-13 08:00,RPLL 130800Z 28007KT 9999 FEW025 31/25 Q1008 NOSIG RMK A2977
RPLL,2025-11-13 09:00,RPLL 130900Z 28008KT 9999 FEW025 30/26 Q1008 NOSIG RMK A2977
RPLL,2025-11-13 10:00,RPLL 131000Z 27006KT 9999 FEW025 29/26 Q1009 NOSIG RMK A2980
RPLL,2025-11-13 11:00,RPLL 131100Z 01009KT 9999 FEW025 30/25 Q1009 NOSIG RMK A2980
RPLL,2025-11-13 12:00,RPLL 131200Z 01009KT 340V040 9999 FEW025 29/24 Q1010 NOSIG RMK A2983
RPLL,2025-11-13 13:00,RPLL 131300Z 01009KT 340V040 9999 FEW025 29/23 Q1011 NOSIG RMK A2985
RPLL,2025-11-13 14:00,RPLL 131400Z 03007KT 360V060 9999 FEW025 28/23 Q1011 NOSIG RMK A2985
RPLL,2025-11-13 15:00,RPLL 131500Z 01006KT 330V040 9000 FEW025 28/23 Q1010 NOSIG RMK A2983
RPLL,2025-11-13 16:00,RPLL 131600Z 36005KT 320V050 9000 FEW025 28/23 Q1010 NOSIG RMK A2983
RPLL,2025-11-13 17:00,RPLL 131700Z 01008KT 9000 FEW025 27/23 Q1010 NOSIG RMK A2983
RPLL,2025-11-13 18:00,RPLL 131800Z 01009KT 9000 FEW025 27/23 Q1009 NOSIG RMK A2980
RPLL,2025-11-13 19:00,RPLL 131900Z 01006KT 330V030 9999 SCT025 27/24 Q1009 NOSIG RMK A2980
RPLL,2025-11-13 20:00,RPLL 132000Z 02008KT 350V050 9999 FEW025 26/24 Q1009 NOSIG RMK A2980
RPLL,2025-11-13 21:00,RPLL 132100Z 02006KT 350V060 9999 FEW025 SCT130 26/24 Q1009 NOSIG RMK A2980
RPLL,2025-11-13 22:00,RPLL 132200Z 01006KT 340V050 9999 FEW025 SCT100 26/24 Q1010 NOSIG RMK A2983
RPLL,2025-11-13 23:00,RPLL 132300Z 01005KT 340V050 9000 FEW025 SCT100 27/24 Q1011 NOSIG RMK A2985
RPLL,2025-11-14 00:00,RPLL 140000Z 02005KT 360V060 9000 FEW025 28/24 Q1011 NOSIG RMK A2985
RPLL,2025-11-14 01:00,RPLL 140100Z VRB03KT 8000 FEW025 BKN100 29/25 Q1012 NOSIG RMK A2988
RPLL,2025-11-14 02:00,RPLL 140200Z VRB03KT 8000 FEW023 SCT100 31/25 Q1012 NOSIG RMK A2988
RPLL,2025-11-14 03:00,RPLL 140300Z VRB04KT 9000 FEW025 SCT100 32/24 Q1011 NOSIG RMK A2985
RPLL,2025-11-14 04:00,RPLL 140400Z 28005KT 220V320 8000 FEW025 SCT100 30/25 Q1010 NOSIG RMK A2983
RPLL,2025-11-14 05:00,RPLL 140500Z 30007KT 270V330 9000 FEW025 BKN100 30/25 Q1009 NOSIG RMK A2980
RPLL,2025-11-14 06:00,RPLL 140600Z 29007KT 9000 FEW025 BKN100 30/26 Q1008 NOSIG RMK A2977
RPLL,2025-11-14 07:00,RPLL 140700Z 26004KT 210V280 9000 FEW025 BKN100 32/25 Q1008 NOSIG RMK A2977
RPLL,2025-11-14 08:00,RPLL 140800Z 11006KT 070V160 9000 FEW025 BKN100 31/24 Q1008 NOSIG RMK A2977
RPLL,2025-11-14 09:00,COR RPLL 140900Z 13006KT 090V170 9999 FEW025 BKN100 30/25 Q1009 NOSIG RMK A2980
RPLL,2025-11-14 09:36,RPLL 140936Z 12008KT 080V160 9999 -SHRA SCT023 OVC090 29/25 Q1010 NOSIG RMK A2983
RPLL,2025-11-14 10:00,RPLL 141000Z 12009KT 090V170 9999 FEW025 BKN100 29/24 Q1010 NOSIG RMK A2983
RPLL,2025-11-14 11:00,RPLL 141100Z 11007KT 070V140 9999 FEW025 BKN100 27/25 Q1011 NOSIG RMK A2985
RPLL,2025-11-14 12:00,RPLL 141200Z 12005KT 090V150 9999 -RA FEW025 OVC100 27/26 Q1011 NOSIG RMK A2985
RPLL,2025-11-14 13:00,RPLL 141300Z 10004KT 060V130 9999 FEW025 BKN100 27/26 Q1011 NOSIG RMK A2985
RPLL,2025-11-14 14:00,RPLL 141400Z 11003KT 080V140 9999 FEW025 BKN100 27/26 Q1012 NOSIG RMK A2988
RPLL,2025-11-14 15:00,RPLL 141500Z VRB02KT 9999 FEW025 27/26 Q1011 NOSIG RMK A2985
RPLL,2025-11-14 16:00,RPLL 141600Z VRB02KT 9999 FEW025 BKN100 28/26 Q1011 NOSIG RMK A2985
RPLL,2025-11-14 17:00,RPLL 141700Z VRB02KT 9999 FEW025 BKN100 28/26 Q1011 NOSIG RMK A2985
RPLL,2025-11-14 18:00,RPLL 141800Z 26003KT 200V300 9999 -RA FEW025 BKN100 26/26 Q1011 NOSIG RMK A2985
RPLL,2025-11-14 19:00,RPLL 141900Z VRB02KT 9999 FEW025 BKN100 26/26 Q1011 NOSIG RMK A2985
RPLL,2025-11-14 20:00,RPLL 142000Z VRB02KT 9000 -RA FEW025 OVC100 26/26 Q1010 NOSIG RMK A2983
RPLL,2025-11-14 21:00,RPLL 142100Z VRB01KT 9000 -RA FEW025 OVC100 26/26 Q1011 NOSIG RMK A2985
RPLL,2025-11-14 22:00,RPLL 142200Z 22003KT 170V260 9999 FEW023CB BKN100 26/26 Q1011 NOSIG RMK A2985 CB E-SE
RPLL,2025-11-14 23:00,RPLL 142300Z 13007KT 090V180 7000 -RA SCT022 OVC090 26/26 Q1013 TEMPO 5000 RA RMK A2991
RPLL,2025-11-15 00:00,RPLL 150000Z 10013KT 070V130 8000 -RA SCT022 OVC090 25/25 Q1013 NOSIG RMK A2991
RPLL,2025-11-15 01:00,RPLL 150100Z 09008KT 050V120 8000 -RA SCT022 OVC090 26/25 Q1013 NOSIG RMK A2991
RPLL,2025-11-15 02:00,RPLL 150200Z 07007KT 9999 FEW025 BKN090 26/25 Q1013 NOSIG RMK A2991
RPLL,2025-11-15 03:00,RPLL 150300Z 04010KT 9999 FEW025 BKN100 28/25 Q1012 NOSIG RMK A2988
RPLL,2025-11-15 04:00,RPLL 150400Z 06009KT 9999 FEW025 BKN100 29/24 Q1012 NOSIG RMK A2988
RPLL,2025-11-15 05:00,RPLL 150500Z 10005KT 050V150 9999 FEW025 BKN100 31/24 Q1011 NOSIG RMK A2985
RPLL,2025-11-15 06:00,RPLL 150600Z 11006KT 070V140 9999 FEW025 BKN100 31/25 Q1010 NOSIG RMK A2983
RPLL,2025-11-15 07:00,RPLL 150700Z 11009KT 080V140 9999 FEW025 BKN100 30/24 Q1011 NOSIG RMK A2985
RPLL,2025-11-15 08:00,RPLL 150800Z 11008KT 070V140 9999 FEW025 BKN100 30/24 Q1011 NOSIG RMK A2985
RPLL,2025-11-15 09:00,RPLL 150900Z 10009KT 080V140 9999 FEW025 BKN100 30/24 Q1011 NOSIG RMK A2985
RPLL,2025-11-15 10:00,RPLL 151000Z 11006KT 070V150 9999 FEW025 BKN100 29/25 Q1012 NOSIG RMK A2988
RPLL,2025-11-15 11:00,RPLL 151100Z 13005KT 100V160 9999 FEW025 28/25 Q1012 NOSIG RMK A2988
RPLL,2025-11-15 12:00,RPLL 151200Z 10006KT 080V140 9999 FEW025 28/25 Q1013 NOSIG RMK A2991
RPLL,2025-11-15 13:00,RPLL 151300Z 12003KT 080V150 9999 FEW025 28/25 Q1013 NOSIG RMK A2991
RPLL,2025-11-15 14:00,RPLL 151400Z 10003KT 060V130 9999 FEW025 28/25 Q1013 NOSIG RMK A2991
RPLL,2025-11-15 15:00,RPLL 151500Z VRB02KT 9999 FEW025 28/25 Q1013 NOSIG RMK A2991
RPLL,2025-11-15 16:00,RPLL 151600Z VRB02KT 9999 FEW025 28/25 Q1013 NOSIG RMK A2991
RPLL,2025-11-15 17:00,RPLL 151700Z 31003KT 270V360 9999 FEW025 27/25 Q1012 NOSIG RMK A2988
RPLL,2025-11-15 18:00,RPLL 151800Z VRB02KT 9999 FEW025 27/25 Q1012 NOSIG RMK A2988
RPLL,2025-11-15 19:00,RPLL 151900Z VRB03KT 9999 FEW025 SCT130 27/25 Q1012 NOSIG RMK A2988
RPLL,2025-11-15 20:00,RPLL 152000Z VRB02KT 9999 FEW025 26/25 Q1011 NOSIG RMK A2985
RPLL,2025-11-15 21:00,RPLL 152100Z VRB02KT 9999 FEW025 26/25 Q1012 NOSIG RMK A2988
RPLL,2025-11-15 22:00,RPLL 152200Z 01005KT 320V060 9999 FEW025 27/24 Q1012 NOSIG RMK A2988
RPLL,2025-11-15 23:00,RPLL 152300Z VRB02KT 9999 FEW025 27/25 Q1013 NOSIG RMK A2991
RPLL,2025-11-16 00:00,RPLL 160000Z 11004KT 090V150 9999 FEW025 SCT100 28/25 Q1014 NOSIG RMK A2994
RPLL,2025-11-16 01:00,RPLL 160100Z 10007KT 070V150 9999 FEW025 SCT100 30/25 Q1014 NOSIG RMK A2994
RPLL,2025-11-16 02:00,RPLL 160200Z 10007KT 070V140 9999 FEW025 BKN100 30/25 Q1014 NOSIG RMK A2994
RPLL,2025-11-16 03:00,RPLL 160300Z 11005KT 070V150 9999 FEW025 BKN100 31/25 Q1014 NOSIG RMK A2994
RPLL,2025-11-16 04:00,RPLL 160400Z 11011KT 080V140 9999 FEW025 SCT100 32/25 Q1013 NOSIG RMK A2991
RPLL,2025-11-16 05:00,RPLL 160500Z 09008KT 060V140 9999 FEW025 32/25 Q1012 NOSIG RMK A2988
RPLL,2025-11-16 06:00,RPLL 160600Z 12008KT 080V170 9999 FEW025 32/25 Q1011 NOSIG RMK A2985
RPLL,2025-11-16 07:00,RPLL 160700Z 09010G20KT 040V130 9999 FEW025 32/24 Q1011 NOSIG RMK A2985
RPLL,2025-11-16 08:00,RPLL 160800Z 09012KT 070V150 9999 -SHRA FEW023 BKN100 28/25 Q1011 NOSIG RMK A2985
RPLL,2025-11-16 09:00,RPLL 160900Z 12003KT 070V180 9999 FEW025 BKN100 27/25 Q1012 NOSIG RMK A2988
RPLL,2025-11-16 10:00,RPLL 161000Z VRB02KT 9999 FEW025 28/25 Q1012 NOSIG RMK A2988
RPLL,2025-11-16 11:00,RPLL 161100Z 10007KT 070V140 9000 -RA FEW025 BKN100 27/25 Q1013 NOSIG RMK A2991
RPLL,2025-11-16 12:00,RPLL 161200Z 11004KT 070V130 9999 FEW025 BKN100 27/25 Q1014 NOSIG RMK A2994
RPLL,2025-11-16 13:00,RPLL 161300Z VRB02KT 9999 FEW025 27/25 Q1014 NOSIG RMK A2994
RPLL,2025-11-16 14:00,RPLL 161400Z 09003KT 070V130 9999 FEW025 BKN100 28/24 Q1014 NOSIG RMK A2994
RPLL,2025-11-16 15:00,RPLL 161500Z 14003KT 110V170 9999 FEW025 BKN100 27/25 Q1014 NOSIG RMK A2994
RPLL,2025-11-16 16:00,RPLL 161600Z 17003KT 130V210 9999 FEW025 BKN100 28/25 Q1013 NOSIG RMK A2991
RPLL,2025-11-16 17:00,RPLL 161700Z VRB02KT 9999 FEW025 SCT100 27/25 Q1013 NOSIG RMK A2991
RPLL,2025-11-16 18:00,RPLL 161800Z VRB01KT 9999 SCT025 BKN100 27/25 Q1012 NOSIG RMK A2988
RPLL,2025-11-16 19:00,RPLL 161900Z VRB02KT 9999 FEW025 SCT100 27/25 Q1012 NOSIG RMK A2988
RPLL,2025-11-16 20:00,RPLL 162000Z 11003KT 9999 FEW025 OVC100 27/25 Q1012 NOSIG RMK A2988
RPLL,2025-11-16 21:00,RPLL 162100Z VRB02KT 9999 FEW025 BKN100 27/25 Q1012 NOSIG RMK A2988
RPLL,2025-11-16 22:00,RPLL 162200Z 08004KT 050V110 9999 FEW025 BKN100 27/25 Q1013 NOSIG RMK A2991
RPLL,2025-11-16 23:00,RPLL 162300Z 08004KT 050V110 9999 FEW025 BKN100 27/25 Q1013 NOSIG RMK A2991
RPLL,2025-11-17 00:00,RPLL 170000Z VRB02KT 9999 FEW025 BKN100 27/25 Q1013 NOSIG RMK A2991
RPLL,2025-11-17 01:00,RPLL 170100Z VRB02KT 9999 FEW025 BKN100 29/25 Q1014 NOSIG RMK A2994
RPLL,2025-11-17 02:00,RPLL 170200Z VRB03KT 9999 FEW025 BKN100 30/25 Q1013 NOSIG RMK A2994
RPLL,2025-11-17 03:00,RPLL 170300Z 05004KT 350V130 9999 FEW025 31/25 Q1013 NOSIG RMK A2991
RPLL,2025-11-17 04:00,RPLL 170400Z VRB04KT 9999 FEW025 31/25 Q1012 NOSIG RMK A2988
RPLL,2025-11-17 05:00,RPLL 170500Z 28006KT 260V050 9999 FEW025 BKN100 30/25 Q1011 NOSIG RMK A2985
RPLL,2025-11-17 05:26,RPLL 170526Z 25006KT 210V290 9999 -SHRA FEW025 BKN100 28/26 Q1010 NOSIG RMK A2983
RPLL,2025-11-17 06:00,RPLL 170600Z VRB03KT 9999 FEW025 SCT100 31/25 Q1010 NOSIG RMK A2983
RPLL,2025-11-17 07:00,RPLL 170700Z 27003KT 230V310 9999 FEW025 31/26 Q1009 NOSIG RMK A2980
RPLL,2025-11-17 08:00,RPLL 170800Z 26004KT 190V320 9999 FEW025 32/26 Q1009 NOSIG RMK A2980
RPLL,2025-11-17 09:00,RPLL 170900Z 27003KT 220V330 9999 FEW025 30/25 Q1010 NOSIG RMK A2983
RPLL,2025-11-17 10:00,RPLL 171000Z VRB02KT 9999 FEW025 30/25 Q1010 NOSIG RMK A2983
RPLL,2025-11-17 11:00,RPLL 171100Z 11003KT 080V150 9999 FEW025 BKN100 30/25 Q1011 NOSIG RMK A2985
RPLL,2025-11-17 12:00,RPLL 171200Z 08006KT 9999 FEW025 BKN100 29/24 Q1012 NOSIG RMK A2988
RPLL,2025-11-17 13:00,RPLL 171300Z 06005KT 9999 FEW025 BKN100 28/25 Q1013 NOSIG RMK A2991
RPLL,2025-11-17 14:00,RPLL 171400Z 09003KT 9999 FEW025 BKN100 28/25 Q1013 NOSIG RMK A2991
RPLL,2025-11-17 15:00,RPLL 171500Z VRB01KT 9999 FEW025 28/25 Q1013 NOSIG RMK A2991
RPLL,2025-11-17 16:00,RPLL 171600Z 01005KT 330V040 9999 FEW025 27/25 Q1012 NOSIG RMK A2988
RPLL,2025-11-17 17:00,RPLL 171700Z 01004KT 340V050 9999 FEW025 BKN100 27/25 Q1012 NOSIG RMK A2988
RPLL,2025-11-17 18:00,RPLL 171800Z 02008KT 9999 FEW025 SCT100 27/25 Q1012 NOSIG RMK A2988
RPLL,2025-11-17 19:00,RPLL 171900Z 01006KT 9999 FEW025 BKN100 26/25 Q1011 NOSIG RMK A2985
RPLL,2025-11-17 20:00,RPLL 172000Z 01007KT 9999 -RA FEW025 BKN100 26/25 Q1011 NOSIG RMK A2985
RPLL,2025-11-17 21:00,RPLL 172100Z 02006KT 9999 -RA FEW025 BKN090 26/24 Q1012 NOSIG RMK A2988
RPLL,2025-11-17 22:00,RPLL 172200Z 06005KT 9999 -RA FEW025 BKN090 26/24 Q1012 NOSIG RMK A2988
RPLL,2025-11-17 23:00,RPLL 172300Z VRB02KT 9999 FEW025 BKN100 26/25 Q1013 NOSIG RMK A2991
RPLL,2025-11-18 00:00,RPLL 180000Z VRB02KT 9999 FEW025 BKN100 27/24 Q1013 NOSIG RMK A2991
RPLL,2025-11-18 01:00,RPLL 180100Z 36005KT 310V060 9999 FEW025 29/24 Q1013 NOSIG RMK A2991
RPLL,2025-11-18 02:00,RPLL 180200Z 06004KT 010V110 9999 FEW025 BKN100 30/24 Q1013 NOSIG RMK A2991
RPLL,2025-11-18 03:00,RPLL 180300Z VRB03KT 9000 -SHRA SCT023 BKN100 30/25 Q1012 NOSIG RMK A2988
RPLL,2025-11-18 04:00,RPLL 180400Z 07004KT 9999 FEW025 BKN100 31/25 Q1011 NOSIG RMK A2985
RPLL,2025-11-18 05:00,RPLL 180500Z 08006KT 050V150 9999 FEW025 BKN100 32/25 Q1010 NOSIG RMK A2983
RPLL,2025-11-18 05:18,RPLL 180518Z 06008KT 020V090 9999 -SHRA FEW025 BKN100 30/25 Q1009 NOSIG RMK A2980
RPLL,2025-11-18 06:00,RPLL 180600Z 08006KT 050V120 9999 FEW025 BKN100 31/25 Q1009 NOSIG RMK A2980
RPLL,2025-11-18 07:00,COR RPLL 180700Z 10006KT 050V210 9999 FEW025 BKN100 32/24 Q1009 NOSIG RMK A2980
RPLL,2025-11-18 07:44,COR RPLL 180744Z 05004KT 360V140 9999 -RA FEW025 BKN100 28/26 Q1009 NOSIG RMK A2980
RPLL,2025-11-18 08:00,RPLL 180800Z 08004KT 040V120 9999 -RA FEW025 BKN100 29/26 Q1009 NOSIG RMK A2980
RPLL,2025-11-18 09:00,RPLL 180900Z VRB02KT 9999 FEW025 30/24 Q1009 NOSIG RMK A2980
RPLL,2025-11-18 10:00,RPLL 181000Z VRB02KT 9999 FEW025 29/24 Q1009 NOSIG RMK A2980
RPLL,2025-11-18 11:00,RPLL 181100Z 12003KT 9999 FEW025 29/24 Q1010 NOSIG RMK A2983
RPLL,2025-11-18 12:00,RPLL 181200Z VRB02KT 9999 FEW025 BKN100 29/24 Q1011 NOSIG RMK A2985
RPLL,2025-11-18 13:00,RPLL 181300Z 15004KT 110V220 9999 FEW025 BKN100 29/25 Q1011 NOSIG RMK A2985
RPLL,2025-11-18 14:00,RPLL 181400Z 12006KT 090V160 9999 FEW025 SCT100 28/25 Q1011 NOSIG RMK A2985
RPLL,2025-11-18 15:00,RPLL 181500Z 07005KT 040V100 9999 FEW025 BKN100 27/25 Q1011 NOSIG RMK A2985
RPLL,2025-11-18 16:00,RPLL 181600Z 07003KT 050V110 9999 FEW025 SCT100 27/24 Q1011 NOSIG RMK A2985
RPLL,2025-11-18 17:00,RPLL 181700Z 04002KT 9999 FEW025 SCT100 26/24 Q1010 NOSIG RMK A2983
RPLL,2025-11-18 18:00,RPLL 181800Z VRB02KT 9999 FEW025 SCT100 27/24 Q1011 NOSIG RMK A2985
RPLL,2025-11-18 19:00,RPLL 181900Z VRB02KT 9999 FEW025 BKN100 27/25 Q1009 NOSIG RMK A2980
RPLL,2025-11-18 20:00,RPLL 182000Z VRB01KT 9999 -RA FEW025 OVC100 27/24 Q1009 NOSIG RMK A2980
RPLL,2025-11-18 21:00,RPLL 182100Z 33003KT 290V360 9999 -RA FEW025 OVC100 25/25 Q1010 NOSIG RMK A2983
RPLL,2025-11-18 22:00,RPLL 182200Z 02005KT 350V050 9999 FEW025 BKN100 26/24 Q1010 NOSIG RMK A2983
RPLL,2025-11-18 23:00,RPLL 182300Z 03005KT 360V060 8000 -RA SCT025 OVC100 26/25 Q1012 NOSIG RMK A2988
RPLL,2025-11-19 00:00,RPLL 190000Z VRB02KT 9999 -RA FEW025 BKN100 26/25 Q1012 NOSIG RMK A2988
RPLL,2025-11-19 01:00,RPLL 190100Z 11004KT 060V170 9999 FEW025 BKN100 26/25 Q1013 NOSIG RMK A2991
RPLL,2025-11-19 02:00,RPLL 190200Z 05006KT 010V090 9999 FEW025 BKN100 29/24 Q1012 NOSIG RMK A2988
RPLL,2025-11-19 03:00,RPLL 190300Z 08005KT 030V130 9999 FEW025 32/24 Q1011 NOSIG RMK A2985
RPLL,2025-11-19 04:00,RPLL 190400Z 30007KT 260V340 9999 SCT025 31/25 Q1011 NOSIG RMK A2985
RPLL,2025-11-19 04:41,RPLL 190441Z 27006KT 240V310 9999 -SHRA FEW025 BKN100 29/26 Q1010 NOSIG RMK A2983
RPLL,2025-11-19 05:00,RPLL 190500Z 27006KT 240V320 9999 FEW025 BKN100 30/27 Q1010 NOSIG RMK A2983
RPLL,2025-11-19 06:00,RPLL 190600Z 31004KT 210V340 9999 -RA FEW025 BKN100 30/26 Q1009 NOSIG RMK A2980
RPLL,2025-11-19 07:00,RPLL 190700Z 17005KT 070V240 9999 FEW025 SCT100 31/25 Q1008 NOSIG RMK A2977
RPLL,2025-11-19 08:00,RPLL 190800Z 07005KT 040V110 9999 FEW025 BKN100 31/24 Q1008 NOSIG RMK A2977
RPLL,2025-11-19 08:39,RPLL 190839Z 22005KT 180V240 9999 -RA FEW025 BKN100 29/26 Q1009 NOSIG RMK A2980
RPLL,2025-11-19 09:00,RPLL 190900Z 36004KT 300V090 9999 -RA FEW025 BKN100 29/25 Q1009 NOSIG RMK A2980
RPLL,2025-11-19 10:00,RPLL 191000Z 08004KT 9999 FEW025 SCT100 29/24 Q1009 NOSIG RMK A2980
RPLL,2025-11-19 11:00,RPLL 191100Z 11004KT 9999 FEW025 BKN100 29/24 Q1010 NOSIG RMK A2983
RPLL,2025-11-19 12:00,RPLL 191200Z 13004KT 100V160 9999 FEW025 BKN100 29/25 Q1012 NOSIG RMK A2988
RPLL,2025-11-19 13:00,RPLL 191300Z 12004KT 9999 FEW025 SCT100 29/25 Q1012 NOSIG RMK A2988
RPLL,2025-11-19 14:00,RPLL 191400Z 13003KT 090V160 9999 FEW025 BKN100 28/25 Q1012 NOSIG RMK A2988
RPLL,2025-11-19 15:00,RPLL 191500Z 11005KT 080V140 9999 FEW025 28/24 Q1011 NOSIG RMK A2985
RPLL,2025-11-19 16:00,RPLL 191600Z 10004KT 070V130 9999 FEW025 BKN130 28/24 Q1011 NOSIG RMK A2985
RPLL,2025-11-19 17:00,RPLL 191700Z 09003KT 060V130 9999 FEW025 BKN100 28/25 Q1011 NOSIG RMK A2985
RPLL,2025-11-19 18:00,RPLL 191800Z 01011KT 8000 -RA SCT023 OVC090 26/25 Q1011 NOSIG RMK A2985
RPLL,2025-11-19 19:00,RPLL 191900Z 01006KT 9999 SCT025 BKN090 25/25 Q1010 NOSIG RMK A2983
RPLL,2025-11-19 20:00,RPLL 192000Z 36004KT 320V050 9999 FEW025 SCT100 25/25 Q1010 NOSIG RMK A2983
RPLL,2025-11-19 21:00,RPLL 192100Z VRB01KT 9999 FEW025 BKN100 26/24 Q1010 NOSIG RMK A2983
RPLL,2025-11-19 22:00,RPLL 192200Z 06003KT 010V110 9999 FEW025 BKN100 26/25 Q1011 NOSIG RMK A2985
RPLL,2025-11-19 23:00,RPLL 192300Z 01004KT 310V050 9999 FEW025 BKN100 27/24 Q1012 NOSIG RMK A2988
RPLL,2025-11-20 00:00,RPLL 200000Z 06003KT 360V100 9999 FEW025 BKN100 28/24 Q1013 NOSIG RMK A2991
RPLL,2025-11-20 01:00,RPLL 200100Z VRB03KT 9999 FEW025 BKN100 30/25 Q1013 NOSIG RMK A2991
RPLL,2025-11-20 02:00,RPLL 200200Z 26005KT 210V290 9999 FEW025 BKN100 30/25 Q1013 NOSIG RMK A2991
RPLL,2025-11-20 03:00,RPLL 200300Z 29006KT 250V340 9999 FEW025 BKN100 30/25 Q1012 NOSIG RMK A2988
RPLL,2025-11-20 04:00,RPLL 200400Z 27004KT 240V300 9999 FEW025 BKN100 31/24 Q1011 NOSIG RMK A2985
RPLL,2025-11-20 05:00,RPLL 200500Z 06006KT 9999 FEW025 BKN100 32/24 Q1011 NOSIG RMK A2985
RPLL,2025-11-20 05:27,RPLL 200527Z 09004KT 040V170 9000 -RA SCT023 OVC100 27/26 Q1011 TEMPO 5000 RA RMK A2985
RPLL,2025-11-20 06:00,COR RPLL 200600Z VRB01KT 9999 FEW025 BKN100 28/26 Q1010 NOSIG RMK A2983
RPLL,2025-11-20 07:00,RPLL 200700Z VRB02KT 9999 -RA FEW025 BKN100 28/26 Q1010 NOSIG RMK A2983
RPLL,2025-11-20 08:00,RPLL 200800Z 14005KT 9999 FEW025 BKN100 30/25 Q1010 NOSIG RMK A2983
RPLL,2025-11-20 09:00,RPLL 200900Z 12004KT 9999 FEW025 BKN100 29/25 Q1010 NOSIG RMK A2983
RPLL,2025-11-20 10:00,RPLL 201000Z VRB02KT 9999 FEW025 SCT100 29/25 Q1011 NOSIG RMK A2985
RPLL,2025-11-20 11:00,RPLL 201100Z 09004KT 9999 FEW025 SCT100 29/24 Q1012 NOSIG RMK A2988
RPLL,2025-11-20 12:00,RPLL 201200Z VRB02KT 9999 FEW025 28/24 Q1012 NOSIG RMK A2988
RPLL,2025-11-20 13:00,RPLL 201300Z VRB02KT 9999 FEW025 28/24 Q1012 NOSIG RMK A2988
RPLL,2025-11-20 14:00,RPLL 201400Z VRB02KT 9999 FEW025 BKN100 28/25 Q1012 NOSIG RMK A2988
RPLL,2025-11-20 15:00,RPLL 201500Z VRB01KT 9999 FEW025 BKN100 28/25 Q1012 NOSIG RMK A2988
RPLL,2025-11-20 16:00,RPLL 201600Z 00000KT 9999 FEW025 BKN100 28/25 Q1012 NOSIG RMK A2988
RPLL,2025-11-20 17:00,RPLL 201700Z 29003KT 260V350 9999 FEW025 BKN100 28/24 Q1012 NOSIG RMK A2988
RPLL,2025-11-20 18:00,RPLL 201800Z 32004KT 240V020 9999 FEW025 SCT100 28/24 Q1012 NOSIG RMK A2988
RPLL,2025-11-20 19:00,RPLL 201900Z 03004KT 9999 FEW025 BKN100 27/24 Q1011 NOSIG RMK A2985
RPLL,2025-11-20 20:00,RPLL 202000Z 06005KT 030V100 9999 FEW025 BKN100 27/25 Q1011 NOSIG RMK A2985
RPLL,2025-11-20 21:00,RPLL 202100Z 03004KT 350V080 9999 FEW025 27/24 Q1011 NOSIG RMK A2985
RPLL,2025-11-20 22:00,RPLL 202200Z 04006KT 9999 FEW025 27/24 Q1012 NOSIG RMK A2988
RPLL,2025-11-20 23:00,RPLL 202300Z 05005KT 360V080 9999 FEW025 SCT100 27/24 Q1012 NOSIG RMK A2988
RPLL,2025-11-21 00:00,RPLL 210000Z 05005KT 020V080 9999 FEW025 29/25 Q1013 NOSIG RMK A2991
RPLL,2025-11-21 01:00,RPLL 210100Z 06004KT 010V090 9999 FEW025 BKN100 30/24 Q1013 NOSIG RMK A2991
RPLL,2025-11-21 02:00,RPLL 210200Z VRB02KT 9999 FEW025 BKN100 31/24 Q1013 NOSIG RMK A2991
RPLL,2025-11-21 03:00,RPLL 210300Z VRB03KT 9999 SCT025 BKN090 31/25 Q1012 NOSIG RMK A2988
RPLL,2025-11-21 04:00,RPLL 210400Z 30005KT 270V330 9999 -RA SCT023 BKN090 30/24 Q1011 NOSIG RMK A2985
RPLL,2025-11-21 05:00,RPLL 210500Z VRB06KT 9999 SCT025 BKN090 31/25 Q1011 NOSIG RMK A2985
RPLL,2025-11-21 06:00,RPLL 210600Z 11004KT 050V170 9999 -RA SCT023 BKN090 32/25 Q1010 NOSIG RMK A2983
RPLL,2025-11-21 07:00,RPLL 210700Z 11005KT 070V160 9999 -RA SCT023CB BKN090 29/26 Q1010 NOSIG RMK A2983 CB SW
RPLL,2025-11-21 08:00,RPLL 210800Z 11007KT 070V140 9999 -RA SCT023CB BKN090 30/25 Q1010 NOSIG RMK A2983 CB W
RPLL,2025-11-21 09:00,RPLL 210900Z 12004KT 070V170 9999 FEW025 BKN100 30/25 Q1010 NOSIG RMK A2983
RPLL,2025-11-21 10:00,RPLL 211000Z 11004KT 070V160 9999 FEW025 BKN100 29/25 Q1011 NOSIG RMK A2985
RPLL,2025-11-21 11:00,RPLL 211100Z 11003KT 9999 FEW025 29/25 Q1012 NOSIG RMK A2988
RPLL,2025-11-21 12:00,RPLL 211200Z 08003KT 9999 FEW025 28/24 Q1012 NOSIG RMK A2988
RPLL,2025-11-21 13:00,RPLL 211300Z 08004KT 9999 FEW025 28/23 Q1012 NOSIG RMK A2988
RPLL,2025-11-21 14:00,RPLL 211400Z 11004KT 070V130 9999 FEW025 28/23 Q1013 NOSIG RMK A2991
RPLL,2025-11-21 15:00,RPLL 211500Z 13003KT 9999 FEW025 27/24 Q1013 NOSIG RMK A2991
RPLL,2025-11-21 16:00,RPLL 211600Z 10005KT 070V140 9999 FEW025 BKN100 27/24 Q1013 NOSIG RMK A2991
RPLL,2025-11-21 17:00,RPLL 211700Z 11006KT 080V150 9999 FEW025 BKN100 27/24 Q1012 NOSIG RMK A2988
RPLL,2025-11-21 18:00,RPLL 211800Z 10005KT 9999 FEW025 BKN100 27/25 Q1012 NOSIG RMK A2988
RPLL,2025-11-21 19:00,RPLL 211900Z 10006KT 060V130 9999 FEW025 BKN100 26/24 Q1012 NOSIG RMK A2988
RPLL,2025-11-21 20:00,RPLL 212000Z VRB02KT 9999 FEW025 SCT130 26/25 Q1011 NOSIG RMK A2985
RPLL,2025-11-21 21:00,RPLL 212100Z VRB02KT 9999 FEW025 SCT150 26/25 Q1012 NOSIG RMK A2988
RPLL,2025-11-21 22:00,RPLL 212200Z 06002KT 9999 FEW025 SCT130 26/25 Q1012 NOSIG RMK A2988
RPLL,2025-11-21 23:00,RPLL 212300Z 07003KT 030V110 9999 FEW023 BKN100 26/24 Q1013 NOSIG RMK A2991
RPLL,2025-11-22 00:00,RPLL 220000Z 10004KT 060V130 9999 SCT025 28/25 Q1013 NOSIG RMK A2991
RPLL,2025-11-22 01:00,RPLL 220100Z 07007KT 030V100 9999 SCT025 29/25 Q1013 NOSIG RMK A2991
RPLL,2025-11-22 02:00,RPLL 220200Z 05007KT 020V080 9999 FEW025 SCT100 31/24 Q1013 NOSIG RMK A2991
RPLL,2025-11-22 03:00,RPLL 220300Z 03005KT 300V090 9999 SCT025 BKN100 31/23 Q1012 NOSIG RMK A2988
RPLL,2025-11-22 04:00,RPLL 220400Z 09010KT 060V120 9999 FEW025 BKN100 32/23 Q1012 NOSIG RMK A2988
RPLL,2025-11-22 05:00,RPLL 220500Z 11008KT 060V150 9999 FEW025 BKN100 31/24 Q1011 NOSIG RMK A2985
RPLL,2025-11-22 06:00,RPLL 220600Z 10010KT 070V130 9999 FEW025 SCT100 32/23 Q1010 NOSIG RMK A2983
RPLL,2025-11-22 07:00,RPLL 220700Z 10008KT 060V150 9999 FEW025 BKN100 32/23 Q1010 NOSIG RMK A2983
RPLL,2025-11-22 08:00,RPLL 220800Z 10006KT 050V140 9999 FEW025 SCT100 31/23 Q1010 NOSIG RMK A2983
RPLL,2025-11-22 09:00,RPLL 220900Z 12005KT 090V150 9999 FEW025 30/23 Q1010 NOSIG RMK A2983
RPLL,2025-11-22 10:00,RPLL 221000Z 11004KT 080V150 9999 FEW025 BKN100 30/24 Q1010 NOSIG RMK A2983
RPLL,2025-11-22 11:00,RPLL 221100Z 09006KT 9999 FEW025 SCT130 29/24 Q1011 NOSIG RMK A2985
RPLL,2025-11-22 12:00,RPLL 221200Z 11004KT 060V150 9999 FEW025 BKN100 29/24 Q1012 NOSIG RMK A2988
RPLL,2025-11-22 13:00,RPLL 221300Z 10003KT 070V130 9999 FEW025 BKN100 28/24 Q1012 NOSIG RMK A2988
RPLL,2025-11-22 14:00,RPLL 221400Z VRB02KT 9999 FEW025 BKN100 28/24 Q1012 NOSIG RMK A2988
RPLL,2025-11-22 15:00,RPLL 221500Z VRB02KT 9999 FEW025 SCT100 28/24 Q1012 NOSIG RMK A2988
RPLL,2025-11-22 16:00,RPLL 221600Z 04005KT 010V080 9999 FEW025 BKN090 28/23 Q1012 NOSIG RMK A2988
RPLL,2025-11-22 17:00,RPLL 221700Z VRB02KT 9999 FEW025 BKN100 28/23 Q1011 NOSIG RMK A2985
RPLL,2025-11-22 18:00,RPLL 221800Z VRB02KT 9999 FEW025 BKN100 27/24 Q1011 NOSIG RMK A2985
RPLL,2025-11-22 19:00,RPLL 221900Z 01003KT 320V040 9999 FEW025 BKN100 27/24 Q1011 NOSIG RMK A2985
RPLL,2025-11-22 20:00,RPLL 222000Z 02005KT 350V050 9999 FEW025 BKN100 27/24 Q1010 NOSIG RMK A2983
RPLL,2025-11-22 21:00,RPLL 222100Z 02005KT 340V050 9999 FEW025 BKN100 27/23 Q1011 NOSIG RMK A2985
RPLL,2025-11-22 22:00,RPLL 222200Z 02004KT 350V060 9999 SCT025 BKN100 27/24 Q1011 NOSIG RMK A2985
RPLL,2025-11-22 23:00,RPLL 222300Z 10003KT 070V130 9999 FEW025 BKN100 27/24 Q1012 NOSIG RMK A2988
RPLL,2025-11-23 00:00,RPLL 230000Z 02005KT 340V050 9999 FEW025 29/24 Q1012 NOSIG RMK A2988
RPLL,2025-11-23 01:00,RPLL 230100Z 07004KT 050V110 9999 FEW025 BKN100 29/24 Q1013 NOSIG RMK A2991
RPLL,2025-11-23 02:00,RPLL 230200Z VRB03KT 9999 FEW025 BKN100 30/24 Q1012 NOSIG RMK A2988
RPLL,2025-11-23 03:00,RPLL 230300Z 13003KT 080V210 9999 FEW025 BKN100 30/24 Q1011 NOSIG RMK A2985
RPLL,2025-11-23 04:00,RPLL 230400Z 17004KT 130V220 9999 FEW025 BKN100 30/24 Q1011 NOSIG RMK A2985
RPLL,2025-11-23 05:00,RPLL 230500Z 12005KT 080V160 9000 -SHRA FEW025 BKN100 30/24 Q1010 NOSIG RMK A2983
RPLL,2025-11-23 06:00,RPLL 230600Z 18003KT 110V270 9999 FEW025 BKN100 30/24 Q1009 NOSIG RMK A2980
RPLL,2025-11-23 07:00,RPLL 230700Z 28005KT 250V330 9999 FEW025 BKN100 31/25 Q1009 NOSIG RMK A2980
RPLL,2025-11-23 07:44,RPLL 230744Z 33006KT 300V020 9000 -SHRA SCT025 BKN100 28/25 Q1009 NOSIG RMK A2980
RPLL,2025-11-23 08:00,RPLL 230800Z VRB02KT 9000 -SHRA SCT025 OVC100 27/25 Q1009 NOSIG RMK A2980
RPLL,2025-11-23 09:00,RPLL 230900Z VRB02KT 8000 -RA SCT023 OVC100 27/26 Q1009 NOSIG RMK A2980
RPLL,2025-11-23 10:00,RPLL 231000Z 28003KT 9999 -RA FEW023 OVC100 27/26 Q1010 NOSIG RMK A2983
RPLL,2025-11-23 11:00,RPLL 231100Z 18003KT 150V230 9999 FEW025 BKN100 27/26 Q1010 NOSIG RMK A2983
RPLL,2025-11-23 12:00,RPLL 231200Z VRB02KT 9999 FEW025 SCT100 27/26 Q1011 NOSIG RMK A2985
RPLL,2025-11-23 13:00,RPLL 231300Z VRB01KT 9999 -RA FEW025 BKN090 27/26 Q1011 NOSIG RMK A2985
RPLL,2025-11-23 14:00,RPLL 231400Z 18003KT 130V240 9999 FEW025 BKN100 27/26 Q1011 NOSIG RMK A2985
RPLL,2025-11-23 14:25,RPLL 231425Z VRB02KT 9000 -RA SCT023 OVC100 27/26 Q1011 NOSIG RMK A2985
RPLL,2025-11-23 15:00,RPLL 231500Z VRB03KT 7000 -RA SCT023 OVC090 26/26 Q1011 NOSIG RMK A2985
RPLL,2025-11-23 16:00,RPLL 231600Z VRB03G13KT 9999 FEW025 SCT100 26/25 Q1010 NOSIG RMK A2983
RPLL,2025-11-23 17:00,RPLL 231700Z VRB01KT 9999 FEW025 SCT130 26/26 Q1010 NOSIG RMK A2983
RPLL,2025-11-23 18:00,RPLL 231800Z VRB02KT 9999 FEW025 BKN100 26/26 Q1009 NOSIG RMK A2980
RPLL,2025-11-23 19:00,RPLL 231900Z 27003KT 9999 FEW025 BKN100 26/26 Q1009 NOSIG RMK A2980
RPLL,2025-11-23 20:00,RPLL 232000Z 04003KT 9999 FEW025 BKN100 26/25 Q1009 NOSIG RMK A2980
RPLL,2025-11-23 21:00,RPLL 232100Z VRB01KT 9999 FEW025 BKN100 27/25 Q1009 NOSIG RMK A2980
RPLL,2025-11-23 22:00,RPLL 232200Z 01004KT 330V090 9999 FEW025 BKN100 27/24 Q1009 NOSIG RMK A2980
RPLL,2025-11-23 23:00,RPLL 232300Z 09003KT 9999 FEW025 BKN100 27/25 Q1009 NOSIG RMK A2980
RPLL,2025-11-24 00:00,RPLL 240000Z 03007KT 9999 FEW025 OVC100 28/24 Q1010 NOSIG RMK A2983
RPLL,2025-11-24 01:00,RPLL 240100Z 08005KT 9999 FEW025 BKN100 28/24 Q1011 NOSIG RMK A2985
RPLL,2025-11-24 02:00,RPLL 240200Z VRB02KT 9999 FEW025 BKN100 30/24 Q1010 NOSIG RMK A2983
RPLL,2025-11-24 03:00,RPLL 240300Z 04005KT 350V090 9999 FEW025 BKN100 30/25 Q1010 NOSIG RMK A2983
RPLL,2025-11-24 04:00,RPLL 240400Z 01010KT 340V040 9999 FEW025 SCT100 31/24 Q1009 NOSIG RMK A2980
RPLL,2025-11-24 05:00,RPLL 240500Z 05009KT 010V070 9999 FEW025 BKN100 31/25 Q1008 NOSIG RMK A2977
RPLL,2025-11-24 06:00,COR RPLL 240600Z 03013KT 360V060 9999 FEW025 BKN100 31/23 Q1007 NOSIG RMK A2974
RPLL,2025-11-24 07:00,RPLL 240700Z 05014KT 9999 FEW025 BKN100 31/24 Q1007 NOSIG RMK A2974
RPLL,2025-11-24 08:00,RPLL 240800Z 04007KT 360V110 9999 FEW025 BKN100 31/24 Q1007 NOSIG RMK A2974
RPLL,2025-11-24 09:00,RPLL 240900Z 08006KT 9999 FEW025 BKN100 29/24 Q1008 NOSIG RMK A2977
RPLL,2025-11-24 10:00,RPLL 241000Z 07004KT 010V120 9999 FEW025 BKN100 29/24 Q1008 NOSIG RMK A2977
RPLL,2025-11-24 11:00,RPLL 241100Z VRB02KT 9999 FEW025 BKN100 28/24 Q1008 NOSIG RMK A2977
RPLL,2025-11-24 12:00,RPLL 241200Z 01005KT 340V060 9999 FEW025 BKN100 28/23 Q1009 NOSIG RMK A2980
RPLL,2025-11-24 13:00,RPLL 241300Z 02005KT 340V050 9999 FEW025 BKN100 28/23 Q1009 NOSIG RMK A2980
RPLL,2025-11-24 14:00,RPLL 241400Z 02007KT 350V070 9999 -RA FEW023 OVC090 28/24 Q1010 TEMPO 6000 RMK A2983
RPLL,2025-11-24 15:00,RPLL 241500Z 32004KT 270V360 9000 -RA SCT023 OVC090 27/24 Q1009 NOSIG RMK A2980
RPLL,2025-11-24 16:00,RPLL 241600Z 34003KT 260V070 8000 -RA SCT023 OVC090 26/25 Q1009 NOSIG RMK A2980
RPLL,2025-11-24 17:00,RPLL 241700Z VRB02KT 9000 -RA SCT023 OVC090 26/25 Q1009 NOSIG RMK A2980
RPLL,2025-11-24 18:00,RPLL 241800Z VRB02KT 8000 -RA SCT023 OVC080 25/25 Q1008 NOSIG RMK A2977
RPLL,2025-11-24 19:00,RPLL 241900Z 25002KT 9000 -RA SCT023 OVC090 25/25 Q1007 NOSIG RMK A2974
RPLL,2025-11-24 20:00,RPLL 242000Z 33006KT 300V010 9000 -RA FEW023 OVC090 25/25 Q1006 NOSIG RMK A2971
RPLL,2025-11-24 21:00,RPLL 242100Z 01009KT 9999 FEW025 BKN100 25/24 Q1006 NOSIG RMK A2971
RPLL,2025-11-24 22:00,RPLL 242200Z 01007KT 350V050 9999 SCT025 BKN100 26/24 Q1006 NOSIG RMK A2971
RPLL,2025-11-24 23:00,RPLL 242300Z 03004KT 340V070 9999 SCT025 BKN100 27/24 Q1007 NOSIG RMK A2974
RPLL,2025-11-25 00:00,RPLL 250000Z 18004KT 9999 SCT025 BKN100 26/25 Q1007 NOSIG RMK A2974
RPLL,2025-11-25 00:32,RPLL 250032Z VRB02KT 9999 -RA SCT023 OVC100 26/25 Q1008 NOSIG RMK A2977
RPLL,2025-11-25 01:00,RPLL 250100Z 30003KT 250V340 9999 -RA SCT023 OVC100 26/25 Q1008 NOSIG RMK A2977
RPLL,2025-11-25 02:00,RPLL 250200Z 36006KT 320V040 9000 -RA SCT023 OVC100 26/25 Q1008 NOSIG RMK A2977
RPLL,2025-11-25 03:00,RPLL 250300Z 01008KT 350V050 9999 FEW025 BKN100 28/25 Q1007 NOSIG RMK A2974
RPLL,2025-11-25 04:00,RPLL 250400Z 01006KT 340V050 9999 FEW025 BKN100 28/25 Q1006 NOSIG RMK A2971
RPLL,2025-11-25 05:00,RPLL 250500Z 02005KT 340V070 9999 FEW025 BKN100 29/25 Q1005 NOSIG RMK A2968
RPLL,2025-11-25 05:34,RPLL 250534Z 02008KT 350V050 9999 -RA SCT023 OVC100 28/25 Q1005 NOSIG RMK A2968
RPLL,2025-11-25 06:00,RPLL 250600Z 03004KT 360V090 9999 -RA SCT023 OVC100 28/25 Q1004 NOSIG RMK A2965
RPLL,2025-11-25 07:00,RPLL 250700Z VRB02KT 9999 SCT023 BKN090 29/25 Q1004 NOSIG RMK A2965
RPLL,2025-11-25 08:00,RPLL 250800Z 06007KT 030V090 9999 SCT023 BKN100 29/25 Q1004 NOSIG RMK A2965
RPLL,2025-11-25 09:00,RPLL 250900Z 01005KT 9999 SCT023 BKN100 29/25 Q1004 NOSIG RMK A2965
RPLL,2025-11-25 10:00,RPLL 251000Z 05009KT 020V080 8000 -RA SCT023 OVC090 27/25 Q1005 NOSIG RMK A2968
RPLL,2025-11-25 11:00,RPLL 251100Z 34004KT 280V060 9999 FEW025 BKN100 28/25 Q1006 NOSIG RMK A2971
RPLL,2025-11-25 12:00,RPLL 251200Z 33004KT 300V070 9999 -RA FEW025 BKN090 27/25 Q1006 NOSIG RMK A2971
RPLL,2025-11-25 13:00,RPLL 251300Z 01006KT 340V040 8000 -RA SCT023 OVC090 27/25 Q1006 NOSIG RMK A2971
RPLL,2025-11-25 14:00,RPLL 251400Z 36006KT 330V040 9999 SCT023 OVC090 27/25 Q1006 NOSIG RMK A2971
RPLL,2025-11-25 15:00,RPLL 251500Z 33004KT 250V040 9999 FEW025 BKN100 27/25 Q1006 NOSIG RMK A2971
RPLL,2025-11-25 16:00,RPLL 251600Z VRB02KT 9999 SCT023 BKN100 27/25 Q1006 NOSIG RMK A2971
RPLL,2025-11-25 17:00,RPLL 251700Z VRB01KT 9999 FEW025 BKN100 26/25 Q1005 NOSIG RMK A2968
RPLL,2025-11-25 18:00,RPLL 251800Z 00000KT 9999 FEW025 BKN100 27/26 Q1005 NOSIG RMK A2968
RPLL,2025-11-25 19:00,RPLL 251900Z VRB02KT 9999 FEW025 BKN100 27/25 Q1004 NOSIG RMK A2965
RPLL,2025-11-25 20:00,RPLL 252000Z 09005KT 060V130 9999 FEW025 BKN100 27/26 Q1005 NOSIG RMK A2968
RPLL,2025-11-25 21:00,RPLL 252100Z 09005KT 060V130 9999 -RA FEW025 OVC090 28/25 Q1005 NOSIG RMK A2968
RPLL,2025-11-25 22:00,RPLL 252200Z 09006KT 9999 -RA SCT025 BKN090 28/25 Q1006 NOSIG RMK A2971
RPLL,2025-11-25 23:00,RPLL 252300Z 11005KT 080V140 9999 -RA SCT025 OVC100 28/26 Q1007 NOSIG RMK A2974
RPLL,2025-11-26 00:00,RPLL 260000Z 09007KT 9999 SCT025 OVC100 29/26 Q1007 NOSIG RMK A2974
RPLL,2025-11-26 01:00,RPLL 260100Z 09010KT 9999 FEW025 BKN100 29/26 Q1007 NOSIG RMK A2974
RPLL,2025-11-26 02:00,RPLL 260200Z 09011KT 070V130 9999 FEW025 SCT100 31/26 Q1008 NOSIG RMK A2977
RPLL,2025-11-26 03:00,RPLL 260300Z 10010KT 070V140 9999 FEW025 BKN100 31/26 Q1007 NOSIG RMK A2974
RPLL,2025-11-26 04:00,COR RPLL 260400Z 11010KT 060V150 9999 FEW025 SCT100 32/25 Q1007 NOSIG RMK A2974
RPLL,2025-11-26 05:00,RPLL 260500Z 10012KT 060V130 9999 FEW025 32/25 Q1006 NOSIG RMK A2971
RPLL,2025-11-26 06:00,RPLL 260600Z 11011KT 080V140 9999 FEW025 32/25 Q1006 NOSIG RMK A2971
RPLL,2025-11-26 07:00,RPLL 260700Z 11009KT 080V150 9999 FEW025 31/25 Q1006 NOSIG RMK A2971
RPLL,2025-11-26 08:00,RPLL 260800Z 11009KT 070V140 9999 FEW025 31/25 Q1006 NOSIG RMK A2971
RPLL,2025-11-26 09:00,RPLL 260900Z 10006KT 070V140 9999 FEW025 30/25 Q1007 NOSIG RMK A2974
RPLL,2025-11-26 10:00,RPLL 261000Z 11004KT 080V150 9999 FEW025 SCT100 30/25 Q1007 NOSIG RMK A2974
RPLL,2025-11-26 11:00,RPLL 261100Z 10004KT 060V150 9999 FEW025 BKN100 30/26 Q1008 NOSIG RMK A2977
RPLL,2025-11-26 12:00,RPLL 261200Z 10005KT 070V140 9999 FEW025 SCT100 29/26 Q1009 NOSIG RMK A2980
RPLL,2025-11-26 13:00,RPLL 261300Z 10007KT 070V140 9999 SCT025 BKN100 29/25 Q1009 NOSIG RMK A2980
RPLL,2025-11-26 14:00,RPLL 261400Z 08006KT 050V120 9999 SCT025 BKN100 28/26 Q1009 NOSIG RMK A2980
RPLL,2025-11-26 15:00,RPLL 261500Z VRB02KT 9999 SCT025 BKN100 28/26 Q1009 NOSIG RMK A2980
RPLL,2025-11-26 16:00,RPLL 261600Z 13003KT 9999 SCT025 BKN100 28/26 Q1009 NOSIG RMK A2980
RPLL,2025-11-26 17:00,RPLL 261700Z VRB01KT 9999 SCT025 BKN100 28/26 Q1009 NOSIG RMK A2980
RPLL,2025-11-26 18:00,RPLL 261800Z VRB02KT 9999 FEW025 28/26 Q1008 NOSIG RMK A2977
RPLL,2025-11-26 19:00,RPLL 261900Z 19003KT 9999 FEW025 27/26 Q1008 NOSIG RMK A2977
RPLL,2025-11-26 20:00,RPLL 262000Z 00000KT 9999 FEW025 27/25 Q1008 NOSIG RMK A2977
RPLL,2025-11-26 21:00,RPLL 262100Z 00000KT 9999 FEW025 27/25 Q1008 NOSIG RMK A2977
RPLL,2025-11-26 22:00,RPLL 262200Z VRB02KT 9999 FEW025 SCT100 27/25 Q1009 NOSIG RMK A2980
RPLL,2025-11-26 23:00,RPLL 262300Z VRB02KT 9999 FEW025 27/26 Q1009 NOSIG RMK A2980
RPLL,2025-11-27 00:00,RPLL 270000Z VRB02KT 9999 FEW025 SCT100 28/26 Q1009 NOSIG RMK A2980
RPLL,2025-11-27 01:00,RPLL 270100Z 11005KT 070V170 9999 FEW025 31/26 Q1010 NOSIG RMK A2983
RPLL,2025-11-27 02:00,RPLL 270200Z 11006KT 060V160 9999 FEW025 SCT100 31/26 Q1009 NOSIG RMK A2980
RPLL,2025-11-27 03:00,RPLL 270300Z 09007KT 040V170 9999 SCT025 32/25 Q1009 NOSIG RMK A2980
RPLL,2025-11-27 04:00,RPLL 270400Z VRB02KT 9000 SCT025 31/27 Q1008 NOSIG RMK A2977
RPLL,2025-11-27 05:00,RPLL 270500Z 32006KT 9000 BKN100 31/26 Q1007 NOSIG RMK A2974
RPLL,2025-11-27 06:00,RPLL 270600Z 27007KT 180V320 9000 SCT025 31/26 Q1006 NOSIG RMK A2971
RPLL,2025-11-27 07:00,RPLL 270700Z 29007KT 260V330 9000 FEW023CB SCT025 BKN100 31/26 Q1006 NOSIG RMK A2971 CB SE
RPLL,2025-11-27 08:00,RPLL 270800Z 29005KT 250V350 9000 SCT025 BKN100 30/26 Q1006 NOSIG RMK A2971
RPLL,2025-11-27 09:00,RPLL 270900Z 26004KT 9000 FEW025 SCT100 30/27 Q1007 NOSIG RMK A2974
RPLL,2025-11-27 10:00,RPLL 271000Z VRB02KT 9999 FEW025 SCT100 30/26 Q1007 NOSIG RMK A2974
RPLL,2025-11-27 11:00,RPLL 271100Z 18003KT 140V260 9999 FEW025 BKN100 30/26 Q1008 NOSIG RMK A2977
RPLL,2025-11-27 12:00,RPLL 271200Z VRB02KT 9999 FEW025 BKN100 29/26 Q1009 NOSIG RMK A2980
RPLL,2025-11-27 13:00,RPLL 271300Z 16003KT 120V200 9999 SCT025 BKN100 29/26 Q1009 NOSIG RMK A2980
RPLL,2025-11-27 14:00,RPLL 271400Z 20003KT 130V250 9999 SCT025 BKN100 29/26 Q1009 NOSIG RMK A2980
RPLL,2025-11-27 15:00,RPLL 271500Z 13004KT 100V170 9999 FEW025 28/26 Q1009 NOSIG RMK A2980
RPLL,2025-11-27 16:00,COR RPLL 271600Z 00000KT 9999 FEW025 SCT100 28/27 Q1009 NOSIG RMK A2980
RPLL,2025-11-27 17:00,RPLL 271700Z VRB01KT 9999 FEW025 28/27 Q1008 NOSIG RMK A2977
RPLL,2025-11-27 18:00,RPLL 271800Z 25002KT 9999 SCT025 27/26 Q1008 NOSIG RMK A2977
RPLL,2025-11-27 19:00,RPLL 271900Z VRB02KT 9999 SCT023 BKN090 27/26 Q1008 NOSIG RMK A2977
RPLL,2025-11-27 20:00,RPLL 272000Z VRB02KT 9999 SCT023 27/26 Q1008 NOSIG RMK A2977
RPLL,2025-11-27 21:00,RPLL 272100Z VRB02KT 9999 FEW025 27/26 Q1007 NOSIG RMK A2974
RPLL,2025-11-27 22:00,RPLL 272200Z VRB01KT 9999 SCT023 27/26 Q1007 NOSIG RMK A2974
RPLL,2025-11-27 23:00,RPLL 272300Z 26003KT 8000 SCT025 BKN100 28/27 Q1009 NOSIG RMK A2980
RPLL,2025-11-28 00:00,RPLL 280000Z 19005KT 170V230 8000 SCT025 OVC100 28/27 Q1010 NOSIG RMK A2983
RPLL,2025-11-28 01:00,RPLL 280100Z VRB02KT 8000 SCT025 OVC100 29/26 Q1010 NOSIG RMK A2983
RPLL,2025-11-28 02:00,RPLL 280200Z VRB04KT 9000 SCT025 BKN100 30/26 Q1010 NOSIG RMK A2983
RPLL,2025-11-28 03:00,RPLL 280300Z 12006KT 090V170 9000 SCT025 BKN100 30/26 Q1010 NOSIG RMK A2983
RPLL,2025-11-28 04:00,RPLL 280400Z 11006KT 060V140 9999 FEW025 BKN100 32/24 Q1009 NOSIG RMK A2980
RPLL,2025-11-28 05:00,RPLL 280500Z 11006KT 050V190 9999 FEW025 SCT100 32/25 Q1007 NOSIG RMK A2974
RPLL,2025-11-28 06:00,RPLL 280600Z 12006KT 070V180 9999 FEW025 SCT100 32/26 Q1007 NOSIG RMK A2974
RPLL,2025-11-28 07:00,RPLL 280700Z 15006KT 100V190 9999 FEW025 SCT100 32/25 Q1007 NOSIG RMK A2974
RPLL,2025-11-28 08:00,RPLL 280800Z 14006KT 090V190 9999 FEW023CB SCT025 BKN100 31/26 Q1007 NOSIG RMK A2974 CB NE
RPLL,2025-11-28 09:00,RPLL 280900Z 14005KT 090V200 9999 SCT025 BKN100 30/26 Q1008 NOSIG RMK A2977
RPLL,2025-11-28 10:00,RPLL 281000Z 13005KT 100V160 9999 SCT025 BKN100 30/25 Q1009 NOSIG RMK A2980
RPLL,2025-11-28 11:00,RPLL 281100Z 14004KT 110V170 9999 FEW025 BKN100 29/25 Q1009 NOSIG RMK A2980
RPLL,2025-11-28 12:00,RPLL 281200Z 13005KT 080V160 9999 FEW025 BKN100 29/25 Q1010 NOSIG RMK A2983
RPLL,2025-11-28 13:00,RPLL 281300Z 14003KT 070V200 9999 FEW025 BKN100 28/25 Q1010 NOSIG RMK A2983
RPLL,2025-11-28 14:00,RPLL 281400Z VRB02KT 9999 FEW025 BKN100 28/25 Q1011 NOSIG RMK A2985
RPLL,2025-11-28 15:00,RPLL 281500Z 17003KT 120V200 9999 FEW025 SCT100 28/25 Q1010 NOSIG RMK A2983
RPLL,2025-11-28 16:00,COR RPLL 281600Z VRB02KT 9999 FEW025 SCT100 27/25 Q1010 NOSIG RMK A2983
RPLL,2025-11-28 17:00,RPLL 281700Z 19003KT 150V230 9999 FEW025 SCT100 27/25 Q1010 NOSIG RMK A2983
RPLL,2025-11-28 18:00,RPLL 281800Z 19003KT 150V230 9999 FEW025 SCT100 27/25 Q1010 NOSIG RMK A2983
RPLL,2025-11-28 19:00,RPLL 281900Z VRB02KT 9999 FEW025 BKN100 27/25 Q1010 NOSIG RMK A2983
RPLL,2025-11-28 20:00,RPLL 282000Z VRB02KT 9999 FEW025 SCT100 27/25 Q1010 NOSIG RMK A2983
RPLL,2025-11-28 21:00,RPLL 282100Z COR VRB02KT 9999 FEW025 27/25 Q1009 NOSIG RMK A2980
RPLL,2025-11-28 22:00,RPLL 282200Z VRB02KT 9999 FEW025 27/26 Q1010 NOSIG RMK A2983
RPLL,2025-11-28 23:00,RPLL 282300Z VRB02KT 9999 FEW025 27/25 Q1010 NOSIG RMK A2983
RPLL,2025-11-29 00:00,RPLL 290000Z 11005KT 080V140 9999 FEW025 29/25 Q1011 NOSIG RMK A2985
RPLL,2025-11-29 01:00,RPLL 290100Z 14006KT 070V230 9999 FEW025 30/25 Q1011 NOSIG RMK A2985
RPLL,2025-11-29 02:00,RPLL 290200Z 12008KT 080V160 9999 FEW025 31/24 Q1011 NOSIG RMK A2985
RPLL,2025-11-29 03:00,RPLL 290300Z 14007KT 090V190 9999 FEW025 32/24 Q1011 NOSIG RMK A2985
RPLL,2025-11-29 04:00,RPLL 290400Z 13008KT 090V180 9999 FEW025 SCT100 32/25 Q1010 NOSIG RMK A2983
RPLL,2025-11-29 05:00,RPLL 290500Z 14005KT 090V200 9999 FEW023CB SCT025 BKN100 33/24 Q1009 NOSIG RMK A2980 CB NE
RPLL,2025-11-29 06:00,RPLL 290600Z 14006KT 070V200 9999 FEW023CB SCT025 BKN100 33/24 Q1008 NOSIG RMK A2977 CB N-NE
RPLL,2025-11-29 07:00,RPLL 290700Z VRB04KT 9999 FEW023CB SCT025 BKN100 31/25 Q1008 NOSIG RMK A2977 CB N/W
RPLL,2025-11-29 08:00,COR RPLL 290800Z 08006KT 050V110 9999 FEW023CB SCT025 BKN100 30/24 Q1009 NOSIG RMK A2980 CB NE/W
RPLL,2025-11-29 09:00,RPLL 290900Z 24007KT 9999 SCT025 BKN100 28/25 Q1010 NOSIG RMK A2983
RPLL,2025-11-29 10:00,RPLL 291000Z 23007KT 9999 SCT025 BKN100 27/25 Q1011 NOSIG RMK A2985
RPLL,2025-11-29 11:00,RPLL 291100Z VRB01KT 9999 -RA FEW025 BKN100 27/24 Q1011 NOSIG RMK A2985
RPLL,2025-11-29 12:00,RPLL 291200Z VRB02KT 9999 FEW025 BKN100 27/24 Q1012 NOSIG RMK A2988
RPLL,2025-11-29 13:00,RPLL 291300Z VRB02KT 9999 FEW025 BKN100 27/24 Q1012 NOSIG RMK A2988
RPLL,2025-11-29 14:00,RPLL 291400Z VRB03KT 9999 FEW025 BKN100 28/25 Q1012 NOSIG RMK A2988
RPLL,2025-11-29 15:00,COR RPLL 291500Z 12003KT 9000 SCT023 BKN090 27/26 Q1012 NOSIG RMK A2988
RPLL,2025-11-29 16:00,RPLL 291600Z 00000KT 9999 FEW025 SCT100 27/26 Q1012 NOSIG RMK A2988
RPLL,2025-11-29 17:00,RPLL 291700Z VRB02KT 9999 FEW025 SCT100 27/26 Q1011 NOSIG RMK A2985
RPLL,2025-11-29 18:00,RPLL 291800Z VRB01KT 9999 SCT023 BKN090 27/25 Q1010 NOSIG RMK A2983
RPLL,2025-11-29 19:00,RPLL 291900Z 02004KT 350V050 9999 FEW025 BKN090 27/25 Q1010 NOSIG RMK A2983
RPLL,2025-11-29 20:00,RPLL 292000Z 04003KT 350V090 9999 FEW025 BKN090 27/25 Q1010 NOSIG RMK A2983
RPLL,2025-11-29 21:00,RPLL 292100Z 01004KT 340V040 9999 FEW025 SCT100 27/24 Q1010 NOSIG RMK A2983
RPLL,2025-11-29 22:00,RPLL 292200Z 02003KT 340V050 9999 FEW025 SCT100 27/24 Q1011 NOSIG RMK A2985
RPLL,2025-11-29 23:00,RPLL 292300Z 01003KT 280V060 9999 FEW025 SCT100 27/24 Q1012 NOSIG RMK A2988
RPLL,2025-11-30 00:00,RPLL 300000Z VRB01KT 9999 FEW025 SCT100 28/24 Q1012 NOSIG RMK A2988
RPLL,2025-11-30 01:00,RPLL 300100Z VRB02KT 9000 FEW025 30/25 Q1012 NOSIG RMK A2988
RPLL,2025-11-30 02:00,RPLL 300200Z VRB02KT 9000 FEW025 SCT100 30/25 Q1012 NOSIG RMK A2988
RPLL,2025-11-30 03:00,RPLL 300300Z 13004KT 040V210 9000 FEW025 31/24 Q1012 NOSIG RMK A2988
RPLL,2025-11-30 04:00,RPLL 300400Z VRB05KT 9000 FEW025 33/25 Q1011 NOSIG RMK A2985
RPLL,2025-11-30 05:00,RPLL 300500Z 28006KT 240V010 9999 FEW025 31/26 Q1009 NOSIG RMK A2980
RPLL,2025-11-30 06:00,RPLL 300600Z 27006KT 240V300 9999 FEW025 31/25 Q1009 NOSIG RMK A2980
RPLL,2025-11-30 07:00,RPLL 300700Z 12006KT 360V160 9999 FEW023CB 34/24 Q1008 NOSIG RMK A2977 CB NE
RPLL,2025-11-30 08:00,RPLL 300800Z 07003KT 9999 FEW023CB SCT100 30/24 Q1009 NOSIG RMK A2980 CB NE/E
RPLL,2025-11-30 09:00,RPLL 300900Z 07008KT 9999 FEW025 BKN100 28/23 Q1010 NOSIG RMK A2983
RPLL,2025-11-30 10:00,RPLL 301000Z VRB02KT 9999 FEW025 BKN100 29/23 Q1010 NOSIG RMK A2983
RPLL,2025-11-30 11:00,RPLL 301100Z 22003KT 9999 FEW025 BKN100 29/23 Q1011 NOSIG RMK A2985
RPLL,2025-11-30 12:00,COR RPLL 301200Z VRB02KT 9999 FEW025 BKN100 29/23 Q1012 NOSIG RMK A2988
RPLL,2025-11-30 13:00,RPLL 301300Z VRB02KT 9999 FEW025 BKN100 29/23 Q1013 NOSIG RMK A2991
RPLL,2025-11-30 14:00,RPLL 301400Z 29005KT 260V330 9999 FEW025 SCT100 28/25 Q1013 NOSIG RMK A2991
RPLL,2025-11-30 15:00,RPLL 301500Z 01006KT 330V040 9999 FEW025 SCT100 28/24 Q1012 NOSIG RMK A2988
RPLL,2025-11-30 16:00,RPLL 301600Z 02003KT 330V100 9999 FEW025 BKN100 28/24 Q1012 NOSIG RMK A2988
RPLL,2025-11-30 17:00,RPLL 301700Z 33004KT 9999 FEW025 SCT100 27/25 Q1012 NOSIG RMK A2988
RPLL,2025-11-30 18:00,RPLL 301800Z 01004KT 9999 FEW025 SCT100 27/25 Q1011 NOSIG RMK A2985
RPLL,2025-11-30 19:00,RPLL 301900Z 01005KT 9999 FEW025 27/25 Q1011 NOSIG RMK A2985
RPLL,2025-11-30 20:00,RPLL 302000Z VRB01KT 9999 FEW025 27/25 Q1011 NOSIG RMK A2985
RPLL,2025-11-30 21:00,RPLL 302100Z VRB01KT 9999 FEW025 26/25 Q1011 NOSIG RMK A2985
RPLL,2025-11-30 22:00,RPLL 302200Z VRB02KT 9999 FEW025 26/25 Q1011 NOSIG RMK A2985
RPLL,2025-11-30 23:00,RPLL 302300Z VRB02KT 9999 FEW025 26/25 Q1011 NOSIG RMK A2985
RPLL,2025-12-01 00:00,RPLL 010000Z 04003KT 350V120 9999 FEW025 SCT100 28/24 Q1013 NOSIG RMK A2991
RPLL,2025-12-01 01:00,RPLL 010100Z 33003KT 260V040 9999 FEW025 SCT100 29/24 Q1013 NOSIG RMK A2991
RPLL,2025-12-01 02:00,RPLL 010200Z 27005KT 230V300 9000 FEW025 BKN100 30/25 Q1013 NOSIG RMK A2991
RPLL,2025-12-01 03:00,COR RPLL 010300Z 27005KT 9000 FEW025 BKN100 30/26 Q1012 NOSIG RMK A2988
RPLL,2025-12-01 04:00,RPLL 010400Z 26006KT 240V300 9000 FEW025 BKN100 31/25 Q1011 NOSIG RMK A2985
RPLL,2025-12-01 05:00,RPLL 010500Z 28007KT 210V320 9000 FEW025 SCT100 31/27 Q1010 NOSIG RMK A2983
RPLL,2025-12-01 06:00,RPLL 010600Z 27007KT 240V320 9000 FEW025 31/26 Q1009 NOSIG RMK A2980
RPLL,2025-12-01 07:00,RPLL 010700Z 27008KT 8000 SCT025 31/26 Q1008 NOSIG RMK A2977
RPLL,2025-12-01 08:00,COR RPLL 010800Z 07012KT 7000 -TSRA FEW023CB SCT025 OVC090 26/25 Q1009 TEMPO 5000 TSRA RMK A2980 CB N/OHD
RPLL,2025-12-01 08:22,RPLL 010822Z 08004KT 050V140 2000 +TSRA FEW019CB SCT021 OVC070 26/26 Q1009 TEMPO 7000 -TSRA RMK A2980 CB OHD/N/S
RPLL,2025-12-01 09:00,RPLL 010900Z VRB03KT 8000 -RA FEW023 OVC090 28/26 Q1009 RETSRA NOSIG RMK A2980
RPLL,2025-12-01 10:00,RPLL 011000Z 18004KT 140V220 9000 SCT025 BKN100 27/26 Q1010 NOSIG RMK A2983
RPLL,2025-12-01 11:00,RPLL 011100Z VRB02KT 9000 FEW025 BKN100 27/26 Q1010 NOSIG RMK A2983
RPLL,2025-12-01 12:00,RPLL 011200Z VRB01KT 9000 FEW025 BKN100 28/25 Q1011 NOSIG RMK A2985
RPLL,2025-12-01 13:00,RPLL 011300Z VRB02KT 9000 FEW025 BKN100 28/26 Q1011 NOSIG RMK A2985
RPLL,2025-12-01 14:00,RPLL 011400Z VRB02KT 9999 FEW025 SCT100 28/26 Q1011 NOSIG RMK A2985
RPLL,2025-12-01 15:00,RPLL 011500Z 00000KT 9000 FEW025 SCT100 28/26 Q1011 NOSIG RMK A2985
RPLL,2025-12-01 16:00,RPLL 011600Z VRB02KT 9000 FEW025 28/26 Q1011 NOSIG RMK A2985
RPLL,2025-12-01 17:00,RPLL 011700Z VRB02KT 9000 FEW025 28/25 Q1010 NOSIG RMK A2983
RPLL,2025-12-01 18:00,RPLL 011800Z 01004KT 320V040 9999 FEW025 28/25 Q1009 NOSIG RMK A2980
RPLL,2025-12-01 19:00,RPLL 011900Z 33003KT 310V050 9999 FEW025 28/25 Q1009 NOSIG RMK A2980
RPLL,2025-12-01 20:00,RPLL 012000Z VRB02KT 9999 FEW025 27/25 Q1009 NOSIG RMK A2980
RPLL,2025-12-01 21:00,RPLL 012100Z 03004KT 360V060 9999 FEW025 SCT100 27/25 Q1009 NOSIG RMK A2980
RPLL,2025-12-01 22:00,RPLL 012200Z 33004KT 310V020 9999 SCT025 BKN090 27/25 Q1010 NOSIG RMK A2983
RPLL,2025-12-01 23:00,RPLL 012300Z VRB02KT 9999 FEW025 28/25 Q1011 NOSIG RMK A2985
RPLL,2025-12-02 00:00,RPLL 020000Z 35005KT 270V040 9999 FEW025 28/25 Q1011 NOSIG RMK A2985
RPLL,2025-12-02 01:00,RPLL 020100Z VRB02KT 9999 FEW025 29/25 Q1012 NOSIG RMK A2988
RPLL,2025-12-02 02:00,RPLL 020200Z 28006KT 240V330 9000 FEW025 SCT100 30/26 Q1012 NOSIG RMK A2988
RPLL,2025-12-02 03:00,RPLL 020300Z 29006KT 9000 FEW025 30/26 Q1011 NOSIG RMK A2985
RPLL,2025-12-02 04:00,RPLL 020400Z 28006KT 250V310 9000 FEW025 31/26 Q1010 NOSIG RMK A2983
RPLL,2025-12-02 05:00,RPLL 020500Z 27008KT 9000 FEW025 31/25 Q1009 NOSIG RMK A2980
RPLL,2025-12-02 06:00,RPLL 020600Z 27008KT 200V300 9000 FEW025 31/26 Q1008 NOSIG RMK A2977
RPLL,2025-12-02 07:00,RPLL 020700Z 28006KT 250V310 9000 FEW025 31/25 Q1008 NOSIG RMK A2977
RPLL,2025-12-02 08:00,RPLL 020800Z 29005KT 240V320 9000 FEW025 31/24 Q1008 NOSIG RMK A2977
RPLL,2025-12-02 09:00,RPLL 020900Z 27006KT 9999 FEW025 SCT100 30/25 Q1008 NOSIG RMK A2977
RPLL,2025-12-02 10:00,RPLL 021000Z 26006KT 9999 FEW025 BKN100 29/26 Q1009 NOSIG RMK A2980
RPLL,2025-12-02 11:00,RPLL 021100Z 25006KT 210V300 9999 FEW025 BKN100 29/26 Q1010 NOSIG RMK A2983
RPLL,2025-12-02 12:00,RPLL 021200Z 20003KT 170V250 9999 -RA FEW023 OVC090 30/26 Q1010 NOSIG RMK A2983
RPLL,2025-12-02 13:00,RPLL 021300Z 19003KT 140V230 9999 FEW025 BKN100 29/26 Q1011 NOSIG RMK A2985
RPLL,2025-12-02 14:00,RPLL 021400Z VRB02KT 9999 FEW025 BKN100 29/26 Q1011 NOSIG RMK A2985
RPLL,2025-12-02 15:00,RPLL 021500Z VRB02KT 9999 FEW025 BKN100 29/26 Q1011 NOSIG RMK A2985
RPLL,2025-12-02 16:00,RPLL 021600Z 28005KT 9000 -RA SCT023 BKN090 28/26 Q1010 NOSIG RMK A2983
RPLL,2025-12-02 17:00,RPLL 021700Z 26004KT 230V310 9000 FEW025 BKN100 28/26 Q1010 NOSIG RMK A2983
RPLL,2025-12-02 18:00,RPLL 021800Z 00000KT 9999 FEW025 27/26 Q1010 NOSIG RMK A2983
RPLL,2025-12-02 19:00,RPLL 021900Z 36004KT 330V040 9999 FEW025 28/26 Q1009 NOSIG RMK A2980
RPLL,2025-12-02 20:00,RPLL 022000Z 36003KT 9999 FEW025 27/26 Q1009 NOSIG RMK A2980
RPLL,2025-12-02 21:00,RPLL 022100Z 36006KT 9999 SCT025 27/26 Q1010 NOSIG RMK A2983
RPLL,2025-12-02 22:00,RPLL 022200Z 35004KT 310V050 9999 SCT025 27/26 Q1011 NOSIG RMK A2985
RPLL,2025-12-02 23:00,RPLL 022300Z VRB02KT 9000 FEW025 SCT100 27/26 Q1011 NOSIG RMK A2985
RPLL,2025-12-03 00:00,RPLL 030000Z VRB02KT 9000 FEW025 BKN100 28/26 Q1012 NOSIG RMK A2988
RPLL,2025-12-03 01:00,RPLL 030100Z VRB02KT 9999 FEW025 BKN100 29/26 Q1012 NOSIG RMK A2988
RPLL,2025-12-03 02:00,RPLL 030200Z 18003KT 100V250 9999 FEW025 BKN100 31/25 Q1012 NOSIG RMK A2988
RPLL,2025-12-03 03:00,RPLL 030300Z VRB03KT 9999 FEW025 32/24 Q1012 NOSIG RMK A2988
RPLL,2025-12-03 04:00,RPLL 030400Z 26005KT 220V320 9999 -SHRA SCT025 30/27 Q1011 NOSIG RMK A2985
RPLL,2025-12-03 04:42,COR RPLL 030442Z 19005KT 140V250 6000 SHRA SCT023 OVC090 26/26 Q1011 NOSIG RMK A2985
RPLL,2025-12-03 05:00,RPLL 030500Z 18004KT 100V250 9000 -RA SCT023 BKN100 26/26 Q1010 RESHRA NOSIG RMK A2983
RPLL,2025-12-03 06:00,RPLL 030600Z VRB02KT 9999 SCT025 BKN100 31/26 Q1010 NOSIG RMK A2983
RPLL,2025-12-03 07:00,RPLL 030700Z 15006KT 090V210 9999 FEW025 SCT100 32/25 Q1009 NOSIG RMK A2980
RPLL,2025-12-03 08:00,RPLL 030800Z 13006KT 090V180 9999 FEW025 SCT100 32/25 Q1009 NOSIG RMK A2980
RPLL,2025-12-03 09:00,RPLL 030900Z 12006KT 080V150 9999 FEW025 SCT100 30/24 Q1009 NOSIG RMK A2980
RPLL,2025-12-03 10:00,RPLL 031000Z 11006KT 080V140 9999 FEW025 SCT100 30/24 Q1010 NOSIG RMK A2983
RPLL,2025-12-03 11:00,RPLL 031100Z 11006KT 080V140 9999 FEW025 SCT150 29/25 Q1011 NOSIG RMK A2985
RPLL,2025-12-03 12:00,RPLL 031200Z 10005KT 070V130 9999 FEW025 BKN130 29/23 Q1011 NOSIG RMK A2985
RPLL,2025-12-03 13:00,RPLL 031300Z 09006KT 060V120 9999 FEW025 BKN100 29/23 Q1012 NOSIG RMK A2988
RPLL,2025-12-03 14:00,RPLL 031400Z 09003KT 9999 FEW025 BKN100 29/23 Q1012 NOSIG RMK A2988
RPLL,2025-12-03 15:00,RPLL 031500Z 08007KT 9999 FEW025 BKN100 29/22 Q1012 NOSIG RMK A2988
RPLL,2025-12-03 16:00,RPLL 031600Z 36007KT 320V040 9999 FEW025 BKN100 28/23 Q1012 NOSIG RMK A2988
RPLL,2025-12-03 17:00,RPLL 031700Z 05004KT 360V090 9000 -RA SCT023 OVC090 27/23 Q1012 NOSIG RMK A2988
RPLL,2025-12-03 18:00,RPLL 031800Z VRB01KT 9999 FEW025 BKN100 27/23 Q1011 NOSIG RMK A2985
RPLL,2025-12-03 19:00,RPLL 031900Z VRB01KT 9999 -SHRA FEW025 BKN090 26/24 Q1011 NOSIG RMK A2985
RPLL,2025-12-03 20:00,RPLL 032000Z 22002KT 9999 FEW025 BKN100 26/24 Q1011 NOSIG RMK A2985
RPLL,2025-12-03 21:00,RPLL 032100Z VRB02KT 9999 FEW025 OVC100 26/25 Q1011 NOSIG RMK A2985
RPLL,2025-12-03 22:00,RPLL 032200Z VRB01KT 9999 FEW025 OVC100 26/24 Q1011 NOSIG RMK A2985
RPLL,2025-12-03 23:00,RPLL 032300Z VRB01KT 9999 FEW025 OVC100 27/24 Q1012 NOSIG RMK A2988
RPLL,2025-12-04 00:00,RPLL 040000Z 22003KT 180V250 9999 FEW025 BKN100 27/24 Q1013 NOSIG RMK A2991
RPLL,2025-12-04 01:00,RPLL 040100Z 23003KT 170V310 9999 FEW025 BKN100 28/23 Q1013 NOSIG RMK A2991
RPLL,2025-12-04 02:00,RPLL 040200Z 22004KT 170V280 9999 FEW025 29/22 Q1013 NOSIG RMK A2991
RPLL,2025-12-04 03:00,RPLL 040300Z 27007KT 210V290 9999 FEW025 30/23 Q1012 NOSIG RMK A2988
RPLL,2025-12-04 04:00,RPLL 040400Z 22005KT 150V270 9999 FEW025 31/22 Q1011 NOSIG RMK A2985
RPLL,2025-12-04 05:00,RPLL 040500Z 26007KT 220V280 9999 FEW025 BKN100 30/22 Q1010 NOSIG RMK A2983
RPLL,2025-12-04 06:00,RPLL 040600Z 11008KT 080V140 9999 FEW025 SCT100 31/21 Q1010 NOSIG RMK A2983
RPLL,2025-12-04 07:00,RPLL 040700Z 09010KT 070V130 9999 FEW025 SCT100 30/21 Q1010 NOSIG RMK A2983
RPLL,2025-12-04 08:00,RPLL 040800Z 09009KT 060V130 9999 FEW025 30/21 Q1010 NOSIG RMK A2983
RPLL,2025-12-04 09:00,RPLL 040900Z 08009KT 9999 FEW025 BKN100 29/20 Q1011 NOSIG RMK A2985
RPLL,2025-12-04 10:00,RPLL 041000Z 10007KT 9999 FEW025 28/20 Q1011 NOSIG RMK A2985
RPLL,2025-12-04 11:00,RPLL 041100Z 08006KT 9999 FEW025 SCT100 28/21 Q1012 NOSIG RMK A2988
RPLL,2025-12-04 12:00,RPLL 041200Z 10005KT 070V130 9999 FEW025 BKN100 27/21 Q1013 NOSIG RMK A2991
RPLL,2025-12-04 13:00,RPLL 041300Z 12004KT 090V160 9999 FEW025 BKN100 27/21 Q1013 NOSIG RMK A2991
RPLL,2025-12-04 14:00,RPLL 041400Z 13004KT 090V170 9999 FEW025 27/22 Q1013 NOSIG RMK A2991
RPLL,2025-12-04 15:00,RPLL 041500Z 13003KT 080V200 9999 SCT025 BKN100 27/22 Q1013 NOSIG RMK A2991
RPLL,2025-12-04 16:00,RPLL 041600Z VRB02KT 9999 SCT025 BKN100 27/21 Q1013 NOSIG RMK A2991
RPLL,2025-12-04 17:00,RPLL 041700Z VRB04KT 9999 FEW025 SCT100 27/21 Q1013 NOSIG RMK A2991
RPLL,2025-12-04 18:00,RPLL 041800Z 03004KT 9999 FEW025 BKN100 27/20 Q1013 NOSIG RMK A2991
RPLL,2025-12-04 19:00,RPLL 041900Z 01005KT 320V040 9999 FEW025 BKN150 26/20 Q1012 NOSIG RMK A2988
RPLL,2025-12-04 20:00,RPLL 042000Z 36005KT 340V040 9999 FEW025 26/20 Q1012 NOSIG RMK A2988
RPLL,2025-12-04 21:00,RPLL 042100Z 36006KT 330V030 9999 FEW025 26/20 Q1012 NOSIG RMK A2988
RPLL,2025-12-04 22:00,RPLL 042200Z 01006KT 340V040 9999 FEW025 BKN150 26/20 Q1013 NOSIG RMK A2991
RPLL,2025-12-04 23:00,RPLL 042300Z 01005KT 330V050 9000 FEW025 BKN150 26/20 Q1013 NOSIG RMK A2991
RPLL,2025-12-05 00:00,COR RPLL 050000Z 01006KT 330V050 9000 FEW025 BKN150 27/20 Q1014 NOSIG RMK A2994
RPLL,2025-12-05 01:00,RPLL 050100Z 04004KT 330V080 9999 FEW025 SCT100 28/20 Q1014 NOSIG RMK A2994
RPLL,2025-12-05 02:00,RPLL 050200Z 06008KT 040V100 9999 FEW025 SCT100 29/21 Q1014 NOSIG RMK A2994
RPLL,2025-12-05 03:00,RPLL 050300Z 12006KT 070V170 9999 FEW025 BKN090 30/21 Q1013 NOSIG RMK A2991
RPLL,2025-12-05 04:00,RPLL 050400Z 11008KT 060V210 9999 FEW025 BKN090 30/21 Q1012 NOSIG RMK A2988
RPLL,2025-12-05 05:00,RPLL 050500Z 06011KT 9999 FEW025 BKN090 29/21 Q1011 NOSIG RMK A2985
RPLL,2025-12-05 06:00,RPLL 050600Z 05012KT 9999 FEW025 BKN090 29/21 Q1010 NOSIG RMK A2983
RPLL,2025-12-05 07:00,RPLL 050700Z 08007KT 9999 SCT025 BKN090 30/20 Q1010 NOSIG RMK A2983
RPLL,2025-12-05 08:00,RPLL 050800Z 06009KT 9999 SCT025 BKN100 29/20 Q1010 NOSIG RMK A2983
RPLL,2025-12-05 09:00,RPLL 050900Z 05008KT 020V080 9999 FEW025 BKN100 28/20 Q1010 NOSIG RMK A2983
RPLL,2025-12-05 10:00,RPLL 051000Z 04009KT 9999 FEW025 SCT100 27/20 Q1010 NOSIG RMK A2983
RPLL,2025-12-05 11:00,RPLL 051100Z 07006KT 040V100 9999 FEW025 27/19 Q1011 NOSIG RMK A2985
RPLL,2025-12-05 12:00,RPLL 051200Z 09004KT 060V120 9999 FEW025 26/19 Q1012 NOSIG RMK A2988
RPLL,2025-12-05 13:00,RPLL 051300Z 08004KT 9999 FEW025 26/19 Q1012 NOSIG RMK A2988
RPLL,2025-12-05 14:00,RPLL 051400Z 11003KT 9999 FEW025 BKN100 26/20 Q1012 NOSIG RMK A2988
RPLL,2025-12-05 15:00,RPLL 051500Z 08003KT 9999 FEW025 BKN100 26/20 Q1012 NOSIG RMK A2988
RPLL,2025-12-05 16:00,RPLL 051600Z VRB02KT 9999 FEW025 BKN100 26/20 Q1012 NOSIG RMK A2988
RPLL,2025-12-05 17:00,RPLL 051700Z 04006KT 010V070 9999 FEW025 SCT100 26/19 Q1012 NOSIG RMK A2988
RPLL,2025-12-05 18:00,RPLL 051800Z 36006KT 300V040 9999 SCT025 BKN100 26/19 Q1011 NOSIG RMK A2985
RPLL,2025-12-05 19:00,RPLL 051900Z 02005KT 330V050 9999 FEW025 BKN130 25/19 Q1011 NOSIG RMK A2985
RPLL,2025-12-05 20:00,RPLL 052000Z 01006KT 340V040 9999 FEW025 BKN100 25/19 Q1011 NOSIG RMK A2985
RPLL,2025-12-05 21:00,RPLL 052100Z 01005KT 330V050 9999 FEW025 BKN100 26/19 Q1011 NOSIG RMK A2985
RPLL,2025-12-05 22:00,RPLL 052200Z 33004KT 230V010 9999 FEW025 BKN100 25/19 Q1011 NOSIG RMK A2985
RPLL,2025-12-05 23:00,RPLL 052300Z 34004KT 280V050 9999 FEW025 BKN100 26/19 Q1012 NOSIG RMK A2988
RPLL,2025-12-06 00:00,RPLL 060000Z 01005KT 300V050 9999 SCT023 BKN100 26/19 Q1012 NOSIG RMK A2988
RPLL,2025-12-06 01:00,RPLL 060100Z 01004KT 330V060 9999 SCT023 BKN100 27/20 Q1013 NOSIG RMK A2991
RPLL,2025-12-06 02:00,RPLL 060200Z VRB03KT 9999 FEW025 BKN100 29/20 Q1012 NOSIG RMK A2988
RPLL,2025-12-06 03:00,RPLL 060300Z VRB04KT 9999 FEW025 BKN100 29/21 Q1012 NOSIG RMK A2988
RPLL,2025-12-06 04:00,RPLL 060400Z 34007KT 260V060 9999 FEW025 BKN100 30/21 Q1011 NOSIG RMK A2985
RPLL,2025-12-06 05:00,RPLL 060500Z 22006KT 170V260 9999 SCT023 BKN090 29/22 Q1010 NOSIG RMK A2983
RPLL,2025-12-06 06:00,RPLL 060600Z 19003KT 110V250 9999 SCT023 BKN090 30/21 Q1009 NOSIG RMK A2980
RPLL,2025-12-06 07:00,RPLL 060700Z 14005KT 090V180 9999 SCT023 BKN090 29/21 Q1009 NOSIG RMK A2980
RPLL,2025-12-06 08:00,RPLL 060800Z 14004KT 080V240 9999 SCT023 BKN090 29/21 Q1009 NOSIG RMK A2980
RPLL,2025-12-06 09:00,RPLL 060900Z 02007KT 340V060 9999 SCT023 BKN090 29/20 Q1009 NOSIG RMK A2980
RPLL,2025-12-06 10:00,RPLL 061000Z 04009KT 9999 SCT023 BKN090 28/20 Q1010 NOSIG RMK A2983
RPLL,2025-12-06 11:00,RPLL 061100Z 05007KT 9999 FEW023 BKN090 27/20 Q1010 NOSIG RMK A2983
RPLL,2025-12-06 12:00,RPLL 061200Z 06005KT 9999 SCT023 BKN090 27/20 Q1011 NOSIG RMK A2985
RPLL,2025-12-06 13:00,RPLL 061300Z 08004KT 040V120 9999 FEW025 BKN100 27/20 Q1011 NOSIG RMK A2985
RPLL,2025-12-06 14:00,RPLL 061400Z 01004KT 320V070 9999 FEW025 SCT100 27/19 Q1011 NOSIG RMK A2985
RPLL,2025-12-06 15:00,RPLL 061500Z 02004KT 330V060 9999 FEW025 BKN100 27/19 Q1011 NOSIG RMK A2985
RPLL,2025-12-06 16:00,RPLL 061600Z 02006KT 350V060 9999 FEW025 SCT100 27/19 Q1011 NOSIG RMK A2985
RPLL,2025-12-06 17:00,RPLL 061700Z 05003KT 010V110 9999 FEW025 26/20 Q1010 NOSIG RMK A2983
RPLL,2025-12-06 18:00,RPLL 061800Z 01005KT 350V050 9999 FEW025 BKN100 27/20 Q1010 NOSIG RMK A2983
RPLL,2025-12-06 19:00,RPLL 061900Z 01005KT 9999 FEW025 BKN100 26/20 Q1009 NOSIG RMK A2980
RPLL,2025-12-06 20:00,RPLL 062000Z 01004KT 330V050 9999 FEW025 BKN100 26/20 Q1009 NOSIG RMK A2980
RPLL,2025-12-06 21:00,RPLL 062100Z 02006KT 350V050 9999 FEW025 BKN100 26/20 Q1009 NOSIG RMK A2980
RPLL,2025-12-06 22:00,RPLL 062200Z 01008KT 9999 FEW025 BKN100 26/20 Q1010 NOSIG RMK A2983
RPLL,2025-12-06 23:00,RPLL 062300Z 01008KT 9999 FEW025 BKN100 26/20 Q1010 NOSIG RMK A2983
RPLL,2025-12-07 00:00,RPLL 070000Z 01011KT 9999 FEW025 BKN100 27/20 Q1011 NOSIG RMK A2985
RPLL,2025-12-07 01:00,RPLL 070100Z 02013KT 350V050 9999 FEW025 BKN100 28/21 Q1011 NOSIG RMK A2985
RPLL,2025-12-07 02:00,RPLL 070200Z 01011KT 350V050 9999 FEW025 BKN100 28/21 Q1011 NOSIG RMK A2985
RPLL,2025-12-07 03:00,RPLL 070300Z 02010KT 9999 FEW025 OVC100 28/21 Q1011 NOSIG RMK A2985
RPLL,2025-12-07 04:00,RPLL 070400Z 03011KT 9999 FEW025 OVC100 28/22 Q1010 NOSIG RMK A2983
RPLL,2025-12-07 05:00,RPLL 070500Z 04013KT 9999 -SHRA FEW025 OVC100 28/22 Q1009 NOSIG RMK A2980
RPLL,2025-12-07 06:00,RPLL 070600Z 03007KT 330V060 9999 FEW025 OVC100 28/22 Q1008 NOSIG RMK A2977
RPLL,2025-12-07 07:00,RPLL 070700Z 03010KT 360V060 9999 FEW025 OVC100 28/22 Q1008 NOSIG RMK A2977
RPLL,2025-12-07 08:00,RPLL 070800Z 02009KT 350V050 9999 FEW025 OVC100 28/22 Q1008 NOSIG RMK A2977
RPLL,2025-12-07 09:00,RPLL 070900Z 02010KT 9999 FEW025 OVC100 27/22 Q1008 NOSIG RMK A2977
RPLL,2025-12-07 10:00,RPLL 071000Z 01008KT 340V080 9999 FEW025 OVC100 28/22 Q1009 NOSIG RMK A2980
RPLL,2025-12-07 11:00,RPLL 071100Z VRB02KT 9999 FEW025 OVC100 27/22 Q1010 NOSIG RMK A2983
RPLL,2025-12-07 12:00,RPLL 071200Z 05005KT 360V070 9999 -SHRA FEW025 OVC090 27/23 Q1010 NOSIG RMK A2983
RPLL,2025-12-07 13:00,RPLL 071300Z 09003KT 030V140 9999 FEW024 OVC090 27/23 Q1010 NOSIG RMK A2983
RPLL,2025-12-07 14:00,RPLL 071400Z VRB02KT 9999 SCT024 OVC090 26/24 Q1010 NOSIG RMK A2983
RPLL,2025-12-07 15:00,RPLL 071500Z 15002KT 9999 FEW025 BKN100 26/24 Q1010 NOSIG RMK A2983
RPLL,2025-12-07 16:00,RPLL 071600Z VRB02KT 9999 FEW025 BKN100 26/24 Q1010 NOSIG RMK A2983
RPLL,2025-12-07 17:00,RPLL 071700Z 08003KT 9000 -RA FEW023 OVC100 26/24 Q1009 NOSIG RMK A2980
RPLL,2025-12-07 18:00,RPLL 071800Z 03003KT 360V060 9999 -RA FEW023 OVC100 26/23 Q1009 NOSIG RMK A2980
RPLL,2025-12-07 19:00,RPLL 071900Z 03004KT 9999 FEW025 BKN100 26/24 Q1008 NOSIG RMK A2977
RPLL,2025-12-07 20:00,RPLL 072000Z 09004KT 9999 FEW025 BKN100 26/23 Q1009 NOSIG RMK A2980
RPLL,2025-12-07 21:00,RPLL 072100Z 19002KT 9999 FEW025 OVC100 26/24 Q1009 NOSIG RMK A2980
RPLL,2025-12-07 22:00,RPLL 072200Z 20003KT 160V240 9000 -RA SCT023 OVC090 25/25 Q1010 TEMPO 6000 RMK A2983
RPLL,2025-12-07 23:00,RPLL 072300Z 20003KT 9000 -RA FEW023 OVC100 25/25 Q1010 NOSIG RMK A2983
RPLL,2025-12-08 00:00,RPLL 080000Z 00000KT 9000 -RA FEW023 OVC100 25/25 Q1011 NOSIG RMK A2985
RPLL,2025-12-08 01:00,RPLL 080100Z VRB01KT 9999 FEW023 OVC100 27/25 Q1011 NOSIG RMK A2985
RPLL,2025-12-08 02:00,RPLL 080200Z 04003KT 9999 FEW025 OVC100 28/25 Q1011 NOSIG RMK A2985
RPLL,2025-12-08 03:00,RPLL 080300Z VRB03KT 9999 FEW025 BKN100 29/24 Q1010 NOSIG RMK A2983
RPLL,2025-12-08 04:00,RPLL 080400Z VRB02KT 9999 FEW025 OVC100 30/24 Q1009 NOSIG RMK A2980
RPLL,2025-12-08 05:00,RPLL 080500Z VRB03KT 9999 FEW025 BKN100 31/24 Q1009 NOSIG RMK A2980
RPLL,2025-12-08 06:00,RPLL 080600Z 24004KT 190V260 9999 FEW025 OVC100 29/25 Q1008 NOSIG RMK A2977
RPLL,2025-12-08 07:00,RPLL 080700Z 21004KT 160V260 9999 SCT025 OVC100 30/24 Q1008 NOSIG RMK A2977
RPLL,2025-12-08 08:00,RPLL 080800Z 13003KT 080V190 9999 SCT025 BKN100 30/25 Q1008 NOSIG RMK A2977
RPLL,2025-12-08 09:00,RPLL 080900Z 11004KT 060V180 9000 SCT025 BKN100 30/25 Q1009 NOSIG RMK A2980
RPLL,2025-12-08 10:00,RPLL 081000Z 11005KT 9999 FEW025 OVC100 29/24 Q1010 NOSIG RMK A2983
RPLL,2025-12-08 11:00,RPLL 081100Z 10004KT 080V140 9999 FEW025 BKN100 29/24 Q1010 NOSIG RMK A2983
RPLL,2025-12-08 12:00,RPLL 081200Z 13003KT 090V180 9999 FEW025 BKN100 28/26 Q1010 NOSIG RMK A2983
RPLL,2025-12-08 13:00,RPLL 081300Z 01003KT 330V060 9999 FEW025 BKN100 28/24 Q1010 NOSIG RMK A2983
RPLL,2025-12-08 14:00,RPLL 081400Z 19002KT 9999 FEW025 SCT100 27/25 Q1010 NOSIG RMK A2983
RPLL,2025-12-08 15:00,RPLL 081500Z VRB02KT 9999 FEW025 BKN100 27/25 Q1011 NOSIG RMK A2985
RPLL,2025-12-08 16:00,RPLL 081600Z VRB02KT 9999 FEW025 BKN100 27/24 Q1010 NOSIG RMK A2983
RPLL,2025-12-08 17:00,RPLL 081700Z VRB01KT 9999 FEW025 BKN100 27/24 Q1010 NOSIG RMK A2983
RPLL,2025-12-08 18:00,RPLL 081800Z VRB02KT 9999 FEW025 BKN100 27/24 Q1009 NOSIG RMK A2983
RPLL,2025-12-08 19:00,RPLL 081900Z 01004KT 320V040 9999 FEW025 BKN100 27/24 Q1009 NOSIG RMK A2980
RPLL,2025-12-08 20:00,RPLL 082000Z 01005KT 340V040 9999 FEW023 BKN090 27/23 Q1009 NOSIG RMK A2980
RPLL,2025-12-08 21:00,RPLL 082100Z 04004KT 360V080 9999 FEW023 BKN090 27/23 Q1009 NOSIG RMK A2980
RPLL,2025-12-08 22:00,RPLL 082200Z 20002KT 9999 FEW025 BKN100 27/24 Q1010 NOSIG RMK A2983
RPLL,2025-12-08 23:00,RPLL 082300Z 20004KT 170V230 9999 FEW025 BKN100 26/25 Q1011 NOSIG RMK A2985
RPLL,2025-12-09 00:00,RPLL 090000Z 19003KT 160V230 9999 FEW025 BKN100 27/25 Q1012 NOSIG RMK A2988
RPLL,2025-12-09 01:00,RPLL 090100Z 27004KT 230V130 9999 FEW025 BKN100 28/24 Q1012 NOSIG RMK A2988
RPLL,2025-12-09 02:00,RPLL 090200Z 25004KT 200V310 9999 FEW025 BKN100 28/23 Q1012 NOSIG RMK A2988
RPLL,2025-12-09 02:25,RPLL 090225Z 18003KT 120V250 9000 -RA SCT025 BKN100 25/25 Q1012 NOSIG RMK A2988
RPLL,2025-12-09 03:00,RPLL 090300Z VRB01KT 8000 -RA SCT023 OVC100 25/25 Q1012 NOSIG RMK A2988
RPLL,2025-12-09 04:00,RPLL 090400Z 25004KT 220V360 8000 -RA SCT023 OVC100 26/25 Q1011 NOSIG RMK A2985
RPLL,2025-12-09 05:00,RPLL 090500Z 27003KT 200V340 9000 FEW025 BKN100 27/26 Q1011 NOSIG RMK A2985
RPLL,2025-12-09 06:00,RPLL 090600Z 22004KT 8000 -RA FEW025 OVC100 26/25 Q1010 NOSIG RMK A2983
RPLL,2025-12-09 07:00,RPLL 090700Z VRB02KT 5000 RA SCT023 OVC090 26/26 Q1010 NOSIG RMK A2983
RPLL,2025-12-09 08:00,RPLL 090800Z 32004KT 260V030 8000 -RA SCT023 OVC090 26/26 Q1011 RERA NOSIG RMK A2985
RPLL,2025-12-09 09:00,RPLL 090900Z 01006KT 9000 -RA SCT023 OVC090 26/26 Q1011 NOSIG RMK A2985
RPLL,2025-12-09 10:00,RPLL 091000Z 04008KT 020V080 9000 FEW025 BKN100 26/25 Q1011 NOSIG RMK A2985
RPLL,2025-12-09 11:00,RPLL 091100Z 05005KT 020V100 9000 FEW025 BKN100 26/25 Q1011 NOSIG RMK A2985
RPLL,2025-12-09 12:00,RPLL 091200Z 12003KT 070V150 9999 FEW025 BKN100 26/25 Q1012 NOSIG RMK A2988
RPLL,2025-12-09 13:00,RPLL 091300Z 07002KT 9999 FEW025 BKN100 26/25 Q1013 NOSIG RMK A2991
RPLL,2025-12-09 14:00,RPLL 091400Z VRB02KT 9999 FEW023 BKN090 26/25 Q1013 NOSIG RMK A2991
RPLL,2025-12-09 15:00,RPLL 091500Z VRB01KT 9999 FEW025 BKN090 26/26 Q1013 NOSIG RMK A2991
RPLL,2025-12-09 16:00,RPLL 091600Z VRB01KT 9999 FEW025 BKN100 26/26 Q1012 NOSIG RMK A2988
RPLL,2025-12-09 17:00,RPLL 091700Z 34004KT 8000 -RA FEW023 BKN090 26/26 Q1012 NOSIG RMK A2988
RPLL,2025-12-09 18:00,RPLL 091800Z 31004KT 270V340 9000 FEW025 BKN100 26/26 Q1012 NOSIG RMK A2988
RPLL,2025-12-09 19:00,RPLL 091900Z 34004KT 310V010 9000 FEW025 BKN100 25/25 Q1011 NOSIG RMK A2985
RPLL,2025-12-09 20:00,RPLL 092000Z 36003KT 8000 -RA SCT023 OVC090 26/25 Q1011 NOSIG RMK A2985
RPLL,2025-12-09 21:00,RPLL 092100Z 36003KT 330V080 8000 -RA SCT023 OVC090 25/25 Q1011 NOSIG RMK A2985
RPLL,2025-12-09 22:00,RPLL 092200Z 02004KT 350V050 7000 -RA SCT023 OVC090 25/25 Q1012 NOSIG RMK A2988
RPLL,2025-12-09 22:23,COR RPLL 092223Z 02006KT 350V050 7000 RA SCT023 OVC090 25/25 Q1012 NOSIG RMK A2988
RPLL,2025-12-09 23:00,RPLL 092300Z VRB03KT 9999 FEW025 BKN100 25/25 Q1012 RERA NOSIG RMK A2988
RPLL,2025-12-10 00:00,RPLL 100000Z VRB02KT 9000 SCT023 BKN100 27/25 Q1013 NOSIG RMK A2991
RPLL,2025-12-10 01:00,RPLL 100100Z 01007KT 9000 SCT023 BKN100 27/25 Q1013 NOSIG RMK A2991
RPLL,2025-12-10 02:00,RPLL 100200Z VRB02KT 9999 FEW025 BKN100 28/25 Q1013 NOSIG RMK A2991
RPLL,2025-12-10 03:00,COR RPLL 100300Z 31006KT 9000 -SHRA FEW025 BKN100 28/26 Q1012 NOSIG RMK A2988
RPLL,2025-12-10 04:00,RPLL 100400Z 32008KT 290V360 9000 FEW025 BKN100 28/25 Q1012 NOSIG RMK A2988
RPLL,2025-12-10 05:00,RPLL 100500Z 33003KT 250V060 9999 FEW025 BKN100 28/26 Q1011 NOSIG RMK A2985
RPLL,2025-12-10 05:12,RPLL 100512Z 36003KT 280V080 9000 -SHRA SCT023 BKN100 28/26 Q1011 NOSIG RMK A2985
RPLL,2025-12-10 06:00,RPLL 100600Z 02006KT 330V090 9999 FEW025 BKN100 29/25 Q1010 NOSIG RMK A2983
RPLL,2025-12-10 06:21,RPLL 100621Z 08005KT 050V130 9000 -SHRA FEW025 BKN100 28/27 Q1010 NOSIG RMK A2983
RPLL,2025-12-10 07:00,RPLL 100700Z 02004KT 360V070 9999 FEW025 SCT100 29/26 Q1009 NOSIG RMK A2980
RPLL,2025-12-10 08:00,RPLL 100800Z 06004KT 020V150 9999 FEW025 31/25 Q1009 NOSIG RMK A2980
RPLL,2025-12-10 09:00,RPLL 100900Z 14005KT 110V170 9999 FEW025 SCT100 29/25 Q1010 NOSIG RMK A2983
RPLL,2025-12-10 10:00,RPLL 101000Z VRB02KT 9999 FEW025 28/25 Q1010 NOSIG RMK A2983
RPLL,2025-12-10 11:00,RPLL 101100Z VRB02KT 9999 FEW025 SCT100 28/26 Q1011 NOSIG RMK A2985
RPLL,2025-12-10 12:00,RPLL 101200Z 10003KT 070V130 9999 FEW025 BKN100 28/25 Q1011 NOSIG RMK A2985
RPLL,2025-12-10 13:00,RPLL 101300Z 10003KT 070V140 9999 FEW025 SCT100 27/25 Q1012 NOSIG RMK A2988
RPLL,2025-12-10 14:00,RPLL 101400Z VRB02KT 9999 FEW025 SCT100 27/25 Q1012 NOSIG RMK A2988
RPLL,2025-12-10 15:00,RPLL 101500Z VRB02KT 9999 FEW025 SCT100 27/26 Q1011 NOSIG RMK A2985
RPLL,2025-12-10 16:00,RPLL 101600Z VRB01KT 9999 FEW025 BKN100 27/26 Q1011 NOSIG RMK A2985
RPLL,2025-12-10 17:00,RPLL 101700Z 27004KT 220V360 9999 FEW025 BKN100 27/25 Q1011 NOSIG RMK A2985
RPLL,2025-12-10 18:00,RPLL 101800Z VRB02KT 9999 FEW025 BKN100 27/26 Q1010 NOSIG RMK A2983
RPLL,2025-12-10 19:00,RPLL 101900Z 28003KT 9999 FEW025 SCT100 26/25 Q1010 NOSIG RMK A2983
RPLL,2025-12-10 20:00,RPLL 102000Z VRB03KT 9999 FEW025 BKN100 27/24 Q1010 NOSIG RMK A2983
RPLL,2025-12-10 21:00,RPLL 102100Z VRB02KT 9999 FEW025 BKN100 26/25 Q1011 NOSIG RMK A2985
RPLL,2025-12-10 22:00,RPLL 102200Z 01005KT 340V060 9999 FEW025 SCT100 26/24 Q1011 NOSIG RMK A2985
RPLL,2025-12-10 23:00,RPLL 102300Z VRB02KT 9999 FEW025 SCT100 27/25 Q1012 NOSIG RMK A2988
RPLL,2025-12-11 00:00,RPLL 110000Z 03005KT 340V060 9999 FEW025 BKN100 28/25 Q1012 NOSIG RMK A2988
RPLL,2025-12-11 01:00,RPLL 110100Z 10003KT 9999 FEW025 BKN100 29/25 Q1013 NOSIG RMK A2991
RPLL,2025-12-11 02:00,RPLL 110200Z VRB02KT 9999 FEW025 31/26 Q1012 NOSIG RMK A2988
RPLL,2025-12-11 03:00,RPLL 110300Z VRB03KT 9999 SCT025 32/25 Q1012 NOSIG RMK A2988
RPLL,2025-12-11 04:00,COR RPLL 110400Z 02004KT 330V060 9000 -SHRA SCT025 BKN100 29/26 Q1011 TEMPO 2000 +SHRA RMK A2985
RPLL,2025-12-11 04:20,RPLL 110420Z VRB03KT 5000 TSRA FEW022CB SCT023 OVC090 27/27 Q1011 TEMPO 2000 +TSRA RMK A2985 CB OHD
RPLL,2025-12-11 05:00,COR RPLL 110500Z VRB02KT 9000 FEW022CB SCT023 BKN100 28/27 Q1010 RETSRA NOSIG RMK A2983 CB NW
RPLL,2025-12-11 06:00,COR RPLL 110600Z 31005KT 250V010 9999 SCT025 BKN100 29/26 Q1010 NOSIG RMK A2983
RPLL,2025-12-11 07:00,RPLL 110700Z 15004KT 090V200 9999 FEW025 BKN100 31/25 Q1010 NOSIG RMK A2983
RPLL,2025-12-11 08:00,RPLL 110800Z 14006KT 080V200 9999 FEW025 BKN100 31/24 Q1010 NOSIG RMK A2983
RPLL,2025-12-11 09:00,RPLL 110900Z 13005KT 080V180 9999 FEW025 BKN100 29/25 Q1011 NOSIG RMK A2985
RPLL,2025-12-11 09:20,RPLL 110920Z 11010KT 070V150 9000 -SHRA SCT023 BKN100 28/26 Q1011 NOSIG RMK A2985
RPLL,2025-12-11 10:00,RPLL 111000Z 11007KT 080V140 9000 -SHRA FEW023CB SCT025 OVC100 26/25 Q1011 NOSIG RMK A2985 CB NW
RPLL,2025-12-11 11:00,RPLL 111100Z VRB01KT 9999 FEW025 BKN100 26/25 Q1012 NOSIG RMK A2988
RPLL,2025-12-11 12:00,RPLL 111200Z 23003KT 9999 FEW025 BKN100 26/25 Q1013 NOSIG RMK A2991
RPLL,2025-12-11 13:00,RPLL 111300Z VRB01KT 9999 FEW025 BKN100 27/25 Q1012 NOSIG RMK A2988
RPLL,2025-12-11 14:00,RPLL 111400Z VRB01KT 9999 FEW025 BKN100 27/25 Q1012 NOSIG RMK A2988
RPLL,2025-12-11 15:00,RPLL 111500Z 07003KT 010V100 9999 FEW025 BKN100 27/26 Q1012 NOSIG RMK A2988
RPLL,2025-12-11 16:00,RPLL 111600Z VRB01KT 9999 FEW025 BKN100 27/26 Q1012 NOSIG RMK A2988
RPLL,2025-12-11 17:00,RPLL 111700Z 21001KT 9999 SCT025 BKN100 27/26 Q1012 NOSIG RMK A2988
RPLL,2025-12-11 18:00,RPLL 111800Z VRB01KT 9999 FEW025 BKN100 26/26 Q1011 NOSIG RMK A2985
RPLL,2025-12-11 19:00,RPLL 111900Z 32003KT 300V360 9999 FEW025 26/25 Q1010 NOSIG RMK A2983
RPLL,2025-12-11 20:00,RPLL 112000Z VRB02KT 9999 FEW025 26/25 Q1010 NOSIG RMK A2983
RPLL,2025-12-11 21:00,RPLL 112100Z 21004KT 9999 FEW025 25/25 Q1010 NOSIG RMK A2983
RPLL,2025-12-11 22:00,RPLL 112200Z VRB02KT 9999 FEW025 BKN100 25/25 Q1011 NOSIG RMK A2985
RPLL,2025-12-11 22:11,RPLL 112211Z 14003KT 110V170 9000 -SHRA SCT023 BKN090 25/25 Q1011 NOSIG RMK A2985
RPLL,2025-12-11 23:00,RPLL 112300Z VRB02KT 9999 SCT023 BKN090 26/25 Q1011 NOSIG RMK A2985
RPLL,2025-12-12 00:00,RPLL 120000Z VRB02KT 9999 FEW025 BKN100 26/25 Q1012 NOSIG RMK A2988
RPLL,2025-12-12 01:00,RPLL 120100Z 15003KT 110V200 9999 SCT025 BKN090 27/25 Q1013 NOSIG RMK A2991
RPLL,2025-12-12 02:00,RPLL 120200Z 10003KT 020V170 9000 -RA SCT023 OVC090 27/25 Q1013 NOSIG RMK A2991
RPLL,2025-12-12 03:00,RPLL 120300Z 06006KT 9000 -RA SCT023 BKN090 29/25 Q1012 NOSIG RMK A2988
RPLL,2025-12-12 04:00,RPLL 120400Z 04004KT 340V070 9999 SCT025 BKN100 29/25 Q1011 NOSIG RMK A2985
RPLL,2025-12-12 05:00,RPLL 120500Z 04009KT 9999 FEW025 BKN100 31/24 Q1009 NOSIG RMK A2980
RPLL,2025-12-12 06:00,RPLL 120600Z 06008KT 9999 FEW025 BKN100 31/24 Q1009 NOSIG RMK A2980
RPLL,2025-12-12 07:00,RPLL 120700Z 07009KT 050V110 9999 FEW025 BKN100 32/23 Q1008 NOSIG RMK A2977
RPLL,2025-12-12 08:00,RPLL 120800Z 09010KT 060V130 9999 FEW025 BKN100 31/22 Q1009 NOSIG RMK A2980
RPLL,2025-12-12 09:00,RPLL 120900Z 11005KT 080V160 9999 FEW025 SCT100 30/23 Q1009 NOSIG RMK A2980
RPLL,2025-12-12 10:00,RPLL 121000Z 11008KT 080V140 9999 FEW025 BKN090 29/24 Q1010 NOSIG RMK A2983
RPLL,2025-12-12 11:00,RPLL 121100Z 10004KT 060V140 9999 FEW025 SCT100 28/24 Q1011 NOSIG RMK A2985
RPLL,2025-12-12 12:00,RPLL 121200Z 11004KT 070V140 9999 FEW025 SCT100 28/24 Q1012 NOSIG RMK A2988
RPLL,2025-12-12 13:00,RPLL 121300Z 10004KT 070V130 9999 FEW025 28/24 Q1012 NOSIG RMK A2988
RPLL,2025-12-12 14:00,RPLL 121400Z VRB02KT 9999 FEW025 27/24 Q1012 NOSIG RMK A2988
RPLL,2025-12-12 15:00,RPLL 121500Z VRB02KT 9999 FEW025 27/24 Q1012 NOSIG RMK A2988
RPLL,2025-12-12 16:00,RPLL 121600Z VRB01KT 9999 FEW025 27/24 Q1012 NOSIG RMK A2988
RPLL,2025-12-12 17:00,RPLL 121700Z 13002KT 9999 FEW025 26/24 Q1011 NOSIG RMK A2985
RPLL,2025-12-12 18:00,RPLL 121800Z VRB01KT 9999 FEW025 SCT100 26/24 Q1011 NOSIG RMK A2985
RPLL,2025-12-12 19:00,RPLL 121900Z 08003KT 9999 FEW025 SCT100 26/24 Q1010 NOSIG RMK A2983
RPLL,2025-12-12 20:00,RPLL 122000Z 04004KT 9999 FEW025 25/24 Q1010 NOSIG RMK A2983
RPLL,2025-12-12 21:00,RPLL 122100Z VRB02KT 9999 FEW025 26/24 Q1010 NOSIG RMK A2983
RPLL,2025-12-12 22:00,RPLL 122200Z VRB02KT 9999 FEW025 26/24 Q1011 NOSIG RMK A2985
RPLL,2025-12-12 23:00,RPLL 122300Z VRB02KT 9999 FEW025 26/24 Q1012 NOSIG RMK A2988
RPLL,2025-12-13 00:00,RPLL 130000Z VRB02KT 9999 FEW025 29/23 Q1012 NOSIG RMK A2988
RPLL,2025-12-13 01:00,RPLL 130100Z VRB02KT 9999 FEW025 BKN100 29/23 Q1013 NOSIG RMK A2991
RPLL,2025-12-13 02:00,RPLL 130200Z 13003KT 040V180 9999 FEW025 BKN100 30/23 Q1012 NOSIG RMK A2988
RPLL,2025-12-13 03:00,RPLL 130300Z 10005KT 050V130 9999 SCT025 BKN090 31/23 Q1012 NOSIG RMK A2988
RPLL,2025-12-13 04:00,RPLL 130400Z 10007KT 070V140 9999 FEW025 BKN100 31/24 Q1011 NOSIG RMK A2985
RPLL,2025-12-13 05:00,RPLL 130500Z 12008KT 070V170 9999 FEW025 BKN100 32/24 Q1010 NOSIG RMK A2983
RPLL,2025-12-13 06:00,RPLL 130600Z 13010KT 080V170 9999 SCT025 BKN090 30/24 Q1010 NOSIG RMK A2983
RPLL,2025-12-13 06:13,RPLL 130613Z 12011KT 090V150 8000 -RA SCT023 OVC090 30/24 Q1010 NOSIG RMK A2983
RPLL,2025-12-13 07:00,COR RPLL 130700Z 12010G20KT 080V160 9999 FEW025 BKN100 29/24 Q1009 NOSIG RMK A2980
RPLL,2025-12-13 08:00,RPLL 130800Z 11009KT 080V150 9999 SCT025 BKN100 29/24 Q1010 NOSIG RMK A2983
RPLL,2025-12-13 09:00,RPLL 130900Z 14004KT 090V160 9999 FEW025 BKN100 28/23 Q1009 NOSIG RMK A2980
RPLL,2025-12-13 10:00,RPLL 131000Z 17004KT 130V220 9999 FEW025 BKN100 27/23 Q1009 NOSIG RMK A2980
RPLL,2025-12-13 11:00,RPLL 131100Z 13006KT 070V180 9999 FEW025 BKN100 27/23 Q1011 NOSIG RMK A2985
RPLL,2025-12-13 12:00,RPLL 131200Z 14003KT 090V200 9999 FEW025 BKN100 27/23 Q1011 NOSIG RMK A2985
RPLL,2025-12-13 13:00,RPLL 131300Z 15003KT 080V200 9999 FEW025 BKN100 27/23 Q1012 NOSIG RMK A2988
RPLL,2025-12-13 14:00,RPLL 131400Z 16004KT 120V190 9999 FEW025 BKN100 27/23 Q1012 NOSIG RMK A2988
RPLL,2025-12-13 15:00,RPLL 131500Z VRB02KT 9999 FEW025 SCT100 26/24 Q1012 NOSIG RMK A2988
RPLL,2025-12-13 16:00,RPLL 131600Z VRB02KT 9999 FEW025 BKN100 26/24 Q1012 NOSIG RMK A2988
RPLL,2025-12-13 17:00,RPLL 131700Z VRB02KT 9999 FEW025 BKN100 27/23 Q1011 NOSIG RMK A2985
RPLL,2025-12-13 18:00,RPLL 131800Z 02003KT 340V070 9999 FEW025 BKN100 27/23 Q1011 NOSIG RMK A2985
RPLL,2025-12-13 19:00,RPLL 131900Z VRB02KT 9999 FEW025 BKN100 27/23 Q1011 NOSIG RMK A2985
RPLL,2025-12-13 20:00,RPLL 132000Z 08004KT 9999 FEW025 BKN100 26/24 Q1010 NOSIG RMK A2983
RPLL,2025-12-13 21:00,RPLL 132100Z 10003KT 050V130 9999 FEW025 BKN100 26/23 Q1011 NOSIG RMK A2985
RPLL,2025-12-13 22:00,RPLL 132200Z VRB02KT 9999 FEW025 SCT100 26/24 Q1011 NOSIG RMK A2985
RPLL,2025-12-13 23:00,RPLL 132300Z VRB02KT 9999 FEW025 SCT100 26/24 Q1012 NOSIG RMK A2988
RPLL,2025-12-14 00:00,RPLL 140000Z 14003KT 110V170 9999 FEW025 BKN100 27/24 Q1013 NOSIG RMK A2991
RPLL,2025-12-14 01:00,RPLL 140100Z VRB03KT 9999 FEW025 BKN100 28/24 Q1013 NOSIG RMK A2991
RPLL,2025-12-14 02:00,RPLL 140200Z VRB03KT 9999 FEW025 BKN100 30/23 Q1013 NOSIG RMK A2991
RPLL,2025-12-14 03:00,RPLL 140300Z 33003KT 260V030 9999 FEW025 BKN100 28/24 Q1013 NOSIG RMK A2991
RPLL,2025-12-14 04:00,RPLL 140400Z 23003KT 180V310 9999 FEW025 BKN100 28/24 Q1012 NOSIG RMK A2988
RPLL,2025-12-14 05:00,RPLL 140500Z 28004G14KT 240V340 9999 FEW025 BKN100 29/24 Q1011 NOSIG RMK A2985
RPLL,2025-12-14 06:00,RPLL 140600Z VRB05KT 9999 FEW025 BKN100 30/22 Q1010 NOSIG RMK A2983
RPLL,2025-12-14 07:00,RPLL 140700Z 08008KT 9999 FEW025 BKN100 30/20 Q1009 NOSIG RMK A2980
RPLL,2025-12-14 08:00,RPLL 140800Z 10006KT 080V150 9999 FEW025 31/20 Q1009 NOSIG RMK A2980
RPLL,2025-12-14 09:00,RPLL 140900Z 10006KT 080V140 9999 FEW025 30/20 Q1010 NOSIG RMK A2983
RPLL,2025-12-14 10:00,RPLL 141000Z 08007KT 9999 FEW025 28/20 Q1010 NOSIG RMK A2983
RPLL,2025-12-14 11:00,RPLL 141100Z VRB02KT 9999 FEW025 27/21 Q1011 NOSIG RMK A2985
RPLL,2025-12-14 12:00,RPLL 141200Z 12003KT 9999 FEW025 27/22 Q1012 NOSIG RMK A2988
RPLL,2025-12-14 13:00,RPLL 141300Z 11003KT 080V140 9999 FEW025 27/22 Q1012 NOSIG RMK A2988
RPLL,2025-12-14 14:00,RPLL 141400Z VRB02KT 9999 FEW025 27/22 Q1012 NOSIG RMK A2988
RPLL,2025-12-14 15:00,RPLL 141500Z 35004KT 310V010 9999 FEW025 27/21 Q1012 NOSIG RMK A2988
RPLL,2025-12-14 16:00,RPLL 141600Z 00000KT 9999 FEW025 26/22 Q1012 NOSIG RMK A2988
RPLL,2025-12-14 17:00,RPLL 141700Z VRB02KT 9999 FEW025 26/22 Q1011 NOSIG RMK A2985
RPLL,2025-12-14 18:00,RPLL 141800Z VRB01KT 9999 FEW025 SCT100 26/22 Q1011 NOSIG RMK A2985
RPLL,2025-12-14 19:00,RPLL 141900Z VRB02KT 9999 FEW025 25/22 Q1010 NOSIG RMK A2983
RPLL,2025-12-14 20:00,RPLL 142000Z 36004KT 9999 FEW025 26/21 Q1010 NOSIG RMK A2983
RPLL,2025-12-14 21:00,RPLL 142100Z 02004KT 360V070 9999 FEW025 SCT100 26/21 Q1010 NOSIG RMK A2983
RPLL,2025-12-14 22:00,RPLL 142200Z VRB02KT 9999 FEW025 25/22 Q1011 NOSIG RMK A2985
RPLL,2025-12-14 23:00,RPLL 142300Z VRB01KT 9999 FEW025 25/22 Q1011 NOSIG RMK A2985
RPLL,2025-12-15 00:00,RPLL 150000Z VRB01KT 9999 FEW025 28/21 Q1012 NOSIG RMK A2988
RPLL,2025-12-15 01:00,RPLL 150100Z 24003KT 210V280 9999 FEW025 SCT100 28/22 Q1013 NOSIG RMK A2991
RPLL,2025-12-15 02:00,RPLL 150200Z 21003KT 170V240 9000 -SHRA FEW025 BKN100 27/23 Q1012 NOSIG RMK A2988
RPLL,2025-12-15 03:00,RPLL 150300Z 14003KT 040V210 9999 FEW025 BKN100 29/23 Q1012 NOSIG RMK A2988
RPLL,2025-12-15 04:00,RPLL 150400Z 08003KT 050V130 9999 -SHRA FEW025 BKN100 28/24 Q1011 NOSIG RMK A2985
RPLL,2025-12-15 05:00,RPLL 150500Z 06006KT 9999 -RA FEW025 BKN100 28/24 Q1011 NOSIG RMK A2985
RPLL,2025-12-15 06:00,RPLL 150600Z 03006KT 010V070 9999 -RA FEW025 BKN100 27/24 Q1011 NOSIG RMK A2985
RPLL,2025-12-15 07:00,RPLL 150700Z 09007KT 060V120 9000 -RA SCT023 OVC090 25/25 Q1011 NOSIG RMK A2985
RPLL,2025-12-15 08:00,RPLL 150800Z 05003KT 010V080 9000 -RA SCT023 OVC090 25/25 Q1011 NOSIG RMK A2985
RPLL,2025-12-15 09:00,RPLL 150900Z VRB01KT 9999 -RA SCT023 OVC100 25/25 Q1011 NOSIG RMK A2985
RPLL,2025-12-15 10:00,RPLL 151000Z 00000KT 9999 -RA FEW023 OVC100 26/25 Q1011 NOSIG RMK A2985
RPLL,2025-12-15 11:00,RPLL 151100Z VRB02KT 9999 FEW025 BKN100 26/25 Q1012 NOSIG RMK A2988
RPLL,2025-12-15 12:00,RPLL 151200Z 00000KT 9999 FEW025 BKN100 25/25 Q1012 NOSIG RMK A2988
RPLL,2025-12-15 13:00,RPLL 151300Z VRB02KT 9999 FEW025 BKN100 26/25 Q1013 NOSIG RMK A2991
RPLL,2025-12-15 14:00,RPLL 151400Z 35003KT 300V050 9999 FEW025 BKN100 27/24 Q1012 NOSIG RMK A2988
RPLL,2025-12-15 15:00,RPLL 151500Z VRB02KT 9999 FEW025 SCT100 26/24 Q1012 NOSIG RMK A2988
RPLL,2025-12-15 16:00,RPLL 151600Z VRB02KT 9999 FEW025 SCT100 26/25 Q1012 NOSIG RMK A2988
RPLL,2025-12-15 17:00,RPLL 151700Z VRB01KT 9999 FEW025 BKN100 26/25 Q1012 NOSIG RMK A2988
RPLL,2025-12-15 18:00,RPLL 151800Z 02004KT 350V070 9999 FEW025 26/24 Q1012 NOSIG RMK A2988
RPLL,2025-12-15 19:00,RPLL 151900Z VRB03KT 9999 FEW025 SCT100 25/24 Q1011 NOSIG RMK A2985
RPLL,2025-12-15 20:00,RPLL 152000Z VRB02KT 9999 FEW025 SCT100 25/25 Q1011 NOSIG RMK A2985
RPLL,2025-12-15 21:00,RPLL 152100Z VRB01KT 9999 FEW025 SCT100 25/24 Q1011 NOSIG RMK A2985
RPLL,2025-12-15 22:00,RPLL 152200Z VRB02KT 9999 FEW025 SCT100 25/24 Q1011 NOSIG RMK A2985
RPLL,2025-12-15 23:00,RPLL 152300Z VRB01KT 9999 FEW025 SCT100 25/25 Q1012 NOSIG RMK A2988
RPLL,2025-12-16 00:00,RPLL 160000Z 06004KT 010V090 9999 FEW025 SCT100 27/24 Q1012 NOSIG RMK A2988
RPLL,2025-12-16 01:00,RPLL 160100Z 04004KT 360V080 9999 FEW025 SCT100 28/24 Q1013 NOSIG RMK A2991
RPLL,2025-12-16 02:00,RPLL 160200Z 01006KT 280V060 9999 FEW025 30/24 Q1013 NOSIG RMK A2991
RPLL,2025-12-16 03:00,RPLL 160300Z 32008KT 270V350 9999 FEW025 BKN100 29/25 Q1012 NOSIG RMK A2988
RPLL,2025-12-16 04:00,RPLL 160400Z 32009KT 300V010 9999 FEW025 BKN100 29/25 Q1011 NOSIG RMK A2985
RPLL,2025-12-16 05:00,RPLL 160500Z 30006KT 260V060 9999 FEW025 BKN100 29/25 Q1010 NOSIG RMK A2983
RPLL,2025-12-16 06:00,RPLL 160600Z VRB03KT 9999 FEW025 31/24 Q1010 NOSIG RMK A2983
RPLL,2025-12-16 07:00,RPLL 160700Z VRB06KT 9999 -SHRA FEW025 BKN090 29/24 Q1009 NOSIG RMK A2980
RPLL,2025-12-16 08:00,RPLL 160800Z 36005KT 320V050 9999 FEW025 BKN090 27/25 Q1010 NOSIG RMK A2983
RPLL,2025-12-16 09:00,RPLL 160900Z VRB01KT 9999 FEW025 BKN100 28/25 Q1010 NOSIG RMK A2983
RPLL,2025-12-16 10:00,RPLL 161000Z 00000KT 9999 FEW025 BKN100 28/25 Q1011 NOSIG RMK A2985
RPLL,2025-12-16 11:00,RPLL 161100Z 13003KT 100V180 9999 FEW025 BKN100 27/26 Q1012 NOSIG RMK A2988
RPLL,2025-12-16 12:00,RPLL 161200Z 08004KT 050V120 9999 FEW025 BKN100 27/24 Q1012 NOSIG RMK A2988
RPLL,2025-12-16 13:00,RPLL 161300Z VRB01KT 9999 FEW025 BKN100 27/24 Q1012 NOSIG RMK A2988
RPLL,2025-12-16 14:00,RPLL 161400Z VRB02KT 9999 FEW025 BKN100 27/25 Q1012 NOSIG RMK A2988
RPLL,2025-12-16 15:00,RPLL 161500Z VRB02KT 9999 FEW025 26/24 Q1012 NOSIG RMK A2988
RPLL,2025-12-16 16:00,RPLL 161600Z VRB02KT 9999 FEW025 26/24 Q1012 NOSIG RMK A2988
RPLL,2025-12-16 17:00,RPLL 161700Z 01005KT 9999 FEW025 SCT100 26/23 Q1012 NOSIG RMK A2988
RPLL,2025-12-16 18:00,RPLL 161800Z 35003KT 300V040 9999 FEW025 BKN100 26/23 Q1011 NOSIG RMK A2985
RPLL,2025-12-16 19:00,RPLL 161900Z VRB01KT 9999 -RA FEW025 BKN100 25/24 Q1011 NOSIG RMK A2985
RPLL,2025-12-16 20:00,RPLL 162000Z 14002KT 9999 -RA FEW023 BKN090 25/25 Q1011 NOSIG RMK A2985
RPLL,2025-12-16 21:00,RPLL 162100Z 00000KT 9999 FEW025 BKN090 25/24 Q1011 NOSIG RMK A2985
RPLL,2025-12-16 22:00,RPLL 162200Z VRB02KT 9999 FEW025 BKN100 26/24 Q1011 NOSIG RMK A2985
RPLL,2025-12-16 23:00,RPLL 162300Z VRB02KT 9999 FEW025 BKN100 26/24 Q1012 NOSIG RMK A2988
RPLL,2025-12-17 00:00,RPLL 170000Z 30003KT 250V360 9999 FEW025 BKN100 27/24 Q1013 NOSIG RMK A2991
RPLL,2025-12-17 01:00,RPLL 170100Z 09005KT 070V130 9999 FEW025 BKN100 28/23 Q1013 NOSIG RMK A2991
RPLL,2025-12-17 02:00,RPLL 170200Z 09006KT 040V160 9999 FEW025 BKN100 29/23 Q1013 NOSIG RMK A2991
RPLL,2025-12-17 03:00,RPLL 170300Z 10007KT 060V160 9999 FEW025 BKN100 30/25 Q1013 NOSIG RMK A2991
RPLL,2025-12-17 04:00,RPLL 170400Z 11005KT 060V160 9999 FEW025 BKN100 31/23 Q1012 NOSIG RMK A2988
RPLL,2025-12-17 05:00,COR RPLL 170500Z 10006KT 060V160 9999 FEW025 BKN100 31/23 Q1011 NOSIG RMK A2985
RPLL,2025-12-17 06:00,RPLL 170600Z 11009KT 070V160 9999 FEW025 BKN100 31/23 Q1011 NOSIG RMK A2985
RPLL,2025-12-17 07:00,RPLL 170700Z 14007KT 110V170 9999 FEW025 SCT100 31/23 Q1010 NOSIG RMK A2983
RPLL,2025-12-17 08:00,RPLL 170800Z 11008KT 070V150 9999 FEW025 BKN100 30/24 Q1010 NOSIG RMK A2983
RPLL,2025-12-17 09:00,RPLL 170900Z 10006KT 060V140 9999 FEW025 SCT100 29/23 Q1011 NOSIG RMK A2985
RPLL,2025-12-17 10:00,RPLL 171000Z 12005KT 080V170 9999 FEW025 SCT100 28/23 Q1012 NOSIG RMK A2988
RPLL,2025-12-17 11:00,RPLL 171100Z 12005KT 090V150 9999 FEW025 BKN100 28/23 Q1012 NOSIG RMK A2988
RPLL,2025-12-17 12:00,RPLL 171200Z 12006KT 090V150 9999 FEW025 BKN100 28/23 Q1013 NOSIG RMK A2991
RPLL,2025-12-17 13:00,RPLL 171300Z 12005KT 100V170 9999 FEW025 BKN100 28/23 Q1013 NOSIG RMK A2991
RPLL,2025-12-17 14:00,RPLL 171400Z 12004KT 080V150 9999 FEW025 BKN100 27/23 Q1014 NOSIG RMK A2991
RPLL,2025-12-17 15:00,RPLL 171500Z 10004KT 060V140 9999 FEW025 SCT100 27/24 Q1013 NOSIG RMK A2991
RPLL,2025-12-17 16:00,RPLL 171600Z 10003KT 070V130 9999 FEW025 27/23 Q1013 NOSIG RMK A2991
RPLL,2025-12-17 17:00,RPLL 171700Z 10003KT 9999 FEW025 26/24 Q1012 NOSIG RMK A2988
RPLL,2025-12-17 19:00,RPLL 171900Z 01003KT 350V050 9999 FEW025 SCT100 27/23 Q1011 NOSIG RMK A2985
RPLL,2025-12-17 20:00,RPLL 172000Z 01003KT 280V070 9999 FEW025 BKN100 27/23 Q1011 NOSIG RMK A2985
RPLL,2025-12-17 21:00,RPLL 172100Z 14003KT 100V170 9999 FEW025 SCT100 26/23 Q1012 NOSIG RMK A2988
RPLL,2025-12-17 22:00,RPLL 172200Z COR 01004KT 310V060 9999 FEW025 26/23 Q1012 NOSIG RMK A2988
RPLL,2025-12-17 23:00,RPLL 172300Z 01005KT 310V040 9999 FEW025 26/23 Q1013 NOSIG RMK A2991
RPLL,2025-12-18 00:00,RPLL 180000Z 36004KT 310V060 9999 FEW025 28/23 Q1013 NOSIG RMK A2991
RPLL,2025-12-18 01:00,RPLL 180100Z 08004KT 010V120 9999 FEW025 SCT100 29/23 Q1014 NOSIG RMK A2994
RPLL,2025-12-18 02:00,RPLL 180200Z 10004KT 030V150 9999 FEW025 BKN100 30/22 Q1013 NOSIG RMK A2991
RPLL,2025-12-18 03:00,RPLL 180300Z 11007KT 070V160 9999 FEW025 BKN100 30/22 Q1013 NOSIG RMK A2991
RPLL,2025-12-18 04:00,RPLL 180400Z 08007KT 050V120 9999 FEW025 BKN100 30/23 Q1012 NOSIG RMK A2988
RPLL,2025-12-18 05:00,RPLL 180500Z 12008KT 060V160 9999 FEW025 BKN100 31/23 Q1011 NOSIG RMK A2985
RPLL,2025-12-18 05:11,RPLL 180511Z 11007KT 040V150 9999 -SHRA FEW025 BKN100 30/23 Q1011 NOSIG RMK A2985
RPLL,2025-12-18 06:00,RPLL 180600Z 09006KT 050V140 9999 -SHRA FEW025 BKN100 27/24 Q1011 NOSIG RMK A2985
RPLL,2025-12-18 07:00,RPLL 180700Z 08008KT 060V120 9999 FEW025 BKN100 29/23 Q1010 NOSIG RMK A2983
RPLL,2025-12-18 07:23,RPLL 180723Z 11006KT 070V160 9999 -RA FEW025 BKN100 29/23 Q1010 NOSIG RMK A2983
RPLL,2025-12-18 08:00,RPLL 180800Z 07007KT 050V120 9999 FEW025 BKN100 30/23 Q1010 NOSIG RMK A2983
RPLL,2025-12-18 09:00,RPLL 180900Z 09006KT 060V130 9999 SCT025 BKN100 29/23 Q1010 NOSIG RMK A2983
RPLL,2025-12-18 10:00,RPLL 181000Z 07011KT 9999 SCT025 BKN100 27/23 Q1011 NOSIG RMK A2985
RPLL,2025-12-18 11:00,RPLL 181100Z 10004KT 070V170 9999 SCT025 BKN100 27/23 Q1011 NOSIG RMK A2985
RPLL,2025-12-18 12:00,RPLL 181200Z 06004KT 9999 FEW025 SCT100 26/23 Q1011 NOSIG RMK A2985
RPLL,2025-12-18 13:00,RPLL 181300Z 03004KT 350V060 9999 FEW025 SCT100 27/23 Q1012 NOSIG RMK A2988
RPLL,2025-12-18 14:00,RPLL 181400Z 11003KT 9999 FEW025 SCT100 27/23 Q1012 NOSIG RMK A2988
RPLL,2025-12-18 15:00,RPLL 181500Z VRB02KT 9999 FEW025 BKN100 26/23 Q1012 NOSIG RMK A2988
RPLL,2025-12-18 16:00,RPLL 181600Z 08003KT 9999 FEW025 BKN100 26/23 Q1011 NOSIG RMK A2985
RPLL,2025-12-18 17:00,RPLL 181700Z 08003KT 040V110 9999 FEW025 BKN100 26/23 Q1011 NOSIG RMK A2985
RPLL,2025-12-18 18:00,RPLL 181800Z 08003KT 050V110 9999 FEW025 BKN100 26/23 Q1011 NOSIG RMK A2985
RPLL,2025-12-18 19:00,RPLL 181900Z VRB02KT 9999 FEW025 26/22 Q1010 NOSIG RMK A2983
RPLL,2025-12-18 20:00,RPLL 182000Z VRB02KT 9999 FEW025 BKN150 26/23 Q1009 NOSIG RMK A2980
RPLL,2025-12-18 21:00,RPLL 182100Z 34005KT 300V030 9999 FEW025 BKN150 26/23 Q1009 NOSIG RMK A2980
RPLL,2025-12-18 22:00,RPLL 182200Z 01004KT 320V060 9999 FEW025 BKN100 27/22 Q1010 NOSIG RMK A2983
RPLL,2025-12-18 23:00,RPLL 182300Z VRB02KT 9999 FEW025 BKN100 26/22 Q1010 NOSIG RMK A2983
RPLL,2025-12-19 00:00,RPLL 190000Z 35005KT 300V080 9999 FEW025 BKN100 28/22 Q1011 NOSIG RMK A2985
RPLL,2025-12-19 01:00,RPLL 190100Z VRB02KT 9999 FEW025 BKN100 29/23 Q1011 NOSIG RMK A2985
RPLL,2025-12-19 02:00,RPLL 190200Z 16005KT 120V210 9999 -RA SCT023 OVC090 28/24 Q1012 NOSIG RMK A2988
RPLL,2025-12-19 03:00,RPLL 190300Z 11007KT 050V150 9999 FEW025 BKN100 29/25 Q1011 NOSIG RMK A2985
RPLL,2025-12-19 04:00,RPLL 190400Z 04008KT 360V060 9999 FEW025 BKN100 30/23 Q1010 NOSIG RMK A2983
RPLL,2025-12-19 05:00,RPLL 190500Z 28006KT 240V310 9999 FEW025 BKN100 30/24 Q1009 NOSIG RMK A2980
RPLL,2025-12-19 06:00,RPLL 190600Z 28006KT 220V320 9999 SCT025 BKN090 30/24 Q1008 NOSIG RMK A2977
RPLL,2025-12-19 07:00,RPLL 190700Z 27004KT 240V310 9999 SCT025 BKN090 30/24 Q1008 NOSIG RMK A2977
RPLL,2025-12-19 07:29,RPLL 190729Z 08013KT 9000 -SHRA FEW023CB SCT025 BKN090 27/24 Q1008 NOSIG RMK A2977 CB W
RPLL,2025-12-19 08:00,RPLL 190800Z 02008KT 350V060 9999 -SHRA FEW023CB SCT025 BKN090 27/24 Q1008 NOSIG RMK A2977 CB E
RPLL,2025-12-19 09:00,RPLL 190900Z 01003KT 300V070 9999 FEW025 BKN100 27/24 Q1008 NOSIG RMK A2977
RPLL,2025-12-19 10:00,RPLL 191000Z VRB02KT 9999 FEW025 SCT100 27/24 Q1009 NOSIG RMK A2980
RPLL,2025-12-19 11:00,RPLL 191100Z 31003KT 280V360 9999 FEW025 27/24 Q1009 NOSIG RMK A2980
RPLL,2025-12-19 12:00,RPLL 191200Z VRB01KT 9999 FEW025 BKN100 27/24 Q1010 NOSIG RMK A2983
RPLL,2025-12-19 13:00,RPLL 191300Z VRB02KT 9999 FEW025 BKN100 27/24 Q1010 NOSIG RMK A2983
RPLL,2025-12-19 14:00,RPLL 191400Z VRB02KT 9999 FEW025 27/25 Q1010 NOSIG RMK A2983
RPLL,2025-12-19 15:00,RPLL 191500Z VRB02KT 9999 FEW025 SCT100 27/25 Q1010 NOSIG RMK A2983
RPLL,2025-12-19 16:00,RPLL 191600Z 11004KT 080V140 9999 FEW025 BKN100 27/24 Q1010 NOSIG RMK A2983
RPLL,2025-12-19 17:00,RPLL 191700Z VRB03KT 9999 FEW025 BKN100 27/24 Q1010 NOSIG RMK A2983
RPLL,2025-12-19 18:00,RPLL 191800Z VRB02KT 9999 FEW025 BKN100 26/24 Q1009 NOSIG RMK A2980
RPLL,2025-12-19 19:00,RPLL 191900Z 09003KT 020V130 9999 FEW025 26/24 Q1008 NOSIG RMK A2977
RPLL,2025-12-19 20:00,RPLL 192000Z 33004KT 270V020 9999 FEW025 26/24 Q1008 NOSIG RMK A2977
RPLL,2025-12-19 21:00,RPLL 192100Z 07002KT 9999 FEW025 26/24 Q1008 NOSIG RMK A2977
RPLL,2025-12-19 22:00,RPLL 192200Z VRB02KT 9999 FEW025 25/24 Q1009 NOSIG RMK A2980
RPLL,2025-12-19 23:00,RPLL 192300Z 23002KT 9999 FEW025 26/24 Q1009 NOSIG RMK A2980
RPLL,2025-12-20 00:00,RPLL 200000Z 20003KT 150V240 9999 FEW025 28/24 Q1010 NOSIG RMK A2983
RPLL,2025-12-20 01:00,RPLL 200100Z VRB02KT 9999 FEW025 30/24 Q1010 NOSIG RMK A2983
RPLL,2025-12-20 02:00,RPLL 200200Z VRB02KT 9999 FEW025 SCT100 31/23 Q1010 NOSIG RMK A2983
RPLL,2025-12-20 03:00,RPLL 200300Z 31007KT 270V340 9999 -SHRA SCT025 BKN090 28/24 Q1010 NOSIG RMK A2983
RPLL,2025-12-20 04:00,RPLL 200400Z 14008KT 100V190 9999 -RA SCT023 OVC090 27/25 Q1010 NOSIG RMK A2983
RPLL,2025-12-20 05:00,RPLL 200500Z 18003KT 110V270 9999 SCT025 OVC090 26/25 Q1009 NOSIG RMK A2980
RPLL,2025-12-20 06:00,RPLL 200600Z 13006G17KT 080V180 9999 -RA SCT023 OVC080 27/24 Q1009 NOSIG RMK A2980
RPLL,2025-12-20 07:00,RPLL 200700Z 08005KT 050V120 9000 -RA SCT023 OVC080 24/24 Q1009 NOSIG RMK A2980
RPLL,2025-12-20 08:00,RPLL 200800Z 11003KT 020V150 9000 -RA SCT023 OVC090 25/24 Q1008 NOSIG RMK A2977
RPLL,2025-12-20 09:00,RPLL 200900Z VRB01KT 9999 FEW025 BKN100 25/24 Q1008 NOSIG RMK A2977
RPLL,2025-12-20 10:00,RPLL 201000Z 03004KT 350V070 9999 SCT025 BKN100 26/23 Q1009 NOSIG RMK A2980
RPLL,2025-12-20 11:00,RPLL 201100Z 00000KT 9999 FEW025 26/23 Q1010 NOSIG RMK A2983
RPLL,2025-12-20 12:00,RPLL 201200Z 00000KT 9999 FEW025 BKN100 25/24 Q1010 NOSIG RMK A2983
RPLL,2025-12-20 13:00,RPLL 201300Z 35004KT 310V030 9999 FEW025 BKN100 26/23 Q1011 NOSIG RMK A2985
RPLL,2025-12-20 14:00,RPLL 201400Z VRB04KT 9999 FEW025 BKN100 26/23 Q1010 NOSIG RMK A2983
RPLL,2025-12-20 15:00,RPLL 201500Z 33003KT 290V030 9999 SCT025 BKN100 26/24 Q1011 NOSIG RMK A2985
RPLL,2025-12-20 16:00,RPLL 201600Z 01005KT 340V050 9999 FEW025 SCT100 26/23 Q1010 NOSIG RMK A2983
RPLL,2025-12-20 17:00,RPLL 201700Z VRB02KT 9999 FEW025 BKN100 25/24 Q1010 NOSIG RMK A2983
RPLL,2025-12-20 18:00,RPLL 201800Z 07004KT 9999 -RA FEW023 BKN090 25/24 Q1010 NOSIG RMK A2983
RPLL,2025-12-20 19:00,RPLL 201900Z VRB02KT 9999 FEW025 BKN130 25/24 Q1009 NOSIG RMK A2980
RPLL,2025-12-20 20:00,RPLL 202000Z 08002KT 9999 FEW025 BKN130 25/24 Q1009 NOSIG RMK A2980
RPLL,2025-12-20 21:00,RPLL 202100Z 00000KT 9999 FEW025 SCT130 25/24 Q1009 NOSIG RMK A2980
RPLL,2025-12-20 22:00,RPLL 202200Z VRB01KT 9999 FEW025 BKN130 25/24 Q1010 NOSIG RMK A2983
RPLL,2025-12-20 23:00,RPLL 202300Z VRB02KT 9999 FEW025 BKN100 25/24 Q1010 NOSIG RMK A2983
RPLL,2025-12-21 00:00,RPLL 210000Z 23003KT 9999 FEW025 BKN100 26/24 Q1011 NOSIG RMK A2985
RPLL,2025-12-21 01:00,RPLL 210100Z 27005KT 220V320 9999 FEW025 SCT100 28/25 Q1011 NOSIG RMK A2985
RPLL,2025-12-21 02:00,RPLL 210200Z 27005KT 240V310 9999 FEW025 28/24 Q1011 NOSIG RMK A2985
RPLL,2025-12-21 03:00,RPLL 210300Z VRB06KT 9000 FEW025 SCT100 29/24 Q1010 NOSIG RMK A2983
RPLL,2025-12-21 04:00,RPLL 210400Z VRB02KT 9000 FEW025 BKN100 29/24 Q1010 NOSIG RMK A2983
RPLL,2025-12-21 05:00,RPLL 210500Z 12004KT 060V230 9999 FEW025 BKN100 31/25 Q1009 NOSIG RMK A2980
RPLL,2025-12-21 06:00,RPLL 210600Z 11008KT 080V150 9999 FEW025 BKN100 30/24 Q1008 NOSIG RMK A2977
RPLL,2025-12-21 07:00,RPLL 210700Z 10006KT 060V140 9999 SCT025 BKN100 29/24 Q1007 NOSIG RMK A2974
RPLL,2025-12-21 08:00,RPLL 210800Z 11007KT 080V180 9999 FEW025 BKN100 30/24 Q1008 NOSIG RMK A2977
RPLL,2025-12-21 09:00,RPLL 210900Z 12007KT 090V180 9999 FEW025 BKN100 29/23 Q1008 NOSIG RMK A2977
RPLL,2025-12-21 10:00,RPLL 211000Z 12005KT 080V150 9999 FEW025 BKN100 28/23 Q1008 NOSIG RMK A2977
RPLL,2025-12-21 11:00,RPLL 211100Z 13004KT 100V200 9999 SCT025 BKN100 28/23 Q1010 NOSIG RMK A2983
RPLL,2025-12-21 12:00,RPLL 211200Z 13005KT 060V170 9999 FEW025 BKN100 28/23 Q1010 NOSIG RMK A2983
RPLL,2025-12-21 13:00,RPLL 211300Z 12005KT 090V160 9999 FEW025 BKN100 27/23 Q1010 NOSIG RMK A2983
RPLL,2025-12-21 14:00,RPLL 211400Z 12005KT 060V150 9999 FEW025 BKN100 27/23 Q1010 NOSIG RMK A2983
RPLL,2025-12-21 15:00,RPLL 211500Z 12007KT 080V160 9999 FEW025 BKN100 27/23 Q1010 NOSIG RMK A2983
RPLL,2025-12-21 16:00,RPLL 211600Z 10005KT 070V140 9999 FEW025 BKN100 27/23 Q1010 NOSIG RMK A2983
RPLL,2025-12-21 17:00,RPLL 211700Z 06004KT 9999 FEW025 BKN100 26/24 Q1010 NOSIG RMK A2983
RPLL,2025-12-21 18:00,RPLL 211800Z VRB02KT 9999 FEW025 BKN100 27/24 Q1009 NOSIG RMK A2980
RPLL,2025-12-21 19:00,RPLL 211900Z 00000KT 9999 FEW025 BKN100 26/24 Q1009 NOSIG RMK A2980
RPLL,2025-12-21 20:00,RPLL 212000Z VRB02KT 9999 FEW025 BKN100 26/24 Q1009 NOSIG RMK A2980
RPLL,2025-12-21 21:00,RPLL 212100Z 17002KT 9999 FEW025 BKN100 26/24 Q1009 NOSIG RMK A2980
RPLL,2025-12-21 22:00,RPLL 212200Z VRB02KT 9999 SCT024 BKN100 26/24 Q1009 NOSIG RMK A2980
RPLL,2025-12-21 23:00,RPLL 212300Z VRB01KT 9999 FEW025 BKN100 26/24 Q1010 NOSIG RMK A2983
RPLL,2025-12-22 00:00,RPLL 220000Z 10004KT 050V160 9999 FEW025 BKN100 28/24 Q1011 NOSIG RMK A2985
RPLL,2025-12-22 01:00,RPLL 220100Z 07004KT 040V120 9999 FEW025 BKN100 29/23 Q1011 NOSIG RMK A2985
RPLL,2025-12-22 02:00,RPLL 220200Z 11004KT 040V180 9999 FEW025 BKN100 29/23 Q1011 NOSIG RMK A2985
RPLL,2025-12-22 03:00,RPLL 220300Z 26003KT 220V330 9999 -SHRA FEW025 BKN100 27/25 Q1011 NOSIG RMK A2985
RPLL,2025-12-22 04:00,RPLL 220400Z 04007KT 350V070 9999 FEW025 OVC100 28/24 Q1011 NOSIG RMK A2985
RPLL,2025-12-22 05:00,RPLL 220500Z 01007KT 330V050 9999 -SHRA FEW025 BKN100 28/23 Q1010 NOSIG RMK A2983
RPLL,2025-12-22 06:00,RPLL 220600Z 32006KT 280V030 9999 FEW025 BKN100 28/24 Q1009 NOSIG RMK A2980
RPLL,2025-12-22 07:00,RPLL 220700Z 06005KT 010V100 9999 SCT023 BKN100 28/24 Q1008 NOSIG RMK A2977
RPLL,2025-12-22 08:00,RPLL 220800Z 12005KT 080V160 9999 FEW025 BKN100 29/24 Q1008 NOSIG RMK A2977
RPLL,2025-12-22 09:00,RPLL 220900Z 14005KT 080V180 9999 FEW025 SCT100 BKN300 29/23 Q1008 NOSIG RMK A2977
RPLL,2025-12-22 10:00,RPLL 221000Z 14004KT 090V200 9999 FEW025 BKN100 27/23 Q1009 NOSIG RMK A2980
RPLL,2025-12-22 11:00,RPLL 221100Z VRB02KT 9999 FEW025 BKN100 27/23 Q1009 NOSIG RMK A2980
RPLL,2025-12-22 12:00,RPLL 221200Z VRB02KT 9999 FEW025 BKN100 27/24 Q1010 NOSIG RMK A2983
RPLL,2025-12-22 13:00,RPLL 221300Z VRB02KT 9999 FEW025 BKN100 27/24 Q1010 NOSIG RMK A2983
RPLL,2025-12-22 14:00,RPLL 221400Z VRB02KT 9999 FEW025 BKN100 27/24 Q1010 NOSIG RMK A2983
RPLL,2025-12-22 15:00,RPLL 221500Z 20003KT 9999 SCT025 BKN100 27/24 Q1010 NOSIG RMK A2983
RPLL,2025-12-22 16:00,RPLL 221600Z 12004KT 100V160 9999 SCT025 BKN100 27/23 Q1010 NOSIG RMK A2983
RPLL,2025-12-22 17:00,RPLL 221700Z 13004KT 090V160 9999 FEW025 BKN100 26/23 Q1010 NOSIG RMK A2983
RPLL,2025-12-22 18:00,RPLL 221800Z VRB02KT 9999 FEW025 26/22 Q1009 NOSIG RMK A2980
RPLL,2025-12-22 19:00,RPLL 221900Z VRB02KT 9999 FEW025 SCT100 26/22 Q1009 NOSIG RMK A2980
RPLL,2025-12-22 20:00,RPLL 222000Z 15003KT 110V180 9999 FEW025 SCT100 25/23 Q1009 NOSIG RMK A2980
RPLL,2025-12-22 21:00,RPLL 222100Z VRB01KT 9999 FEW025 SCT100 25/23 Q1009 NOSIG RMK A2980
RPLL,2025-12-22 22:00,RPLL 222200Z VRB01KT 9999 SCT025 BKN100 26/23 Q1010 NOSIG RMK A2983
RPLL,2025-12-22 23:00,RPLL 222300Z VRB01KT 9999 FEW025 BKN100 26/23 Q1010 NOSIG RMK A2983
RPLL,2025-12-23 00:00,RPLL 230000Z VRB02KT 9999 FEW025 BKN100 27/23 Q1011 NOSIG RMK A2985
RPLL,2025-12-23 01:00,RPLL 230100Z VRB02KT 9999 FEW025 SCT100 29/22 Q1011 NOSIG RMK A2985
RPLL,2025-12-23 02:00,RPLL 230200Z 11003KT 360V150 9999 FEW025 SCT100 30/22 Q1011 NOSIG RMK A2985
RPLL,2025-12-23 03:00,RPLL 230300Z 11004KT 060V220 9999 FEW025 BKN100 30/22 Q1011 NOSIG RMK A2985
RPLL,2025-12-23 04:00,RPLL 230400Z 25006KT 170V300 9999 FEW025 BKN100 29/22 Q1010 NOSIG RMK A2983
RPLL,2025-12-23 05:00,COR RPLL 230500Z 25005KT 180V290 9999 FEW025 BKN100 30/22 Q1009 NOSIG RMK A2980
RPLL,2025-12-23 06:00,RPLL 230600Z 09010KT 060V130 9999 FEW025 BKN100 31/22 Q1009 NOSIG RMK A2980
RPLL,2025-12-23 07:00,RPLL 230700Z 11008KT 080V150 9999 FEW025 BKN100 30/23 Q1008 NOSIG RMK A2977
RPLL,2025-12-23 08:00,RPLL 230800Z 10009KT 070V130 9999 FEW025 BKN100 30/23 Q1008 NOSIG RMK A2977
RPLL,2025-12-23 09:00,RPLL 230900Z 09008KT 060V120 9999 FEW025 BKN100 29/22 Q1009 NOSIG RMK A2980
RPLL,2025-12-23 10:00,RPLL 231000Z 12003KT 080V180 9999 FEW025 SCT100 29/21 Q1009 NOSIG RMK A2980
RPLL,2025-12-23 11:00,RPLL 231100Z 13006KT 090V170 9999 SCT025 BKN090 28/23 Q1010 NOSIG RMK A2983
RPLL,2025-12-23 12:00,RPLL 231200Z 12003KT 080V170 9999 FEW025 SCT100 27/22 Q1011 NOSIG RMK A2985
RPLL,2025-12-23 13:00,RPLL 231300Z VRB02KT 9999 FEW025 SCT100 27/22 Q1011 NOSIG RMK A2985
RPLL,2025-12-23 14:00,RPLL 231400Z VRB02KT 9999 FEW025 SCT100 27/23 Q1010 NOSIG RMK A2983
RPLL,2025-12-23 15:00,RPLL 231500Z 11003KT 060V140 9999 FEW025 27/23 Q1010 NOSIG RMK A2983
RPLL,2025-12-23 16:00,RPLL 231600Z VRB02KT 9999 FEW025 27/23 Q1010 NOSIG RMK A2983
RPLL,2025-12-23 17:00,RPLL 231700Z 29003KT 9999 FEW025 26/23 Q1009 NOSIG RMK A2980
RPLL,2025-12-23 18:00,RPLL 231800Z 21003KT 9999 FEW025 SCT100 26/22 Q1009 NOSIG RMK A2980
RPLL,2025-12-23 19:00,RPLL 231900Z 27003KT 9999 FEW025 25/23 Q1008 NOSIG RMK A2977
RPLL,2025-12-23 20:00,RPLL 232000Z 01003KT 9999 FEW025 26/22 Q1009 NOSIG RMK A2980
RPLL,2025-12-23 21:00,RPLL 232100Z 00000KT 9999 FEW025 SCT100 25/22 Q1009 NOSIG RMK A2980
RPLL,2025-12-23 22:00,RPLL 232200Z VRB02KT 9999 FEW025 SCT100 25/23 Q1009 NOSIG RMK A2980
RPLL,2025-12-23 23:00,RPLL 232300Z 00000KT 9999 FEW025 25/23 Q1010 NOSIG RMK A2983
RPLL,2025-12-24 00:00,RPLL 240000Z VRB02KT 9999 FEW025 27/23 Q1011 NOSIG RMK A2985
RPLL,2025-12-24 01:00,RPLL 240100Z VRB02KT 9999 FEW025 29/22 Q1011 NOSIG RMK A2985
RPLL,2025-12-24 02:00,RPLL 240200Z VRB04KT 9999 FEW025 BKN090 29/23 Q1011 NOSIG RMK A2985
RPLL,2025-12-24 03:00,RPLL 240300Z 10005KT 040V190 9999 FEW025 BKN090 30/24 Q1010 NOSIG RMK A2983
RPLL,2025-12-24 04:00,RPLL 240400Z VRB04KT 9999 SCT025 OVC090 29/24 Q1009 NOSIG RMK A2980
RPLL,2025-12-24 05:00,RPLL 240500Z VRB02KT 9999 -RA SCT023 OVC090 28/25 Q1008 NOSIG RMK A2977
RPLL,2025-12-24 06:00,RPLL 240600Z 25004KT 200V290 9999 SCT023 BKN090 28/25 Q1007 NOSIG RMK A2974
RPLL,2025-12-24 07:00,RPLL 240700Z 17003KT 110V240 9999 SCT023 BKN090 28/25 Q1007 NOSIG RMK A2974
RPLL,2025-12-24 08:00,RPLL 240800Z 13005KT 090V170 9999 SCT023 BKN100 28/25 Q1007 NOSIG RMK A2974
RPLL,2025-12-24 09:00,RPLL 240900Z 12005KT 080V160 9999 SCT025 BKN100 29/24 Q1008 NOSIG RMK A2977
RPLL,2025-12-24 10:00,RPLL 241000Z 12004KT 080V150 9999 FEW025 BKN100 28/24 Q1008 NOSIG RMK A2977
RPLL,2025-12-24 11:00,RPLL 241100Z 11005KT 070V140 9999 FEW025 BKN100 27/24 Q1009 NOSIG RMK A2980
RPLL,2025-12-24 12:00,RPLL 241200Z 11003KT 070V160 9999 FEW025 27/23 Q1009 NOSIG RMK A2980
RPLL,2025-12-24 13:00,RPLL 241300Z 13004KT 090V190 9999 FEW025 27/23 Q1010 NOSIG RMK A2983
RPLL,2025-12-24 14:00,RPLL 241400Z 13003KT 090V170 9999 FEW025 SCT150 27/23 Q1010 NOSIG RMK A2983
RPLL,2025-12-24 15:00,RPLL 241500Z 12003KT 070V160 9999 FEW025 BKN150 27/23 Q1009 NOSIG RMK A2980
RPLL,2025-12-24 16:00,RPLL 241600Z 10005KT 060V130 9999 FEW025 BKN100 27/24 Q1010 NOSIG RMK A2983
RPLL,2025-12-24 17:00,RPLL 241700Z 10004KT 080V140 9999 SCT025 BKN100 26/24 Q1009 NOSIG RMK A2980
RPLL,2025-12-24 18:00,RPLL 241800Z VRB02KT 9999 FEW025 BKN100 26/23 Q1009 NOSIG RMK A2980
RPLL,2025-12-24 19:00,RPLL 241900Z 00000KT 9999 FEW025 BKN100 26/23 Q1009 NOSIG RMK A2980
RPLL,2025-12-24 20:00,RPLL 242000Z 18002KT 9999 FEW025 26/24 Q1009 NOSIG RMK A2980
RPLL,2025-12-24 21:00,RPLL 242100Z VRB02KT 9999 FEW025 SCT130 25/23 Q1009 NOSIG RMK A2980
RPLL,2025-12-24 22:00,RPLL 242200Z VRB01KT 9999 FEW025 SCT100 25/24 Q1010 NOSIG RMK A2983
RPLL,2025-12-24 23:00,RPLL 242300Z VRB02KT 9999 FEW025 SCT100 26/24 Q1010 NOSIG RMK A2983
RPLL,2025-12-25 00:00,RPLL 250000Z VRB02KT 9999 FEW025 27/24 Q1011 NOSIG RMK A2985
RPLL,2025-12-25 01:00,RPLL 250100Z 23003KT 150V320 9999 FEW025 29/24 Q1012 NOSIG RMK A2988
RPLL,2025-12-25 02:00,RPLL 250200Z 27005KT 240V310 9999 FEW025 BKN100 28/24 Q1011 NOSIG RMK A2985
RPLL,2025-12-25 03:00,RPLL 250300Z VRB02KT 9999 FEW025 BKN090 30/24 Q1011 NOSIG RMK A2985
RPLL,2025-12-25 04:00,RPLL 250400Z 11005KT 060V200 9999 FEW025 BKN090 31/23 Q1010 NOSIG RMK A2983
RPLL,2025-12-25 05:00,RPLL 250500Z VRB03KT 9999 SCT025 BKN090 30/23 Q1009 NOSIG RMK A2980
RPLL,2025-12-25 06:00,RPLL 250600Z 15004KT 060V210 9999 SCT025 BKN090 30/23 Q1008 NOSIG RMK A2977
RPLL,2025-12-25 07:00,RPLL 250700Z VRB06KT 9999 SCT025 BKN100 31/24 Q1008 NOSIG RMK A2977
RPLL,2025-12-25 08:00,RPLL 250800Z 15006KT 090V200 9999 SCT025 BKN100 30/24 Q1008 NOSIG RMK A2977
RPLL,2025-12-25 09:00,RPLL 250900Z 11007KT 070V140 9999 FEW025 SCT100 29/24 Q1008 NOSIG RMK A2977
RPLL,2025-12-25 10:00,RPLL 251000Z 13004KT 090V220 9999 FEW025 29/24 Q1009 NOSIG RMK A2980
RPLL,2025-12-25 11:00,RPLL 251100Z 12005KT 080V150 9999 FEW025 28/23 Q1010 NOSIG RMK A2983
RPLL,2025-12-25 12:00,RPLL 251200Z 11005KT 070V140 9999 FEW025 28/23 Q1010 NOSIG RMK A2983
RPLL,2025-12-25 13:00,RPLL 251300Z 10003KT 070V130 9999 FEW025 27/23 Q1011 NOSIG RMK A2985
RPLL,2025-12-25 14:00,RPLL 251400Z 12003KT 080V160 9999 FEW025 27/23 Q1011 NOSIG RMK A2985
RPLL,2025-12-25 15:00,RPLL 251500Z 13004KT 070V170 9999 FEW025 27/23 Q1011 NOSIG RMK A2985
RPLL,2025-12-25 16:00,RPLL 251600Z 15003KT 090V200 9999 FEW025 26/24 Q1010 NOSIG RMK A2983
RPLL,2025-12-25 17:00,RPLL 251700Z 14003KT 100V170 9999 FEW025 SCT100 26/25 Q1010 NOSIG RMK A2983
RPLL,2025-12-25 18:00,RPLL 251800Z 00000KT 9999 FEW025 26/24 Q1010 NOSIG RMK A2983
RPLL,2025-12-25 19:00,RPLL 251900Z VRB02KT 9999 FEW025 26/24 Q1010 NOSIG RMK A2983
RPLL,2025-12-25 20:00,RPLL 252000Z 24002KT 9999 FEW025 BKN100 26/24 Q1010 NOSIG RMK A2983
RPLL,2025-12-25 21:00,RPLL 252100Z VRB02KT 9999 FEW025 SCT100 26/24 Q1010 NOSIG RMK A2983
RPLL,2025-12-25 22:00,RPLL 252200Z VRB02KT 9999 FEW025 25/24 Q1010 NOSIG RMK A2983
RPLL,2025-12-25 23:00,RPLL 252300Z VRB02KT 9999 FEW025 BKN100 26/24 Q1011 NOSIG RMK A2985
RPLL,2025-12-26 00:00,RPLL 260000Z 22003KT 180V260 9999 FEW025 BKN100 27/24 Q1012 NOSIG RMK A2988
RPLL,2025-12-26 01:00,RPLL 260100Z VRB01KT 9999 FEW025 BKN100 28/24 Q1012 NOSIG RMK A2988
RPLL,2025-12-26 02:00,RPLL 260200Z 15006KT 080V210 9999 FEW025 BKN100 30/23 Q1012 NOSIG RMK A2988
RPLL,2025-12-26 03:00,RPLL 260300Z 12005KT 080V160 9999 FEW025 BKN100 29/23 Q1011 NOSIG RMK A2985
RPLL,2025-12-26 04:00,RPLL 260400Z 13006KT 060V180 9999 FEW025 BKN100 30/23 Q1010 NOSIG RMK A2983
RPLL,2025-12-26 05:00,RPLL 260500Z 12006KT 070V170 9999 FEW025 BKN100 32/23 Q1009 NOSIG RMK A2980
RPLL,2025-12-26 06:00,RPLL 260600Z VRB04KT 9999 FEW025 BKN090 30/23 Q1009 NOSIG RMK A2980
RPLL,2025-12-26 07:00,RPLL 260700Z 29004KT 260V360 9999 FEW025 BKN090 29/23 Q1008 NOSIG RMK A2977
RPLL,2025-12-26 08:00,RPLL 260800Z 29005KT 250V320 9999 FEW025 BKN100 30/23 Q1008 NOSIG RMK A2977
RPLL,2025-12-26 09:00,RPLL 260900Z 12006KT 080V150 9999 FEW025 30/22 Q1009 NOSIG RMK A2980
RPLL,2025-12-26 10:00,RPLL 261000Z 11005KT 070V140 9999 FEW025 29/21 Q1009 NOSIG RMK A2980
RPLL,2025-12-26 11:00,RPLL 261100Z 11004KT 050V140 9999 FEW025 SCT100 28/22 Q1010 NOSIG RMK A2983
RPLL,2025-12-26 12:00,RPLL 261200Z 11005KT 070V170 9999 FEW025 SCT100 28/22 Q1011 NOSIG RMK A2985
RPLL,2025-12-26 13:00,RPLL 261300Z 14005KT 100V190 9999 FEW025 27/22 Q1011 NOSIG RMK A2985
RPLL,2025-12-26 14:00,RPLL 261400Z 13005KT 100V170 9999 FEW025 27/22 Q1011 NOSIG RMK A2985
RPLL,2025-12-26 15:00,RPLL 261500Z 12004KT 080V160 9999 FEW025 27/22 Q1011 NOSIG RMK A2985
RPLL,2025-12-26 16:00,RPLL 261600Z 11003KT 070V160 9999 FEW025 27/23 Q1011 NOSIG RMK A2985
RPLL,2025-12-26 17:00,RPLL 261700Z 12003KT 070V170 9999 FEW025 26/23 Q1011 NOSIG RMK A2985
RPLL,2025-12-26 18:00,RPLL 261800Z VRB02KT 9999 FEW025 25/23 Q1010 NOSIG RMK A2983
RPLL,2025-12-26 19:00,RPLL 261900Z VRB01KT 9999 FEW025 25/23 Q1010 NOSIG RMK A2983
RPLL,2025-12-26 20:00,RPLL 262000Z VRB01KT 9999 FEW025 25/23 Q1010 NOSIG RMK A2983
RPLL,2025-12-26 21:00,RPLL 262100Z 00000KT 9999 FEW025 25/23 Q1010 NOSIG RMK A2983
RPLL,2025-12-26 22:00,RPLL 262200Z VRB02KT 9999 FEW025 25/23 Q1011 NOSIG RMK A2985
RPLL,2025-12-26 23:00,RPLL 262300Z 22003KT 190V270 9999 FEW025 25/23 Q1011 NOSIG RMK A2985
RPLL,2025-12-27 00:00,RPLL 270000Z VRB02KT 9999 FEW025 27/23 Q1012 NOSIG RMK A2988
RPLL,2025-12-27 01:00,RPLL 270100Z 26009KT 230V310 9999 FEW025 28/23 Q1012 NOSIG RMK A2988
RPLL,2025-12-27 02:00,RPLL 270200Z 26003KT 210V310 9999 FEW025 BKN100 28/23 Q1012 NOSIG RMK A2988
RPLL,2025-12-27 03:00,RPLL 270300Z 11005KT 040V160 9999 FEW025 31/22 Q1012 NOSIG RMK A2988
RPLL,2025-12-27 04:00,RPLL 270400Z VRB04KT 9999 FEW025 31/22 Q1011 NOSIG RMK A2985
RPLL,2025-12-27 05:00,RPLL 270500Z 31006KT 250V020 9999 FEW025 SCT100 31/23 Q1010 NOSIG RMK A2983
RPLL,2025-12-27 06:00,RPLL 270600Z 28005KT 250V310 9999 FEW025 SCT100 30/24 Q1009 NOSIG RMK A2980
RPLL,2025-12-27 07:00,RPLL 270700Z 31003KT 240V050 9999 FEW025 SCT100 31/24 Q1009 NOSIG RMK A2980 FU N
RPLL,2025-12-27 08:00,RPLL 270800Z 28005KT 230V320 9999 FEW025 SCT100 30/23 Q1009 NOSIG RMK A2980
RPLL,2025-12-27 09:00,RPLL 270900Z 19003KT 110V230 9999 FEW025 BKN100 30/23 Q1010 NOSIG RMK A2983
RPLL,2025-12-27 10:00,RPLL 271000Z 18004KT 130V220 9999 FEW025 BKN100 29/23 Q1010 NOSIG RMK A2983
RPLL,2025-12-27 11:00,RPLL 271100Z 16003KT 120V230 9999 FEW025 BKN100 29/23 Q1011 NOSIG RMK A2985
RPLL,2025-12-27 12:00,COR RPLL 271200Z 17004KT 130V220 9999 FEW025 28/23 Q1012 NOSIG RMK A2988
RPLL,2025-12-27 13:00,RPLL 271300Z 16003KT 120V220 9999 FEW025 27/23 Q1012 NOSIG RMK A2988
RPLL,2025-12-27 14:00,RPLL 271400Z 15004KT 080V210 9999 FEW025 27/23 Q1012 NOSIG RMK A2988
RPLL,2025-12-27 15:00,RPLL 271500Z 14003KT 090V180 9999 FEW025 SCT100 27/23 Q1012 NOSIG RMK A2988
RPLL,2025-12-27 16:00,RPLL 271600Z VRB02KT 9999 FEW025 BKN100 27/23 Q1012 NOSIG RMK A2988
RPLL,2025-12-27 17:00,RPLL 271700Z 14003KT 100V180 9999 FEW025 BKN100 27/23 Q1011 NOSIG RMK A2985
RPLL,2025-12-27 18:00,RPLL 271800Z VRB02KT 9999 FEW025 BKN100 27/24 Q1011 NOSIG RMK A2985
RPLL,2025-12-27 19:00,RPLL 271900Z 19003KT 170V230 9999 FEW025 26/23 Q1011 NOSIG RMK A2985
RPLL,2025-12-27 20:00,RPLL 272000Z VRB02KT 9999 FEW025 25/24 Q1011 NOSIG RMK A2985
RPLL,2025-12-27 21:00,RPLL 272100Z VRB01KT 9999 FEW025 25/24 Q1011 NOSIG RMK A2985
RPLL,2025-12-27 22:00,RPLL 272200Z VRB02KT 9999 FEW025 25/23 Q1011 NOSIG RMK A2985
RPLL,2025-12-27 23:00,RPLL 272300Z 01005KT 330V140 9999 FEW025 SCT100 26/23 Q1012 NOSIG RMK A2988
RPLL,2025-12-28 00:00,RPLL 280000Z 36005KT 310V060 9999 FEW025 SCT100 27/22 Q1012 NOSIG RMK A2988
RPLL,2025-12-28 01:00,COR RPLL 280100Z 01006KT 220V050 9999 FEW025 BKN100 28/22 Q1013 NOSIG RMK A2991
RPLL,2025-12-28 02:00,RPLL 280200Z VRB05KT 9999 FEW025 30/22 Q1013 NOSIG RMK A2991
RPLL,2025-12-28 03:00,RPLL 280300Z 29007KT 260V330 9999 FEW025 29/24 Q1013 NOSIG RMK A2991
RPLL,2025-12-28 04:00,RPLL 280400Z 28007KT 9999 FEW025 SCT100 30/24 Q1012 NOSIG RMK A2988
RPLL,2025-12-28 05:00,RPLL 280500Z 30007KT 270V330 9999 FEW025 SCT100 30/24 Q1010 NOSIG RMK A2983
RPLL,2025-12-28 06:00,RPLL 280600Z 28008KT 240V300 9999 FEW025 30/25 Q1009 NOSIG RMK A2980
RPLL,2025-12-28 07:00,RPLL 280700Z 27009KT 9999 FEW025 30/25 Q1009 NOSIG RMK A2980
RPLL,2025-12-28 08:00,RPLL 280800Z 27007KT 240V330 9999 FEW025 30/23 Q1009 NOSIG RMK A2980
RPLL,2025-12-28 09:00,RPLL 280900Z 28006KT 9999 FEW025 29/24 Q1009 NOSIG RMK A2980
RPLL,2025-12-28 10:00,RPLL 281000Z 25004KT 230V300 9999 FEW025 SCT100 28/23 Q1010 NOSIG RMK A2983
RPLL,2025-12-28 11:00,RPLL 281100Z 24004KT 200V290 9999 FEW025 BKN100 29/23 Q1011 NOSIG RMK A2985
RPLL,2025-12-28 12:00,RPLL 281200Z 25004KT 210V270 9999 FEW025 SCT100 27/24 Q1012 NOSIG RMK A2988
RPLL,2025-12-28 13:00,RPLL 281300Z 18003KT 150V220 9999 FEW025 BKN100 28/24 Q1012 NOSIG RMK A2988
RPLL,2025-12-28 14:00,COR RPLL 281400Z VRB02KT 9999 FEW025 28/23 Q1012 NOSIG RMK A2988
RPLL,2025-12-28 15:00,RPLL 281500Z VRB02KT 9999 FEW025 BKN100 28/24 Q1012 NOSIG RMK A2988
RPLL,2025-12-28 16:00,RPLL 281600Z VRB02KT 9999 FEW025 BKN100 27/23 Q1012 NOSIG RMK A2988
RPLL,2025-12-28 17:00,RPLL 281700Z 23002KT 9999 FEW025 SCT100 27/23 Q1011 NOSIG RMK A2985
RPLL,2025-12-28 18:00,RPLL 281800Z 25003KT 9999 FEW025 26/23 Q1010 NOSIG RMK A2983
RPLL,2025-12-28 19:00,RPLL 281900Z 21003KT 180V250 9999 FEW025 SCT100 26/23 Q1009 NOSIG RMK A2980
RPLL,2025-12-28 20:00,RPLL 282000Z VRB02KT 9999 FEW025 26/23 Q1009 NOSIG RMK A2980
RPLL,2025-12-28 21:00,RPLL 282100Z 01005KT 320V060 9999 FEW025 SCT100 26/23 Q1009 NOSIG RMK A2980
RPLL,2025-12-28 22:00,RPLL 282200Z 36006KT 9999 FEW025 SCT100 26/23 Q1010 NOSIG RMK A2983
RPLL,2025-12-28 23:00,RPLL 282300Z 36004KT 320V020 9999 FEW025 SCT100 26/23 Q1010 NOSIG RMK A2983
RPLL,2025-12-29 00:00,RPLL 290000Z VRB03KT 9999 FEW025 27/23 Q1011 NOSIG RMK A2985
RPLL,2025-12-29 01:00,RPLL 290100Z 32005KT 280V360 9999 FEW025 SCT100 28/23 Q1011 NOSIG RMK A2985
RPLL,2025-12-29 02:00,RPLL 290200Z 04004KT 330V090 9999 FEW025 SCT100 29/24 Q1011 NOSIG RMK A2985
RPLL,2025-12-29 03:00,RPLL 290300Z VRB02KT 9999 FEW025 30/22 Q1011 NOSIG RMK A2985
RPLL,2025-12-29 04:00,RPLL 290400Z 30007KT 280V340 9999 FEW025 31/23 Q1010 NOSIG RMK A2983
RPLL,2025-12-29 05:00,RPLL 290500Z 30008KT 270V330 9999 FEW025 31/24 Q1009 NOSIG RMK A2980
RPLL,2025-12-29 06:00,RPLL 290600Z 32008KT 270V340 9999 FEW025 31/24 Q1008 NOSIG RMK A2977
RPLL,2025-12-29 07:00,RPLL 290700Z 30007KT 270V340 9999 FEW025 31/24 Q1008 NOSIG RMK A2977
RPLL,2025-12-29 08:00,RPLL 290800Z 30006KT 260V340 9999 FEW025 30/24 Q1008 NOSIG RMK A2977
RPLL,2025-12-29 09:00,RPLL 290900Z 32005KT 290V360 9999 FEW025 30/23 Q1008 NOSIG RMK A2977
RPLL,2025-12-29 10:00,RPLL 291000Z 29003KT 9999 FEW025 SCT100 29/23 Q1009 NOSIG RMK A2980
RPLL,2025-12-29 11:00,RPLL 291100Z VRB02KT 9999 FEW025 BKN100 29/24 Q1009 NOSIG RMK A2980
RPLL,2025-12-29 12:00,RPLL 291200Z 18003KT 140V240 9999 SCT025 BKN090 29/24 Q1010 NOSIG RMK A2983
RPLL,2025-12-29 13:00,RPLL 291300Z 21003KT 140V240 9999 SCT025 BKN090 28/24 Q1011 NOSIG RMK A2985
RPLL,2025-12-29 14:00,RPLL 291400Z VRB02KT 9999 SCT025 BKN100 28/24 Q1011 NOSIG RMK A2985
RPLL,2025-12-29 15:00,RPLL 291500Z 18004KT 140V220 9999 SCT025 BKN100 28/23 Q1011 NOSIG RMK A2985
RPLL,2025-12-29 16:00,RPLL 291600Z VRB02KT 9999 SCT025 BKN100 27/23 Q1011 NOSIG RMK A2985
RPLL,2025-12-29 17:00,RPLL 291700Z 01006KT 340V040 9999 FEW025 BKN100 27/23 Q1010 NOSIG RMK A2983
RPLL,2025-12-29 18:00,RPLL 291800Z 33005KT 310V020 9999 SCT025 BKN100 27/23 Q1010 NOSIG RMK A2983
RPLL,2025-12-29 19:00,RPLL 291900Z 01008KT 9999 FEW025 BKN100 26/23 Q1009 NOSIG RMK A2980
RPLL,2025-12-29 20:00,RPLL 292000Z 01006KT 9999 FEW025 BKN100 26/23 Q1009 NOSIG RMK A2980
RPLL,2025-12-29 21:00,RPLL 292100Z 01006KT 9999 FEW025 26/23 Q1009 NOSIG RMK A2980
RPLL,2025-12-29 22:00,RPLL 292200Z 01006KT 9999 FEW025 26/23 Q1009 NOSIG RMK A2980
RPLL,2025-12-29 23:00,RPLL 292300Z 02005KT 330V040 9999 FEW025 BKN100 26/23 Q1010 NOSIG RMK A2983
RPLL,2025-12-30 00:00,RPLL 300000Z 36006KT 330V050 9999 FEW025 27/23 Q1011 NOSIG RMK A2985
RPLL,2025-12-30 01:00,RPLL 300100Z 03005KT 360V060 9999 FEW025 28/23 Q1011 NOSIG RMK A2985
RPLL,2025-12-30 02:00,RPLL 300200Z 35004KT 280V070 9999 FEW025 29/23 Q1011 NOSIG RMK A2985
RPLL,2025-12-30 03:00,RPLL 300300Z 26006KT 240V300 9999 FEW025 SCT100 29/24 Q1010 NOSIG RMK A2983
RPLL,2025-12-30 04:00,RPLL 300400Z 29007KT 260V330 9999 FEW025 30/24 Q1009 NOSIG RMK A2980
RPLL,2025-12-30 05:00,RPLL 300500Z 27006KT 230V320 9999 FEW025 30/24 Q1008 NOSIG RMK A2977
RPLL,2025-12-30 06:00,RPLL 300600Z 28005KT 230V340 9999 FEW025 31/25 Q1007 NOSIG RMK A2974
RPLL,2025-12-30 07:00,RPLL 300700Z 17005KT 130V230 9999 FEW025 32/22 Q1007 NOSIG RMK A2974
RPLL,2025-12-30 08:00,RPLL 300800Z 13004KT 080V170 9999 FEW025 31/22 Q1007 NOSIG RMK A2974
RPLL,2025-12-30 09:00,RPLL 300900Z 11004KT 070V190 9999 FEW025 31/23 Q1007 NOSIG RMK A2974
RPLL,2025-12-30 10:00,RPLL 301000Z 14004KT 100V170 9999 FEW025 29/24 Q1007 NOSIG RMK A2974
RPLL,2025-12-30 11:00,RPLL 301100Z 13003KT 090V170 9999 FEW025 28/24 Q1008 NOSIG RMK A2977
RPLL,2025-12-30 12:00,RPLL 301200Z 15005KT 110V190 9999 FEW025 BKN100 28/24 Q1009 NOSIG RMK A2980
RPLL,2025-12-30 13:00,RPLL 301300Z 15005KT 080V200 9999 FEW025 SCT100 28/24 Q1009 NOSIG RMK A2980
RPLL,2025-12-30 14:00,RPLL 301400Z 15004KT 110V220 9999 FEW025 BKN100 28/24 Q1009 NOSIG RMK A2980
RPLL,2025-12-30 15:00,RPLL 301500Z 13004KT 100V180 9999 FEW025 BKN100 28/23 Q1009 NOSIG RMK A2980
RPLL,2025-12-30 16:00,RPLL 301600Z 16003KT 110V220 9999 SCT025 BKN100 27/24 Q1009 NOSIG RMK A2980
RPLL,2025-12-30 17:00,RPLL 301700Z 30005KT 270V330 9999 SCT025 BKN100 27/23 Q1009 NOSIG RMK A2980
RPLL,2025-12-30 18:00,RPLL 301800Z 30003KT 9999 SCT025 BKN100 27/23 Q1008 NOSIG RMK A2977
RPLL,2025-12-30 19:00,RPLL 301900Z 02004KT 9999 SCT025 BKN100 26/23 Q1008 NOSIG RMK A2977
RPLL,2025-12-30 20:00,RPLL 302000Z 02003KT 9999 FEW025 BKN100 26/23 Q1008 NOSIG RMK A2977
RPLL,2025-12-30 21:00,RPLL 302100Z 01003KT 9999 FEW025 BKN090 26/23 Q1008 NOSIG RMK A2977
RPLL,2025-12-30 22:00,RPLL 302200Z VRB01KT 9999 FEW025 SCT100 26/23 Q1008 NOSIG RMK A2977
RPLL,2025-12-30 23:00,RPLL 302300Z 00000KT 9999 FEW025 SCT100 26/23 Q1009 NOSIG RMK A2980
